MRPV,2023,12,01,00,00,METAR MRPV 010000Z 10012KT 9999 FEW020 22/17 A2999 NOSIG=
MRPV,2023,12,01,01,00,METAR MRPV NIL=
MRPV,2023,12,01,02,00,METAR MRPV NIL=
MRPV,2023,12,01,03,00,METAR MRPV NIL=
MRPV,2023,12,01,04,00,METAR MRPV NIL=
MRPV,2023,12,01,05,00,METAR MRPV NIL=
MRPV,2023,12,01,06,00,METAR MRPV NIL=
MRPV,2023,12,01,07,00,METAR MRPV NIL=
MRPV,2023,12,01,08,00,METAR MRPV NIL=
MRPV,2023,12,01,09,00,METAR MRPV NIL=
MRPV,2023,12,01,10,00,METAR MRPV NIL=
MRPV,2023,12,01,11,00,METAR MRPV NIL=
MRPV,2023,12,01,12,00,METAR MRPV 011200Z 13008KT 9999 FEW040 BKN200 20/15 A3003 NOSIG=
MRPV,2023,12,01,13,00,METAR MRPV 011300Z 12009KT 9999 FEW040 BKN200 21/15 A3005 NOSIG=
MRPV,2023,12,01,14,00,METAR MRPV 011400Z 10013KT 9999 FEW045 BKN200 22/16 A3006 NOSIG=
MRPV,2023,12,01,15,00,METAR MRPV 011500Z 08016KT 9999 FEW045 SCT160 24/16 A3006 NOSIG=
MRPV,2023,12,01,16,00,METAR MRPV 011600Z 08018KT 9999 FEW045 SCT160 25/15 A3006 NOSIG=
MRPV,2023,12,01,17,00,METAR MRPV 011700Z 09017KT 9999 FEW045 SCT180 26/15 A3004 NOSIG=
MRPV,2023,12,01,18,00,METAR MRPV 011800Z 08018KT 9999 FEW045 SCT200 27/14 A3002 NOSIG=
MRPV,2023,12,01,19,00,METAR MRPV 011900Z 07018G28KT 9999 FEW045 BKN200 27/14 A2999 NOSIG=
MRPV,2023,12,01,20,00,METAR MRPV 012000Z 07014G24KT CAVOK 26/13 A2998 NOSIG=
MRPV,2023,12,01,21,00,METAR MRPV 012100Z 07014KT CAVOK 26/14 A2997 NOSIG=
MRPV,2023,12,01,22,00,METAR MRPV 012200Z 08010KT 9999 FEW030 26/15 A2997 NOSIG=
MRPV,2023,12,01,23,00,METAR MRPV NIL=
MRPV,2023,12,02,00,00,METAR MRPV 020000Z 11006KT CAVOK 22/15 A3000 NOSIG=
MRPV,2023,12,02,01,00,METAR MRPV NIL=
MRPV,2023,12,02,02,00,METAR MRPV NIL=
MRPV,2023,12,02,03,00,METAR MRPV NIL=
MRPV,2023,12,02,04,00,METAR MRPV NIL=
MRPV,2023,12,02,05,00,METAR MRPV NIL=
MRPV,2023,12,02,06,00,METAR MRPV NIL=
MRPV,2023,12,02,07,00,METAR MRPV NIL=
MRPV,2023,12,02,08,00,METAR MRPV NIL=
MRPV,2023,12,02,09,00,METAR MRPV NIL=
MRPV,2023,12,02,10,00,METAR MRPV NIL=
MRPV,2023,12,02,11,00,METAR MRPV NIL=
MRPV,2023,12,02,12,00,METAR MRPV COR 021200Z 13009KT CAVOK 19/14 A3003 NOSIG=
MRPV,2023,12,02,13,00,METAR MRPV COR 021300Z 13010KT CAVOK 21/14 A3004 NOSIG=
MRPV,2023,12,02,14,00,METAR MRPV 021400Z 11011G23KT CAVOK 23/15 A3006 NOSIG=
MRPV,2023,12,02,15,00,METAR MRPV COR 021500Z 08016KT CAVOK 24/14 A3006 NOSIG=
MRPV,2023,12,02,16,00,METAR MRPV NIL=
MRPV,2023,12,02,17,00,METAR MRPV COR 021700Z 07010KT CAVOK 27/15 A3003 NOSIG=
MRPV,2023,12,02,18,00,METAR MRPV NIL=
MRPV,2023,12,02,19,00,METAR MRPV 021900Z 08014G24KT CAVOK 28/15 A2997 NOSIG=
MRPV,2023,12,02,20,00,METAR MRPV 022000Z 08016KT 9999 FEW045 27/16 A2995 NOSIG=
MRPV,2023,12,02,21,00,METAR MRPV 022100Z 09015KT 9999 FEW035 26/16 A2994 NOSIG=
MRPV,2023,12,02,22,00,METAR MRPV 022200Z 09013KT 9999 FEW035 26/16 A2995 NOSIG=
MRPV,2023,12,02,23,00,METAR MRPV 022300Z 09014KT 9999 FEW040 23/16 A2996 NOSIG=
MRPV,2023,12,03,00,00,METAR MRPV 030000Z 11010KT 9999 FEW040 22/14 A29967 NOSIG=
MRPV,2023,12,03,01,00,METAR MRPV NIL=
MRPV,2023,12,03,02,00,METAR MRPV NIL=
MRPV,2023,12,03,03,00,METAR MRPV NIL=
MRPV,2023,12,03,04,00,METAR MRPV NIL=
MRPV,2023,12,03,05,00,METAR MRPV NIL=
MRPV,2023,12,03,06,00,METAR MRPV NIL=
MRPV,2023,12,03,07,00,METAR MRPV NIL=
MRPV,2023,12,03,08,00,METAR MRPV NIL=
MRPV,2023,12,03,09,00,METAR MRPV NIL=
MRPV,2023,12,03,10,00,METAR MRPV NIL=
MRPV,2023,12,03,11,00,METAR MRPV NIL=
MRPV,2023,12,03,12,00,METAR MRPV 031200Z 13010KT CAVOK 20/14 A3003 NOSIG=
MRPV,2023,12,03,13,00,METAR MRPV 031300Z 13006KT CAVOK 20/14 A3004 NOSIG=
MRPV,2023,12,03,14,00,METAR MRPV 031400Z 13008KT CAVOK 22/14 A3005 NOSIG=
MRPV,2023,12,03,15,00,METAR MRPV 031500Z 10009KT CAVOK 25/14 A3006 NOSIG=
MRPV,2023,12,03,16,00,METAR MRPV 031600Z 07008KT CAVOK 27/15 A3004 NOSIG=
MRPV,2023,12,03,17,00,METAR MRPV 031700Z 07012KT CAVOK 27/16 A3002 NOSIG=
MRPV,2023,12,03,18,00,METAR MRPV 031800Z 08015KT CAVOK 27/17 A2999 NOSIG=
MRPV,2023,12,03,19,00,METAR MRPV 031900Z 08014KT 9999 FEW040 SCT200 27/17 A2996 NOSIG=
MRPV,2023,12,03,20,00,METAR MRPV 032000Z 08013KT 9999 FEW040 BKN200 27/18 A2994 NOSIG=
MRPV,2023,12,03,21,00,METAR MRPV 032100Z 10012KT 9999 SCT035 BKN200 27/17 A2994 NOSIG=
MRPV,2023,12,03,22,00,METAR MRPV 032200Z 08013KT 9999 SCT035 BKN200 25/17 A2995 NOSIG=
MRPV,2023,12,03,23,00,METAR MRPV 032300Z 08013KT 9999 SCT035 BKN200 23/17 A2997 NOSIG=
MRPV,2023,12,04,00,00,METAR MRPV 040000Z 12009KT 9999 SCT035 SCT200 22/17 A2999 NOSIG=
MRPV,2023,12,04,01,00,METAR MRPV NIL=
MRPV,2023,12,04,02,00,METAR MRPV NIL=
MRPV,2023,12,04,03,00,METAR MRPV NIL=
MRPV,2023,12,04,04,00,METAR MRPV NIL=
MRPV,2023,12,04,05,00,METAR MRPV NIL=
MRPV,2023,12,04,06,00,METAR MRPV NIL=
MRPV,2023,12,04,07,00,METAR MRPV NIL=
MRPV,2023,12,04,08,00,METAR MRPV NIL=
MRPV,2023,12,04,09,00,METAR MRPV NIL=
MRPV,2023,12,04,10,00,METAR MRPV NIL=
MRPV,2023,12,04,11,00,METAR MRPV NIL=
MRPV,2023,12,04,12,00,METAR MRPV 041200Z 13009KT CAVOK 19/12 A2997 NOSIG=
MRPV,2023,12,04,13,00,METAR MRPV 041300Z 14009KT CAVOK 21/13 A3002 NOSIG=
MRPV,2023,12,04,14,00,METAR MRPV 041400Z 12006KT CAVOK 24/14 A3004 NOSIG=
MRPV,2023,12,04,15,00,METAR MRPV 041500Z 08016KT CAVOK 25/14 A3004 NOSIG=
MRPV,2023,12,04,16,00,METAR MRPV 041600Z 08013KT CAVOK 26/15 A3003 NOSIG=
MRPV,2023,12,04,17,00,METAR MRPV 041700Z 08013KT CAVOK 27/16 A3001 NOSIG=
MRPV,2023,12,04,18,00,METAR MRPV 041800Z 09016KT 9999 FEW045 26/16 A2999 NOSIG=
MRPV,2023,12,04,19,00,METAR MRPV 041900Z 07011KT 9999 FEW045 27/16 A2996 NOSIG=
MRPV,2023,12,04,20,00,METAR MRPV 042000Z 07011KT 9999 FEW045 28/16 A2995 NOSIG=
MRPV,2023,12,04,21,00,METAR MRPV 042100Z 06014G26KT 9999 FEW045 26/16 A2995 NOSIG=
MRPV,2023,12,04,22,00,METAR MRPV 042200Z 08012KT 9999 FEW030 25/16 A2996 NOSIG=
MRPV,2023,12,04,23,00,METAR MRPV 042300Z 08012KT 9999 FEW030 23/16 A2997 NOSIG=
MRPV,2023,12,05,00,00,METAR MRPV 050000Z 10011KT 9999 FEW030 22/16 A2999 NOSIG=
MRPV,2023,12,05,01,00,METAR MRPV NIL=
MRPV,2023,12,05,02,00,METAR MRPV NIL=
MRPV,2023,12,05,03,00,METAR MRPV NIL=
MRPV,2023,12,05,04,00,METAR MRPV NIL=
MRPV,2023,12,05,05,00,METAR MRPV NIL=
MRPV,2023,12,05,06,00,METAR MRPV NIL=
MRPV,2023,12,05,07,00,METAR MRPV NIL=
MRPV,2023,12,05,08,00,METAR MRPV NIL=
MRPV,2023,12,05,09,00,METAR MRPV NIL=
MRPV,2023,12,05,10,00,METAR MRPV NIL=
MRPV,2023,12,05,11,00,METAR MRPV NIL=
MRPV,2023,12,05,12,00,METAR MRPV 051200Z 11011KT 9999 FEW035 20/15 A3002 NOSIG=
MRPV,2023,12,05,13,00,METAR MRPV 051300Z 10012KT 9999 FEW035 21/15 A3004 NOSIG=
MRPV,2023,12,05,14,00,METAR MRPV 051400Z 09017KT 9999 FEW035 24/12 A3004 NOSIG=
MRPV,2023,12,05,15,00,METAR MRPV 051500Z 09015KT 9999 FEW045 25/15 A3006 NOSIG=
MRPV,2023,12,05,16,00,METAR MRPV 051600Z 07017KT 9999 FEW045 26/16 A3006 NOSIG=
MRPV,2023,12,05,17,00,METAR MRPV 051700Z 07015KT 9999 FEW045 26/15 A3004 NOSIG=
MRPV,2023,12,05,18,00,METAR MRPV 051800Z 07016KT CAVOK 27/15 A3002 NOSIG=
MRPV,2023,12,05,19,00,METAR MRPV 051900Z 08017KT 9999 FEW045 28/15 A2999 NOSIG=
MRPV,2023,12,05,20,00,METAR MRPV 052000Z 09019KT 9999 FEW040 25/16 A2997 NOSIG=
MRPV,2023,12,05,21,00,METAR MRPV 052100Z 06014KT 9999 FEW035 25/16 A2996 NOSIG=
MRPV,2023,12,05,22,00,METAR COR MRPV 052200Z 08016G28KT 9999 FEW035 25/16 A2996 NOSIG=
MRPV,2023,12,05,23,00,METAR MRPV 052300Z 11010KT 9999 FEW045 23/17 A2998 NOSIG=
MRPV,2023,12,06,00,00,METAR MRPV 060000Z 10014KT 9999 FEW035 22/16 A3000 NOSIG=
MRPV,2023,12,06,01,00,METAR MRPV NIL=
MRPV,2023,12,06,02,00,METAR MRPV NIL=
MRPV,2023,12,06,03,00,METAR MRPV NIL=
MRPV,2023,12,06,04,00,METAR MRPV NIL=
MRPV,2023,12,06,05,00,METAR MRPV NIL=
MRPV,2023,12,06,06,00,METAR MRPV NIL=
MRPV,2023,12,06,07,00,METAR MRPV NIL=
MRPV,2023,12,06,08,00,METAR MRPV NIL=
MRPV,2023,12,06,09,00,METAR MRPV NIL=
MRPV,2023,12,06,10,00,METAR MRPV NIL=
MRPV,2023,12,06,11,00,METAR MRPV NIL=
MRPV,2023,12,06,12,00,METAR MRPV 061200Z 11012KT 9999 FEW035 21/16 A3002 NOSIG=
MRPV,2023,12,06,13,00,METAR MRPV 061300Z 10013KT 9999 FEW035 22/16 A3005 NOSIG=
MRPV,2023,12,06,14,00,METAR MRPV 061400Z 08018KT 9999 FEW030 23/16 A3007 NOSIG=
MRPV,2023,12,06,15,00,METAR MRPV 061500Z 09017KT 9999 SCT035 23/16 A3007 NOSIG=
MRPV,2023,12,06,16,00,METAR MRPV 061600Z 08016KT 9999 BKN040 24/16 A3006 NOSIG=
MRPV,2023,12,06,17,00,METAR MRPV 061700Z 08015KT 9999 BKN040 24/16 A3004 NOSIG=
MRPV,2023,12,06,18,00,METAR MRPV 061800Z 06015G26KT 9999 BKN035 23/16 A3002 NOSIG=
MRPV,2023,12,06,19,00,METAR MRPV 061900Z 07015KT 9999 FEW040 24/16 A2999 NOSIG=
MRPV,2023,12,06,20,00,METAR MRPV 062000Z 08013KT 9999 BKN040 24/17 A2998 NOSIG=
MRPV,2023,12,06,21,00,METAR MRPV 062100Z 08014KT 9999 SCT040 23/15 A2998 NOSIG=
MRPV,2023,12,06,22,00,METAR MRPV 062200Z 08014KT 9999 BKN030 22/17 A3000 NOSIG=
MRPV,2023,12,06,23,00,METAR MRPV 062300Z 11010KT 9999 BKN030 22/17 A3001 NOSIG=
MRPV,2023,12,07,00,00,METAR MRPV 070000Z 10012KT 9999 SCT030 21/17 A3003 NOSIG=
MRPV,2023,12,07,01,00,METAR MRPV NIL=
MRPV,2023,12,07,02,00,METAR MRPV NIL=
MRPV,2023,12,07,03,00,METAR MRPV NIL=
MRPV,2023,12,07,04,00,METAR MRPV NIL=
MRPV,2023,12,07,05,00,METAR MRPV NIL=
MRPV,2023,12,07,06,00,METAR MRPV NIL=
MRPV,2023,12,07,07,00,METAR MRPV NIL=
MRPV,2023,12,07,08,00,METAR MRPV NIL=
MRPV,2023,12,07,09,00,METAR MRPV NIL=
MRPV,2023,12,07,10,00,METAR MRPV NIL=
MRPV,2023,12,07,11,00,METAR MRPV NIL=
MRPV,2023,12,07,12,00,METAR MRPV 071200Z 11009KT 9999 FEW035 20/14 A3007 NOSIG=
MRPV,2023,12,07,13,00,METAR MRPV 071300Z 11013G23KT 9999 FEW040 21/14 A3008 NOSIG=
MRPV,2023,12,07,14,00,METAR MRPV 071400Z 10015KT 9999 FEW040 22/15 A3009 NOSIG=
MRPV,2023,12,07,15,00,METAR MRPV 071500Z 08014KT 9999 FEW045 24/14 A3009 NOSIG=
MRPV,2023,12,07,16,00,METAR MRPV 071600Z 07016KT 9999 FEW045 24/14 A3007 NOSIG=
MRPV,2023,12,07,17,00,METAR MRPV 071700Z 08014KT 9999 FEW045 26/15 A3005 NOSIG=
MRPV,2023,12,07,18,00,METAR MRPV 071800Z 06014G25KT CAVOK 26/15 A3003 NOSIG=
MRPV,2023,12,07,19,00,METAR MRPV 071900Z 07013KT 9999 FEW045 BKN080 25/16 A3002 NOSIG=
MRPV,2023,12,07,20,00,METAR MRPV 072000Z 06013KT 9999 FEW045 25/16 A2999 NOSIG=
MRPV,2023,12,07,21,00,METAR MRPV 072100Z 07014KT 9999 FEW045 25/14 A2998 NOSIG=
MRPV,2023,12,07,22,00,METAR MRPV 072200Z 07012KT 9999 FEW045 24/15 A2998 NOSIG=
MRPV,2023,12,07,23,00,METAR MRPV 072300Z 08009KT 9999 FEW045 BKN220 23/15 A3000 NOSIG=
MRPV,2023,12,08,00,00,METAR MRPV 080000Z 10008KT 9999 FEW045 BKN220 22/15 A3001 NOSIG=
MRPV,2023,12,08,01,00,METAR MRPV NIL=
MRPV,2023,12,08,02,00,METAR MRPV NIL=
MRPV,2023,12,08,03,00,METAR MRPV NIL=
MRPV,2023,12,08,04,00,METAR MRPV NIL=
MRPV,2023,12,08,05,00,METAR MRPV NIL=
MRPV,2023,12,08,06,00,METAR MRPV NIL=
MRPV,2023,12,08,07,00,METAR MRPV NIL=
MRPV,2023,12,08,08,00,METAR MRPV NIL=
MRPV,2023,12,08,09,00,METAR MRPV NIL=
MRPV,2023,12,08,10,00,METAR MRPV NIL=
MRPV,2023,12,08,11,00,METAR MRPV NIL=
MRPV,2023,12,08,12,00,METAR MRPV 081200Z 13008KT 9999 FEW045 20/14 A3001 NOSIG=
MRPV,2023,12,08,13,00,METAR MRPV 081300Z 11009KT 9999 FEW045 SCT090 21/15 A3003 NOSIG=
MRPV,2023,12,08,14,00,METAR MRPV 081400Z 10012KT 9999 FEW045 22/16 A3005 NOSIG=
MRPV,2023,12,08,15,00,METAR MRPV 081500Z 09013KT 9999 BKN045 23/16 A3005 NOSIG=
MRPV,2023,12,08,16,00,METAR MRPV 081600Z 08014KT 9999 FEW030 25/17 A3004 NOSIG=
MRPV,2023,12,08,17,00,METAR MRPV 081700Z 07016KT 9999 SCT030 25/16 A3002 NOSIG=
MRPV,2023,12,08,18,00,METAR MRPV 081800Z 06015G25KT 9999 FEW030 26/16 A2999 NOSIG=
MRPV,2023,12,08,19,00,METAR MRPV 081900Z 07016G26KT 9999 FEW040 26/16 A2996 NOSIG=
MRPV,2023,12,08,20,00,METAR MRPV 082000Z 07015G25KT 9999 FEW040 SCT080 26/17 A2994 NOSIG=
MRPV,2023,12,08,21,00,METAR MRPV 082100Z 06012G22KT 9999 SCT030 24/17 A2994 NOSIG=
MRPV,2023,12,08,22,00,METAR MRPV 082200Z 08016KT 9999 SCT030 24/17 A2993 NOSIG=
MRPV,2023,12,08,23,00,METAR MRPV 082300Z 09014KT 9999 SCT030 22/17 A2995 NOSIG=
MRPV,2023,12,09,00,00,METAR MRPV 090000Z 10013KT CAVOK 22/17 A2996 NOSIG=
MRPV,2023,12,09,01,00,METAR MRPV NIL=
MRPV,2023,12,09,02,00,METAR MRPV NIL=
MRPV,2023,12,09,03,00,METAR MRPV NIL=
MRPV,2023,12,09,04,00,METAR MRPV NIL=
MRPV,2023,12,09,05,00,METAR MRPV NIL=
MRPV,2023,12,09,06,00,METAR MRPV NIL=
MRPV,2023,12,09,07,00,METAR MRPV NIL=
MRPV,2023,12,09,08,00,METAR MRPV NIL=
MRPV,2023,12,09,09,00,METAR MRPV NIL=
MRPV,2023,12,09,10,00,METAR MRPV NIL=
MRPV,2023,12,09,11,00,METAR MRPV NIL=
MRPV,2023,12,09,12,00,METAR MRPV 091200Z 13007KT CAVOK 20/16 A2998 NOSIG=
MRPV,2023,12,09,13,00,METAR MRPV 091300Z 13008KT CAVOK 22/16 A3001 NOSIG=
MRPV,2023,12,09,14,00,METAR MRPV 091400Z 09015KT CAVOK 24/16 A3002 NOSIG=
MRPV,2023,12,09,15,00,METAR MRPV 091500Z 08015KT CAVOK 25/16 A3002 NOSIG=
MRPV,2023,12,09,16,00,METAR MRPV 091600Z 07014KT CAVOK 26/17 A3001 NOSIG=
MRPV,2023,12,09,17,00,METAR MRPV 091700Z 07015G25KT 9999 FEW030 26/17 A3000 NOSIG=
MRPV,2023,12,09,18,00,METAR MRPV 091800Z 08018G28KT 9999 FEW030 27/17 A2997 NOSIG=
MRPV,2023,12,09,19,00,METAR MRPV 091900Z 09018G28KT 9999 FEW030 28/17 A2995 NOSIG=
MRPV,2023,12,09,20,00,METAR MRPV 092000Z 09013KT 9999 FEW040 28/17 A2992 NOSIG=
MRPV,2023,12,09,21,00,METAR MRPV 092100Z 08013G23KT 9999 FEW030 27/17 A2992 NOSIG=
MRPV,2023,12,09,22,00,METAR MRPV 092200Z 09013KT 9999 BKN030 25/18 A2994 NOSIG=
MRPV,2023,12,09,23,00,METAR MRPV 092300Z 11013G23KT 9999 BKN030 24/18 A2995 NOSIG=
MRPV,2023,12,10,00,00,METAR MRPV 100000Z 11010KT 9999 SCT030 23/18 A2997 NOSIG=
MRPV,2023,12,10,01,00,METAR MRPV NIL=
MRPV,2023,12,10,02,00,METAR MRPV NIL=
MRPV,2023,12,10,03,00,METAR MRPV NIL=
MRPV,2023,12,10,04,00,METAR MRPV NIL=
MRPV,2023,12,10,05,00,METAR MRPV NIL=
MRPV,2023,12,10,06,00,METAR MRPV NIL=
MRPV,2023,12,10,07,00,METAR MRPV NIL=
MRPV,2023,12,10,08,00,METAR MRPV NIL=
MRPV,2023,12,10,09,00,METAR MRPV NIL=
MRPV,2023,12,10,10,00,METAR MRPV NIL=
MRPV,2023,12,10,11,00,METAR MRPV NIL=
MRPV,2023,12,10,12,00,METAR MRPV 101200Z 11010KT 9999 FEW025 22/17 A2997 NOSIG=
MRPV,2023,12,10,13,00,METAR MRPV 101300Z 10010KT 9999 FEW035 23/17 A2999 NOSIG=
MRPV,2023,12,10,14,00,METAR MRPV 101400Z 09013KT 9999 FEW035 24/18 A3001 NOSIG=
MRPV,2023,12,10,15,00,METAR MRPV 101500Z 09013KT 9999 FEW035 26/18 A3000 NOSIG=
MRPV,2023,12,10,16,00,METAR MRPV 101600Z 08013KT 9999 SCT030 25/18 A3000 NOSIG=
MRPV,2023,12,10,17,00,METAR MRPV 101700Z 07011KT 9999 BKN035 27/18 A2997 NOSIG=
MRPV,2023,12,10,18,00,METAR MRPV 101800Z 08012KT 9999 FEW035 BKN060 27/18 A2994 NOSIG=
MRPV,2023,12,10,19,00,METAR MRPV 101900Z 09011KT 9999 FEW030 SCT050 27/18 A2990 NOSIG=
MRPV,2023,12,10,20,00,METAR MRPV 102000Z 08010KT 9999 FEW040 BKN080 27/19 A2988 NOSIG=
MRPV,2023,12,10,21,00,METAR MRPV 102100Z 09012KT 9999 FEW025 BKN100 25/18 A2988 NOSIG=
MRPV,2023,12,10,22,00,METAR MRPV 102200Z 10010KT 9999 -DZ FEW010 BKN025 24/18 A2991 NOSIG=
MRPV,2023,12,10,22,37,SPECI MRPV 102237Z 11008KT 9999 RA FEW020 BKN060 22/20 A2991 NOSIG=
MRPV,2023,12,10,23,00,METAR MRPV 102300Z 13005KT 9999 FEW020 BKN050 22/19 A2993 RERA NOSIG=
MRPV,2023,12,11,00,00,METAR MRPV 110000Z 12008KT 9999 BKN035 23/19 A2994 NOSIG=
MRPV,2023,12,11,01,00,METAR MRPV NIL=
MRPV,2023,12,11,02,00,METAR MRPV NIL=
MRPV,2023,12,11,03,00,METAR MRPV NIL=
MRPV,2023,12,11,04,00,METAR MRPV NIL=
MRPV,2023,12,11,05,00,METAR MRPV NIL=
MRPV,2023,12,11,06,00,METAR MRPV NIL=
MRPV,2023,12,11,07,00,METAR MRPV NIL=
MRPV,2023,12,11,08,00,METAR MRPV NIL=
MRPV,2023,12,11,09,00,METAR MRPV NIL=
MRPV,2023,12,11,10,00,METAR MRPV NIL=
MRPV,2023,12,11,11,00,METAR MRPV NIL=
MRPV,2023,12,11,12,00,METAR MRPV 111200Z 10011KT 9999 FEW030 21/17 A2994 NOSIG=
MRPV,2023,12,11,13,00,METAR MRPV 111300Z 12007KT 9999 FEW035 23/17 A2997 NOSIG=
MRPV,2023,12,11,14,00,METAR MRPV 111400Z 11013KT 9999 FEW030 24/18 A2999 NOSIG=
MRPV,2023,12,11,15,00,METAR MRPV 111500Z 08017KT 9999 FEW035 25/18 A3000 NOSIG=
MRPV,2023,12,11,16,00,METAR MRPV 111600Z 08016KT 9999 FEW035 26/18 A2999 NOSIG=
MRPV,2023,12,11,17,00,METAR MRPV 111700Z 09016KT 9999 FEW035 27/18 A2997 NOSIG=
MRPV,2023,12,11,18,00,METAR MRPV 111800Z 08011KT 9999 SCT035 27/18 A2994 NOSIG=
MRPV,2023,12,11,19,00,METAR MRPV 111900Z 08013KT 9999 BKN040 27/17 A2992 NOSIG=
MRPV,2023,12,11,20,00,METAR MRPV 112000Z 10012KT 9999 BKN035 27/18 A2990 NOSIG=
MRPV,2023,12,11,21,00,METAR MRPV 112100Z 09014KT 9999 FEW040 27/18 A2988 NOSIG=
MRPV,2023,12,11,22,00,METAR MRPV 112200Z 09013KT 9999 SCT040 27/18 A2988 NOSIG=
MRPV,2023,12,11,23,00,METAR MRPV 112300Z 10011KT 9999 SCT025 25/18 A2991 NOSIG=
MRPV,2023,12,12,00,00,METAR MRPV 120000Z 11010KT 9999 SCT030 23/18 A2993 NOSIG=
MRPV,2023,12,12,01,00,METAR MRPV NIL=
MRPV,2023,12,12,02,00,METAR MRPV NIL=
MRPV,2023,12,12,03,00,METAR MRPV NIL=
MRPV,2023,12,12,04,00,METAR MRPV NIL=
MRPV,2023,12,12,05,00,METAR MRPV NIL=
MRPV,2023,12,12,06,00,METAR MRPV NIL=
MRPV,2023,12,12,07,00,METAR MRPV NIL=
MRPV,2023,12,12,08,00,METAR MRPV NIL=
MRPV,2023,12,12,09,00,METAR MRPV NIL=
MRPV,2023,12,12,10,00,METAR MRPV NIL=
MRPV,2023,12,12,11,00,METAR MRPV NIL=
MRPV,2023,12,12,12,00,METAR MRPV 121200Z 12010KT 9999 FEW020 22/18 A2998 NOSIG=
MRPV,2023,12,12,13,00,METAR MRPV 121300Z 10013G23KT 9999 SCT040 23/17 A2999 NOSIG=
MRPV,2023,12,12,14,00,METAR MRPV 121400Z 09017KT 9999 FEW040 SCT120 24/18 A3000 NOSIG=
MRPV,2023,12,12,15,00,METAR MRPV 121500Z 09016KT 9999 FEW035 25/18 A3001 NOSIG=
MRPV,2023,12,12,16,00,METAR MRPV 121600Z 08020KT 9999 FEW040 26/18 A3000 NOSIG=
MRPV,2023,12,12,17,00,METAR MRPV 121700Z 08017KT 9999 FEW040 27/18 A2999 NOSIG=
MRPV,2023,12,12,18,00,METAR MRPV 121800Z 08015KT 9999 SCT045 27/17 A2996 NOSIG=
MRPV,2023,12,12,19,00,METAR MRPV 121900Z 06013G23KT 9999 FEW040 SCT080 27/18 A2994 NOSIG=
MRPV,2023,12,12,20,00,METAR MRPV 122000Z 08015KT 9999 SCT040 SCT150 26/17 A2992 NOSIG=
MRPV,2023,12,12,21,00,METAR MRPV 122100Z 08018G28KT 9999 SCT045 25/18 A2991 NOSIG=
MRPV,2023,12,12,22,00,METAR MRPV 122200Z 07015KT 9999 FEW040 25/18 A2991 NOSIG=
MRPV,2023,12,12,23,00,METAR MRPV 122300Z 11011G21KT 9999 SCT040 23/19 A2993 NOSIG=
MRPV,2023,12,13,00,00,METAR MRPV 130000Z 09015KT 9999 FEW040 22/18 A2994 NOSIG=
MRPV,2023,12,13,01,00,METAR MRPV NIL=
MRPV,2023,12,13,02,00,METAR MRPV NIL=
MRPV,2023,12,13,03,00,METAR MRPV NIL=
MRPV,2023,12,13,04,00,METAR MRPV NIL=
MRPV,2023,12,13,05,00,METAR MRPV NIL=
MRPV,2023,12,13,06,00,METAR MRPV NIL=
MRPV,2023,12,13,07,00,METAR MRPV NIL=
MRPV,2023,12,13,08,00,METAR MRPV NIL=
MRPV,2023,12,13,09,00,METAR MRPV NIL=
MRPV,2023,12,13,10,00,METAR MRPV NIL=
MRPV,2023,12,13,11,00,METAR MRPV NIL=
MRPV,2023,12,13,12,00,METAR MRPV 131200Z 11010KT 9999 SCT030 22/18 A2997 NOSIG=
MRPV,2023,12,13,13,00,METAR MRPV 131300Z 12010KT 9999 FEW035 22/17 A2998 NOSIG=
MRPV,2023,12,13,14,00,METAR MRPV 131400Z 11014KT 9999 FEW035 23/17 A3000 NOSIG=
MRPV,2023,12,13,15,00,METAR MRPV 131500Z 10018G32KT 9999 FEW035 SCT140 25/17 A3001 NOSIG=
MRPV,2023,12,13,16,00,METAR MRPV 131600Z 08022G33KT 9999 FEW040 25/18 A2999 NOSIG=
MRPV,2023,12,13,17,00,METAR MRPV 131700Z 10018G28KT 9999 FEW035 26/18 A2997 NOSIG=
MRPV,2023,12,13,18,00,METAR MRPV 131800Z 09020G34KT 9999 FEW035 25/17 A2995 NOSIG=
MRPV,2023,12,13,19,00,METAR MRPV 131900Z 08016G26KT 9999 FEW035 25/18 A2993 NOSIG=
MRPV,2023,12,13,20,00,METAR MRPV 132000Z 09021G36KT 9999 FEW035 26/17 A2990 NOSIG=
MRPV,2023,12,13,21,00,METAR MRPV 132100Z 08018G28KT 9999 FEW040 26/18 A2989 NOSIG=
MRPV,2023,12,13,22,00,METAR MRPV 132200Z 12012KT 9999 BKN035 24/18 A2991 NOSIG=
MRPV,2023,12,13,23,00,METAR MRPV 132300Z 08014KT 9999 FEW035 23/17 A2993 NOSIG=
MRPV,2023,12,14,00,00,METAR MRPV 140000Z 11011KT 9999 FEW035 23/17 A2995 NOSIG=
MRPV,2023,12,14,01,00,METAR MRPV NIL=
MRPV,2023,12,14,02,00,METAR MRPV NIL=
MRPV,2023,12,14,03,00,METAR MRPV NIL=
MRPV,2023,12,14,04,00,METAR MRPV NIL=
MRPV,2023,12,14,05,00,METAR MRPV NIL=
MRPV,2023,12,14,06,00,METAR MRPV NIL=
MRPV,2023,12,14,07,00,METAR MRPV NIL=
MRPV,2023,12,14,08,00,METAR MRPV NIL=
MRPV,2023,12,14,09,00,METAR MRPV NIL=
MRPV,2023,12,14,10,00,METAR MRPV NIL=
MRPV,2023,12,14,11,00,METAR MRPV NIL=
MRPV,2023,12,14,12,00,METAR MRPV 141200Z 08018KT 9999 FEW035 21/17 A2995 NOSIG=
MRPV,2023,12,14,13,00,METAR MRPV 141300Z 09016KT 9999 FEW035 22/17 A2998 NOSIG=
MRPV,2023,12,14,14,00,METAR MRPV 141400Z 09016KT 9999 FEW040 24/17 A3000 NOSIG=
MRPV,2023,12,14,15,00,METAR MRPV 141500Z 09015KT 9999 FEW040 25/18 A3000 NOSIG=
MRPV,2023,12,14,16,00,METAR MRPV NIL=
MRPV,2023,12,14,17,00,METAR MRPV 141700Z 08014KT 9999 FEW040 26/18 A2998 NOSIG=
MRPV,2023,12,14,18,00,METAR MRPV 141800Z 08015KT 9999 BKN045 25/18 A2997 NOSIG=
MRPV,2023,12,14,19,00,METAR MRPV 141900Z 10013KT 9999 BKN045 25/18 A2994 NOSIG=
MRPV,2023,12,14,20,00,METAR MRPV 142000Z 08017KT 9999 BKN020 24/17 A2992 NOSIG=
MRPV,2023,12,14,21,00,METAR MRPV 142100Z 08015KT 9999 BKN015 23/17 A2992 NOSIG=
MRPV,2023,12,14,22,00,METAR MRPV 142200Z 07017KT 9999 BKN020 22/17 A2991 NOSIG=
MRPV,2023,12,14,23,00,METAR MRPV 142300Z 09015KT 9999 SCT020 21/16 A2993 NOSIG=
MRPV,2023,12,15,00,00,METAR MRPV 150000Z 10016KT 9999 SCT020 21/16 A2993 NOSIG=
MRPV,2023,12,15,01,00,METAR MRPV NIL=
MRPV,2023,12,15,02,00,METAR MRPV NIL=
MRPV,2023,12,15,03,00,METAR MRPV NIL=
MRPV,2023,12,15,04,00,METAR MRPV NIL=
MRPV,2023,12,15,05,00,METAR MRPV NIL=
MRPV,2023,12,15,06,00,METAR MRPV NIL=
MRPV,2023,12,15,07,00,METAR MRPV NIL=
MRPV,2023,12,15,08,00,METAR MRPV NIL=
MRPV,2023,12,15,09,00,METAR MRPV NIL=
MRPV,2023,12,15,10,00,METAR MRPV NIL=
MRPV,2023,12,15,11,00,METAR MRPV NIL=
MRPV,2023,12,15,12,00,METAR MRPV 151200Z 12012KT 9999 FEW035 20/16 A2995 NOSIG=
MRPV,2023,12,15,13,00,METAR MRPV 151300Z 12012G23KT 9999 FEW030 20/16 A2998 NOSIG=
MRPV,2023,12,15,14,00,METAR MRPV 151400Z 09016KT 9999 FEW035 22/16 A2999 NOSIG=
MRPV,2023,12,15,15,00,METAR MRPV 151500Z 13012KT 9999 SCT030 22/17 A3000 NOSIG=
MRPV,2023,12,15,16,00,METAR MRPV 151600Z 12011KT 9999 SCT040 23/17 A3001 NOSIG=
MRPV,2023,12,15,17,00,METAR MRPV 151700Z 09012KT 9999 SCT035 25/17 A2999 NOSIG=
MRPV,2023,12,15,18,00,METAR MRPV COR 151800Z 09010KT 9999 SCT040 26/17 A2996 NOSIG=
MRPV,2023,12,15,19,00,METAR MRPV 151900Z 09012KT 9999 BKN040 26/17 A2994 NOSIG=
MRPV,2023,12,15,20,00,METAR MRPV 152000Z 09009KT 9999 SCT040 27/17 A2992 NOSIG=
MRPV,2023,12,15,21,00,METAR MRPV 152100Z 10006KT 9999 FEW035 BKN080 25/17 A2991 NOSIG=
MRPV,2023,12,15,22,00,METAR MRPV 152200Z 10008KT 9999 BKN035 25/18 A2992 NOSIG=
MRPV,2023,12,15,23,00,METAR MRPV 152300Z 09008KT 9999 FEW010 BKN045 23/18 A2994 NOSIG=
MRPV,2023,12,16,00,00,METAR MRPV 160000Z 11008KT 9999 FEW010 SCT025 23/18 A2994 NOSIG=
MRPV,2023,12,16,01,00,METAR MRPV NIL=
MRPV,2023,12,16,02,00,METAR MRPV NIL=
MRPV,2023,12,16,03,00,METAR MRPV NIL=
MRPV,2023,12,16,04,00,METAR MRPV NIL=
MRPV,2023,12,16,05,00,METAR MRPV NIL=
MRPV,2023,12,16,06,00,METAR MRPV NIL=
MRPV,2023,12,16,07,00,METAR MRPV NIL=
MRPV,2023,12,16,08,00,METAR MRPV NIL=
MRPV,2023,12,16,09,00,METAR MRPV NIL=
MRPV,2023,12,16,10,00,METAR MRPV NIL=
MRPV,2023,12,16,11,00,METAR MRPV NIL=
MRPV,2023,12,16,12,00,METAR MRPV 161200Z 11003KT 9999 FEW040 BKN070 21/17 A3003 NOSIG=
MRPV,2023,12,16,13,00,METAR MRPV 161300Z 09007KT 9999 FEW045 BKN090 21/17 A3002 NOSIG=
MRPV,2023,12,16,14,00,METAR MRPV 161400Z 13004KT CAVOK 23/17 A3003 NOSIG=
MRPV,2023,12,16,15,00,METAR MRPV 161500Z 12008KT CAVOK 25/17 A3005 NOSIG=
MRPV,2023,12,16,16,00,METAR MRPV 161600Z 13006KT 9999 FEW045 BKN180 27/17 A3004 NOSIG=
MRPV,2023,12,16,17,00,METAR MRPV 161700Z 27004KT 9999 FEW040 BKN200 28/18 A3002 NOSIG=
MRPV,2023,12,16,18,00,METAR MRPV 161800Z 30010KT 9999 FEW045 BKN200 28/18 A3000 NOSIG=
MRPV,2023,12,16,19,00,METAR MRPV 161900Z 27009KT 9999 FEW040 BKN200 27/18 A2997 NOSIG=
MRPV,2023,12,16,20,00,METAR MRPV 162000Z 28009KT 9999 FEW045 BKN200 27/18 A2995 NOSIG=
MRPV,2023,12,16,21,00,METAR MRPV 162100Z 29009KT 9999 SCT045 BKN220 27/20 A2994 NOSIG=
MRPV,2023,12,16,22,00,METAR MRPV 162200Z 29007KT 9999 SCT020 SCT220 26/21 A2995 NOSIG=
MRPV,2023,12,16,23,00,METAR MRPV 162300Z 23003KT 9999 SCT010 SCT025 24/21 A2997 NOSIG=
MRPV,2023,12,17,00,00,METAR MRPV 170000Z 26004KT 9999 BKN015 23/21 A2999 NOSIG=
MRPV,2023,12,17,01,00,METAR MRPV NIL=
MRPV,2023,12,17,02,00,METAR MRPV NIL=
MRPV,2023,12,17,03,00,METAR MRPV NIL=
MRPV,2023,12,17,04,00,METAR MRPV NIL=
MRPV,2023,12,17,05,00,METAR MRPV NIL=
MRPV,2023,12,17,06,00,METAR MRPV NIL=
MRPV,2023,12,17,07,00,METAR MRPV NIL=
MRPV,2023,12,17,08,00,METAR MRPV NIL=
MRPV,2023,12,17,09,00,METAR MRPV NIL=
MRPV,2023,12,17,10,00,METAR MRPV NIL=
MRPV,2023,12,17,11,00,METAR MRPV NIL=
MRPV,2023,12,17,12,00,METAR MRPV 171200Z 13009KT 9999 FEW040 BKN220 21/14 A3002 NOSIG=
MRPV,2023,12,17,13,00,METAR MRPV 171300Z 12010KT 9999 FEW040 BKN220 22/14 A3005 NOSIG=
MRPV,2023,12,17,14,00,METAR MRPV 171400Z 11013KT 9999 FEW040 BKN250 23/15 A3008 NOSIG=
MRPV,2023,12,17,15,00,METAR MRPV 171500Z 09016KT 9999 FEW045 BKN250 24/16 A3008 NOSIG=
MRPV,2023,12,17,16,00,METAR MRPV 171600Z 08015KT 9999 FEW045 BKN250 25/16 A3007 NOSIG=
MRPV,2023,12,17,17,00,METAR MRPV 171700Z 07014KT 9999 FEW040 BKN220 26/17 A3004 NOSIG=
MRPV,2023,12,17,18,00,METAR MRPV 171800Z 07015KT 9999 SCT040 BKN220 26/16 A3002 NOSIG=
MRPV,2023,12,17,19,00,METAR MRPV 171900Z 09013KT 9999 SCT040 BKN220 27/16 A2999 NOSIG=
MRPV,2023,12,17,20,00,METAR MRPV 172000Z 09016KT 9999 FEW045 BKN200 27/16 A2997 NOSIG=
MRPV,2023,12,17,21,00,METAR MRPV 172100Z 09014KT 9999 FEW040 BKN200 26/16 A2996 NOSIG=
MRPV,2023,12,17,22,00,METAR MRPV 172200Z 10014KT 9999 FEW040 BKN200 25/17 A2997 NOSIG=
MRPV,2023,12,17,23,00,METAR MRPV 172300Z 10012KT 9999 FEW040 BKN200 23/17 A2998 NOSIG=
MRPV,2023,12,18,00,00,METAR MRPV 180000Z 11010KT 9999 FEW030 BKN140 23/18 A3000 NOSIG=
MRPV,2023,12,18,01,00,METAR MRPV NIL=
MRPV,2023,12,18,02,00,METAR MRPV NIL=
MRPV,2023,12,18,03,00,METAR MRPV NIL=
MRPV,2023,12,18,04,00,METAR MRPV NIL=
MRPV,2023,12,18,05,00,METAR MRPV NIL=
MRPV,2023,12,18,06,00,METAR MRPV NIL=
MRPV,2023,12,18,07,00,METAR MRPV NIL=
MRPV,2023,12,18,08,00,METAR MRPV NIL=
MRPV,2023,12,18,09,00,METAR MRPV NIL=
MRPV,2023,12,18,10,00,METAR MRPV NIL=
MRPV,2023,12,18,11,00,METAR MRPV NIL=
MRPV,2023,12,18,12,00,METAR MRPV 181200Z 10020G33KT 9999 FEW020 SCT040 18/14 A3003 NOSIG=
MRPV,2023,12,18,13,00,METAR MRPV 181300Z 10022G34KT 9999 FEW015 SCT200 19/14 A3006 NOSIG=
MRPV,2023,12,18,14,00,METAR MRPV 181400Z 11015KT 9999 FEW015 SCT030 19/13 A3009 NOSIG=
MRPV,2023,12,18,15,00,METAR MRPV 181500Z 11017KT 9999 FEW020 SCT035 20/14 A3008 NOSIG=
MRPV,2023,12,18,16,00,METAR MRPV 181600Z 09018KT 9999 FEW025 SCT200 22/14 A3009 NOSIG=
MRPV,2023,12,18,17,00,METAR MRPV 181700Z 11014KT 9999 SCT030 21/14 A3007 NOSIG=
MRPV,2023,12,18,18,00,METAR MRPV 181800Z 11016KT 9999 SCT020 22/14 A3004 NOSIG=
MRPV,2023,12,18,19,00,METAR MRPV 181900Z 11013G24KT 9999 SCT030 22/14 A3002 NOSIG=
MRPV,2023,12,18,20,00,METAR MRPV 182000Z 11014KT 9999 SCT035 22/15 A3000 WS R10 NOSIG=
MRPV,2023,12,18,21,00,METAR MRPV 182100Z 11014G25KT 9999 SCT035 BKN100 22/15 A2999 WS R10 NOSIG=
MRPV,2023,12,18,22,00,METAR MRPV 182200Z 11013G23KT 9999 SCT035 BKN120 21/15 A3000 WS R10 NOSIG=
MRPV,2023,12,18,23,00,METAR MRPV 182300Z 11012KT 9999 FEW035 BKN120 20/15 A3001 WS R10 NOSIG=
MRPV,2023,12,19,00,00,METAR MRPV 190000Z 11014KT 9999 FEW035 20/15 A3002 NOSIG=
MRPV,2023,12,19,01,00,METAR MRPV NIL=
MRPV,2023,12,19,02,00,METAR MRPV NIL=
MRPV,2023,12,19,03,00,METAR MRPV NIL=
MRPV,2023,12,19,04,00,METAR MRPV NIL=
MRPV,2023,12,19,05,00,METAR MRPV NIL=
MRPV,2023,12,19,06,00,METAR MRPV NIL=
MRPV,2023,12,19,07,00,METAR MRPV NIL=
MRPV,2023,12,19,08,00,METAR MRPV NIL=
MRPV,2023,12,19,09,00,METAR MRPV NIL=
MRPV,2023,12,19,10,00,METAR MRPV NIL=
MRPV,2023,12,19,11,00,METAR MRPV NIL=
MRPV,2023,12,19,12,00,METAR MRPV 191200Z 11017KT 9999 FEW020 19/15 A3003 NOSIG=
MRPV,2023,12,19,13,00,METAR MRPV 191300Z 11018G29KT 9999 FEW020 20/14 A3005 NOSIG=
MRPV,2023,12,19,14,00,METAR MRPV 191400Z 10021G31KT 9999 FEW020 20/14 A3007 NOSIG=
MRPV,2023,12,19,15,00,METAR MRPV 191500Z 10020G33KT 9999 FEW025 21/14 A3008 NOSIG=
MRPV,2023,12,19,16,00,METAR MRPV 191600Z 10021G31KT 9999 FEW025 22/14 A3007 NOSIG=
MRPV,2023,12,19,17,00,METAR MRPV 191700Z 09025G35KT 9999 FEW030 22/14 A3006 NOSIG=
MRPV,2023,12,19,18,00,METAR MRPV 191800Z 09026G38KT 9999 FEW030 22/14 A3002 NOSIG=
MRPV,2023,12,19,19,00,METAR MRPV 191900Z 10024G35KT 9999 FEW030 22/14 A3000 NOSIG=
MRPV,2023,12,19,20,00,METAR MRPV 192000Z 09025G35KT 9999 FEW030 22/14 A2998 NOSIG=
MRPV,2023,12,19,21,00,METAR MRPV 192100Z 09019KT 9999 FEW030 22/15 A2998 NOSIG=
MRPV,2023,12,19,22,00,METAR MRPV 192200Z 10019G30KT 9999 FEW030 21/15 A2998 NOSIG=
MRPV,2023,12,19,23,00,METAR MRPV 192300Z 10020G30KT 9999 FEW030 19/15 A3000 NOSIG=
MRPV,2023,12,20,00,00,METAR MRPV 200000Z 11017G27KT 9999 FEW030 19/15 A3001 NOSIG=
MRPV,2023,12,20,01,00,METAR MRPV NIL=
MRPV,2023,12,20,02,00,METAR MRPV NIL=
MRPV,2023,12,20,03,00,METAR MRPV NIL=
MRPV,2023,12,20,04,00,METAR MRPV NIL=
MRPV,2023,12,20,05,00,METAR MRPV NIL=
MRPV,2023,12,20,06,00,METAR MRPV NIL=
MRPV,2023,12,20,07,00,METAR MRPV NIL=
MRPV,2023,12,20,08,00,METAR MRPV NIL=
MRPV,2023,12,20,09,00,METAR MRPV NIL=
MRPV,2023,12,20,10,00,METAR MRPV NIL=
MRPV,2023,12,20,11,00,METAR MRPV NIL=
MRPV,2023,12,20,12,00,METAR MRPV 201200Z 11016KT 9999 FEW030 18/14 A3003 NOSIG=
MRPV,2023,12,20,13,00,METAR MRPV 201300Z 11013KT 9999 FEW030 19/14 A3006 NOSIG=
MRPV,2023,12,20,14,00,METAR MRPV 201400Z 11019G29KT 9999 FEW030 20/15 A3007 NOSIG=
MRPV,2023,12,20,15,00,METAR MRPV 201500Z 10020G32KT 9999 FEW035 SCT200 21/15 A3007 NOSIG=
MRPV,2023,12,20,16,00,METAR MRPV 201600Z 10023KT 9999 FEW035 BKN200 21/15 A3007 NOSIG=
MRPV,2023,12,20,17,00,METAR MRPV 201700Z 10019G29KT 9999 FEW035 SCT200 22/15 A3006 NOSIG=
MRPV,2023,12,20,18,00,METAR MRPV 201800Z 11015KT 9999 FEW025 SCT100 BKN200 22/15 A3004 NOSIG=
MRPV,2023,12,20,19,00,METAR MRPV 201900Z 10016KT 9999 FEW025 SCT100 22/15 A3002 NOSIG=
MRPV,2023,12,20,20,00,METAR MRPV 202000Z 11015KT 9999 SCT025 21/15 A3000 NOSIG=
MRPV,2023,12,20,21,00,METAR MRPV 202100Z 10019KT 9999 FEW020 BKN200 20/14 A3000 NOSIG=
MRPV,2023,12,20,22,00,METAR MRPV 202200Z 10017KT 9999 FEW020 SCT220 21/14 A3000 NOSIG=
MRPV,2023,12,20,23,00,METAR MRPV 202300Z 10014KT 9999 SCT025 19/15 A3001 NOSIG=
MRPV,2023,12,21,00,00,METAR MRPV 210000Z 11011KT 9999 SCT015 19/14 A3002 NOSIG=
MRPV,2023,12,21,01,00,METAR MRPV NIL=
MRPV,2023,12,21,02,00,METAR MRPV NIL=
MRPV,2023,12,21,03,00,METAR MRPV NIL=
MRPV,2023,12,21,04,00,METAR MRPV NIL=
MRPV,2023,12,21,05,00,METAR MRPV NIL=
MRPV,2023,12,21,06,00,METAR MRPV NIL=
MRPV,2023,12,21,07,00,METAR MRPV NIL=
MRPV,2023,12,21,08,00,METAR MRPV NIL=
MRPV,2023,12,21,09,00,METAR MRPV NIL=
MRPV,2023,12,21,10,00,METAR MRPV NIL=
MRPV,2023,12,21,11,00,METAR MRPV NIL=
MRPV,2023,12,21,12,00,METAR MRPV 211200Z 11012KT 9999 FEW020 SCT200 18/13 A3002 NOSIG=
MRPV,2023,12,21,13,00,METAR MRPV 211300Z 11014KT 9999 FEW020 SCT200 20/14 A3005 NOSIG=
MRPV,2023,12,21,14,00,METAR MRPV 211400Z 11017KT 9999 FEW020 SCT200 20/15 A3007 NOSIG=
MRPV,2023,12,21,15,00,METAR MRPV 211500Z 10020KT 9999 FEW020 21/15 A3006 NOSIG=
MRPV,2023,12,21,16,00,METAR MRPV 211600Z 09018KT 9999 FEW030 23/15 A3007 NOSIG=
MRPV,2023,12,21,17,00,METAR MRPV 211700Z 09016KT 9999 FEW030 24/15 A3004 NOSIG=
MRPV,2023,12,21,18,00,METAR MRPV 211800Z 09017KT 9999 FEW030 25/15 A3001 NOSIG=
MRPV,2023,12,21,19,00,METAR MRPV 211900Z 09017KT 9999 FEW030 25/15 A2998 NOSIG=
MRPV,2023,12,21,20,00,METAR MRPV 212000Z 09016KT CAVOK 25/16 A2996 NOSIG=
MRPV,2023,12,21,21,00,METAR MRPV 212100Z 09016KT 9999 FEW035 25/16 A2996 NOSIG=
MRPV,2023,12,21,22,00,METAR MRPV 212200Z 09016KT 9999 FEW025 23/16 A2997 NOSIG=
MRPV,2023,12,21,23,00,METAR COR MRPV 212300Z 09017G27KT 9999 FEW025 21/16 A2998 NOSIG=
MRPV,2023,12,22,00,00,METAR MRPV 220000Z 11012KT 9999 FEW020 20/16 A3001 NOSIG=
MRPV,2023,12,22,01,00,METAR MRPV NIL=
MRPV,2023,12,22,02,00,METAR MRPV NIL=
MRPV,2023,12,22,03,00,METAR MRPV NIL=
MRPV,2023,12,22,04,00,METAR MRPV NIL=
MRPV,2023,12,22,05,00,METAR MRPV NIL=
MRPV,2023,12,22,06,00,METAR MRPV NIL=
MRPV,2023,12,22,07,00,METAR MRPV NIL=
MRPV,2023,12,22,08,00,METAR MRPV NIL=
MRPV,2023,12,22,09,00,METAR MRPV NIL=
MRPV,2023,12,22,10,00,METAR MRPV NIL=
MRPV,2023,12,22,11,00,METAR MRPV NIL=
MRPV,2023,12,22,12,00,METAR MRPV 221200Z 13008KT 9999 FEW025 21/16 A2999 NOSIG=
MRPV,2023,12,22,13,00,METAR MRPV 221300Z 13010KT 9999 FEW030 21/17 A3001 NOSIG=
MRPV,2023,12,22,14,00,METAR MRPV 221400Z 13011KT 9999 FEW030 SCT160 22/17 A3004 NOSIG=
MRPV,2023,12,22,15,00,METAR MRPV 221500Z 12011KT 9999 FEW030 SCT150 23/17 A3005 NOSIG=
MRPV,2023,12,22,16,00,METAR MRPV 221600Z 12011KT 9999 SCT030 23/18 A3005 NOSIG=
MRPV,2023,12,22,17,00,METAR MRPV 221700Z 12010KT 9999 SCT030 25/18 A3003 NOSIG=
MRPV,2023,12,22,18,00,METAR MRPV 221800Z 13009KT 9999 BKN030 25/18 A3001 NOSIG=
MRPV,2023,12,22,19,00,METAR MRPV 221900Z 12010KT 9999 FEW015 BKN030 24/18 A2999 NOSIG=
MRPV,2023,12,22,20,00,METAR MRPV 222000Z 09013KT 9999 FEW025 BKN050 24/19 A2996 NOSIG=
MRPV,2023,12,22,21,00,METAR MRPV 222100Z 10009KT 9999 FEW020 BKN060 26/18 A2995 NOSIG=
MRPV,2023,12,22,22,00,METAR MRPV 222200Z 11009KT 9999 FEW020 SCT030 25/18 A2996 NOSIG=
MRPV,2023,12,22,23,00,METAR MRPV 222300Z 13009KT 9999 SCT020 SCT030 23/18 A2997 NOSIG=
MRPV,2023,12,23,00,00,METAR MRPV 230000Z 13009KT 9999 FEW015 BKN030 23/18 A2999 NOSIG=
MRPV,2023,12,23,01,00,METAR MRPV NIL=
MRPV,2023,12,23,02,00,METAR MRPV NIL=
MRPV,2023,12,23,03,00,METAR MRPV NIL=
MRPV,2023,12,23,04,00,METAR MRPV NIL=
MRPV,2023,12,23,05,00,METAR MRPV NIL=
MRPV,2023,12,23,06,00,METAR MRPV NIL=
MRPV,2023,12,23,07,00,METAR MRPV NIL=
MRPV,2023,12,23,08,00,METAR MRPV NIL=
MRPV,2023,12,23,09,00,METAR MRPV NIL=
MRPV,2023,12,23,10,00,METAR MRPV NIL=
MRPV,2023,12,23,11,00,METAR MRPV NIL=
MRPV,2023,12,23,12,00,METAR MRPV 231200Z 13009KT 9999 FEW025 SCT090 20/16 A3004 NOSIG=
MRPV,2023,12,23,13,00,METAR MRPV 231300Z 11013KT 9999 FEW030 21/17 A3005 NOSIG=
MRPV,2023,12,23,14,00,METAR MRPV 231400Z 10016KT 9999 FEW025 23/17 A3007 NOSIG=
MRPV,2023,12,23,15,00,METAR MRPV 231500Z 10016KT 9999 FEW030 24/17 A3007 NOSIG=
MRPV,2023,12,23,16,00,METAR MRPV 231600Z 10013KT 9999 SCT030 23/18 A3008 NOSIG=
MRPV,2023,12,23,17,00,METAR MRPV 231700Z 09014KT 9999 FEW025 26/17 A3006 NOSIG=
MRPV,2023,12,23,18,00,METAR MRPV 231800Z 08015KT 9999 FEW035 SCT080 27/18 A3003 NOSIG=
MRPV,2023,12,23,19,00,METAR MRPV 231900Z 09015KT 9999 SCT035 27/17 A3001 NOSIG=
MRPV,2023,12,23,20,00,METAR MRPV 232000Z 09015KT 9999 SCT040 27/18 A2998 NOSIG=
MRPV,2023,12,23,21,00,METAR MRPV 232100Z 08012KT 9999 SCT035 27/17 A2998 NOSIG=
MRPV,2023,12,23,22,00,METAR MRPV 232200Z 08014KT 9999 SCT040 25/17 A2998 NOSIG=
MRPV,2023,12,23,23,00,METAR MRPV 232300Z 10011KT 9999 FEW040 23/18 A2999 NOSIG=
MRPV,2023,12,24,00,00,METAR MRPV 240000Z 11008KT 9999 FEW035 22/17 A3000 NOSIG=
MRPV,2023,12,24,01,00,METAR MRPV NIL=
MRPV,2023,12,24,02,00,METAR MRPV NIL=
MRPV,2023,12,24,03,00,METAR MRPV NIL=
MRPV,2023,12,24,04,00,METAR MRPV NIL=
MRPV,2023,12,24,05,00,METAR MRPV NIL=
MRPV,2023,12,24,06,00,METAR MRPV NIL=
MRPV,2023,12,24,07,00,METAR MRPV NIL=
MRPV,2023,12,24,08,00,METAR MRPV NIL=
MRPV,2023,12,24,09,00,METAR MRPV NIL=
MRPV,2023,12,24,10,00,METAR MRPV NIL=
MRPV,2023,12,24,11,00,METAR MRPV NIL=
MRPV,2023,12,24,12,00,METAR MRPV 241200Z 13005KT 9999 FEW035 BKN200 20/15 A3003 NOSIG=
MRPV,2023,12,24,13,00,METAR MRPV 241300Z 12006KT 9999 FEW020 BKN250 21/15 A3006 NOSIG=
MRPV,2023,12,24,14,00,METAR MRPV 241400Z 13008KT 9999 FEW030 SCT250 23/15 A3008 NOSIG=
MRPV,2023,12,24,15,00,METAR MRPV 241500Z 10013KT 9999 FEW040 25/15 A3008 NOSIG=
MRPV,2023,12,24,16,00,METAR MRPV 241600Z 09013KT 9999 FEW040 25/14 A3009 NOSIG=
MRPV,2023,12,24,17,00,METAR MRPV 241700Z 08011KT 9999 FEW045 BKN250 26/15 A3007 NOSIG=
MRPV,2023,12,24,18,00,METAR MRPV 241800Z 12007KT 9999 FEW045 BKN220 27/16 A3005 NOSIG=
MRPV,2023,12,24,19,00,METAR MRPV 241900Z 09011KT 9999 FEW040 BKN220 27/16 A3002 NOSIG=
MRPV,2023,12,24,20,00,METAR MRPV 242000Z 08011KT 9999 SCT040 BKN250 27/17 A2998 NOSIG=
MRPV,2023,12,24,21,00,METAR MRPV 242100Z 10013KT 9999 SCT040 BKN250 26/17 A2997 NOSIG=
MRPV,2023,12,24,22,00,METAR MRPV 242200Z 09012KT 9999 FEW030 BKN250 26/17 A2997 NOSIG=
MRPV,2023,12,24,23,00,METAR MRPV 242300Z 10009KT 9999 FEW040 BKN220 24/17 A2998 NOSIG=
MRPV,2023,12,25,00,00,METAR MRPV 250000Z 12006KT 9999 FEW040 23/18 A3001 NOSIG=
MRPV,2023,12,25,01,00,METAR MRPV NIL=
MRPV,2023,12,25,02,00,METAR MRPV NIL=
MRPV,2023,12,25,03,00,METAR MRPV NIL=
MRPV,2023,12,25,04,00,METAR MRPV NIL=
MRPV,2023,12,25,05,00,METAR MRPV NIL=
MRPV,2023,12,25,06,00,METAR MRPV NIL=
MRPV,2023,12,25,07,00,METAR MRPV NIL=
MRPV,2023,12,25,08,00,METAR MRPV NIL=
MRPV,2023,12,25,09,00,METAR MRPV NIL=
MRPV,2023,12,25,10,00,METAR MRPV NIL=
MRPV,2023,12,25,11,00,METAR MRPV NIL=
MRPV,2023,12,25,12,00,METAR MRPV 251200Z 10003KT CAVOK 17/14 A3008 NOSIG=
MRPV,2023,12,25,13,00,METAR MRPV 251300Z 09004KT CAVOK 19/14 A3009 NOSIG=
MRPV,2023,12,25,14,00,METAR MRPV 251400Z 11007KT CAVOK 24/15 A3010 NOSIG=
MRPV,2023,12,25,15,00,METAR MRPV 251500Z 11006KT 9999 FEW045 27/15 A3010 NOSIG=
MRPV,2023,12,25,16,00,METAR MRPV 251600Z 10008KT 9999 FEW045 28/15 A3010 NOSIG=
MRPV,2023,12,25,17,00,METAR MRPV 251700Z 11006KT 9999 FEW045 29/15 A3009 NOSIG=
MRPV,2023,12,25,17,40,SPECI MRPV 251740Z 28007KT 9999 FEW045 27/18 A3007 NOSIG=
MRPV,2023,12,25,18,00,METAR MRPV 251800Z 27007KT 9999 SCT045 26/18 A3007 NOSIG=
MRPV,2023,12,25,19,00,METAR MRPV 251900Z 27006KT 9999 SCT030 27/19 A3005 NOSIG=
MRPV,2023,12,25,20,00,METAR MRPV 252000Z 29007KT 9999 SCT030 27/19 A3003 NOSIG=
MRPV,2023,12,25,21,00,METAR MRPV 252100Z 27008KT 9999 SCT045 27/20 A3001 NOSIG=
MRPV,2023,12,25,22,00,METAR MRPV 252200Z 27006KT 9999 SCT040 24/20 A3001 NOSIG=
MRPV,2023,12,25,23,00,METAR MRPV 252300Z 28005KT 9999 SCT040 24/20 A3003 NOSIG=
MRPV,2023,12,26,00,00,METAR MRPV 260000Z 28004KT 9999 BKN030 23/20 A3004 NOSIG=
MRPV,2023,12,26,01,00,METAR MRPV NIL=
MRPV,2023,12,26,02,00,METAR MRPV NIL=
MRPV,2023,12,26,03,00,METAR MRPV NIL=
MRPV,2023,12,26,04,00,METAR MRPV NIL=
MRPV,2023,12,26,05,00,METAR MRPV NIL=
MRPV,2023,12,26,06,00,METAR MRPV NIL=
MRPV,2023,12,26,07,00,METAR MRPV NIL=
MRPV,2023,12,26,08,00,METAR MRPV NIL=
MRPV,2023,12,26,09,00,METAR MRPV NIL=
MRPV,2023,12,26,10,00,METAR MRPV NIL=
MRPV,2023,12,26,11,00,METAR MRPV NIL=
MRPV,2023,12,26,12,00,METAR MRPV 261200Z 13008KT CAVOK 20/15 A3005 NOSIG=
MRPV,2023,12,26,13,00,METAR MRPV 261300Z 13009KT CAVOK 22/16 A3006 NOSIG=
MRPV,2023,12,26,14,00,METAR MRPV 261400Z 11012KT CAVOK 24/15 A3008 NOSIG=
MRPV,2023,12,26,15,00,METAR MRPV 261500Z 09015KT CAVOK 25/16 A3008 NOSIG=
MRPV,2023,12,26,16,00,METAR MRPV 261600Z 08013G23KT 9999 FEW045 BKN250 26/16 A3007 NOSIG=
MRPV,2023,12,26,17,00,METAR MRPV 261700Z 08013KT 9999 FEW045 BKN250 27/16 A3006 NOSIG=
MRPV,2023,12,26,18,00,METAR MRPV 261800Z 08009KT 9999 FEW040 BKN250 27/16 A3005 NOSIG=
MRPV,2023,12,26,19,00,METAR MRPV 261900Z 09009KT 9999 FEW030 BKN250 28/16 A3002 NOSIG=
MRPV,2023,12,26,19,37,SPECI MRPV 261937Z 28006KT 9999 FEW030 BKN250 27/19 A3000 NOSIG=
MRPV,2023,12,26,20,00,METAR MRPV 262000Z 30007KT 9999 FEW030 BKN250 27/19 A2999 NOSIG=
MRPV,2023,12,26,21,00,METAR MRPV 262100Z 28006KT 9999 FEW030 BKN220 26/19 A2998 NOSIG=
MRPV,2023,12,26,22,00,METAR MRPV 262200Z 03007KT 9999 VCTS SCT020CB BKN220 24/17 A3000 NOSIG=
MRPV,2023,12,26,23,00,METAR MRPV 262300Z 35002KT 9999 VCTS FEW015CB SCT030 BKN220 22/18 A3003 NOSIG=
MRPV,2023,12,27,00,00,METAR MRPV 270000Z 02002KT 9999 FEW020 BKN220 21/18 A3005 NOSIG=
MRPV,2023,12,27,01,00,METAR MRPV NIL=
MRPV,2023,12,27,02,00,METAR MRPV NIL=
MRPV,2023,12,27,03,00,METAR MRPV NIL=
MRPV,2023,12,27,04,00,METAR MRPV NIL=
MRPV,2023,12,27,05,00,METAR MRPV NIL=
MRPV,2023,12,27,06,00,METAR MRPV NIL=
MRPV,2023,12,27,07,00,METAR MRPV NIL=
MRPV,2023,12,27,08,00,METAR MRPV NIL=
MRPV,2023,12,27,09,00,METAR MRPV NIL=
MRPV,2023,12,27,10,00,METAR MRPV NIL=
MRPV,2023,12,27,11,00,METAR MRPV NIL=
MRPV,2023,12,27,12,00,METAR MRPV 271200Z 10003KT 9999 FEW040 BKN200 19/16 A3008 NOSIG=
MRPV,2023,12,27,13,00,METAR MRPV 271300Z 13007KT CAVOK 21/17 A3009 NOSIG=
MRPV,2023,12,27,14,00,METAR MRPV 271400Z 13007KT 9999 FEW040 BKN200 23/16 A3012 NOSIG=
MRPV,2023,12,27,15,00,METAR MRPV 271500Z 12008KT 9999 FEW040 BKN200 25/16 A3012 NOSIG=
MRPV,2023,12,27,16,00,METAR MRPV 271600Z 13008KT 9999 FEW040 BKN200 26/16 A3010 NOSIG=
MRPV,2023,12,27,17,00,METAR MRPV 271700Z 11006KT 9999 FEW040 27/16 A3009 NOSIG=
MRPV,2023,12,27,18,00,METAR MRPV 271800Z 10008KT 9999 FEW045 28/16 A3006 NOSIG=
MRPV,2023,12,27,19,00,METAR MRPV 271900Z 10009KT 9999 FEW040 29/16 A3004 NOSIG=
MRPV,2023,12,27,20,00,METAR MRPV 272000Z 08009KT 9999 FEW030 28/16 A3001 NOSIG=
MRPV,2023,12,27,21,00,METAR MRPV 272100Z 28006KT 9999 FEW030 25/20 A3001 NOSIG=
MRPV,2023,12,27,22,00,METAR MRPV 272200Z 29007KT 9999 SCT030TCU 25/21 A3002 NOSIG=
MRPV,2023,12,27,23,00,METAR MRPV 272300Z 28007KT 9999 BKN020 22/20 A3004 NOSIG=
MRPV,2023,12,28,00,00,METAR MRPV 280000Z 30005KT 9999 BKN015 22/20 A3006 NOSIG=
MRPV,2023,12,28,01,00,METAR MRPV NIL=
MRPV,2023,12,28,02,00,METAR MRPV NIL=
MRPV,2023,12,28,03,00,METAR MRPV NIL=
MRPV,2023,12,28,04,00,METAR MRPV NIL=
MRPV,2023,12,28,05,00,METAR MRPV NIL=
MRPV,2023,12,28,06,00,METAR MRPV NIL=
MRPV,2023,12,28,07,00,METAR MRPV NIL=
MRPV,2023,12,28,08,00,METAR MRPV NIL=
MRPV,2023,12,28,09,00,METAR MRPV NIL=
MRPV,2023,12,28,10,00,METAR MRPV NIL=
MRPV,2023,12,28,11,00,METAR MRPV NIL=
MRPV,2023,12,28,12,00,METAR MRPV 281200Z 12001KT 9999 FEW020 BKN180 18/18 A3008 NOSIG=
MRPV,2023,12,28,13,00,METAR MRPV 281300Z 14003KT 9999 FEW030 BKN180 21/18 A3010 NOSIG=
MRPV,2023,12,28,14,00,METAR MRPV 281400Z 10003KT 9999 FEW015 BKN140 23/18 A3013 NOSIG=
MRPV,2023,12,28,15,00,METAR MRPV 281500Z 12001KT 9999 FEW020 BKN140 24/17 A3012 BECMG 32003KT=
MRPV,2023,12,28,16,00,METAR MRPV 281600Z 07004KT 150V080 9999 FEW035 SCT140 26/18 A3010 BECMG 32003KT=
MRPV,2023,12,28,17,00,METAR MRPV 281700Z 08007KT 9999 FEW040 27/17 A3008 NOSIG=
MRPV,2023,12,28,18,00,METAR MRPV 281800Z 16004KT 9999 SCT040 SCT200 29/16 A3005 NOSIG=
MRPV,2023,12,28,18,07,SPECI MRPV 281807Z 26005KT 100V220 9999 SCT040 SCT200 29/19 A3005 NOSIG=
MRPV,2023,12,28,19,00,METAR MRPV 281900Z 28009KT 9999 SCT030 SCT180 25/19 A3003 NOSIG=
MRPV,2023,12,28,20,00,METAR MRPV 282000Z 28010KT 9999 RA VCTS FEW015CB SCT030 SCT080 23/20 A3002 NOSIG=
MRPV,2023,12,28,20,21,SPECI MRPV 282021Z 07009KT 310V070 4500 -TSRA SCT010CB SCT030 20/18 A3003 NOSIG=
MRPV,2023,12,28,20,30,SPECI MRPV 282030Z 08011KT 4000 TSRA BKN010CB SCT030 20/18 A3003 NOSIG=
MRPV,2023,12,28,21,00,METAR MRPV 282100Z 08005KT 9999 RA VCTS SCT010CB SCT020 SCT070 19/19 A3003 NOSIG=
MRPV,2023,12,28,22,00,METAR MRPV 282200Z VRB01KT 9999 -RA FEW030 BKN100 21/20 A3003 NOSIG=
MRPV,2023,12,28,23,00,METAR MRPV 282300Z 07003KT 9999 FEW035 BKN100 21/21 A3004 NOSIG=
MRPV,2023,12,29,00,00,METAR MRPV 290000Z 08002KT 9999 FEW030 BKN100 21/20 A3005 NOSIG=
MRPV,2023,12,29,01,00,METAR MRPV NIL=
MRPV,2023,12,29,02,00,METAR MRPV NIL=
MRPV,2023,12,29,03,00,METAR MRPV NIL=
MRPV,2023,12,29,04,00,METAR MRPV NIL=
MRPV,2023,12,29,05,00,METAR MRPV NIL=
MRPV,2023,12,29,06,00,METAR MRPV NIL=
MRPV,2023,12,29,07,00,METAR MRPV NIL=
MRPV,2023,12,29,08,00,METAR MRPV NIL=
MRPV,2023,12,29,09,00,METAR MRPV NIL=
MRPV,2023,12,29,10,00,METAR MRPV NIL=
MRPV,2023,12,29,11,00,METAR MRPV NIL=
MRPV,2023,12,29,12,00,METAR MRPV 291200Z 16001KT 9999 FEW020 BKN200 19/19 A3010 NOSIG=
MRPV,2023,12,29,13,00,METAR MRPV 291300Z 09003KT 9999 FEW035 OVC180 20/19 A3012 NOSIG=
MRPV,2023,12,29,14,00,METAR MRPV 291400Z 05003KT 9999 FEW015 OVC180 21/18 A3015 NOSIG=
MRPV,2023,12,29,15,00,METAR MRPV 291500Z 11007KT 9999 FEW035 OVC180 22/17 A3015 NOSIG=
MRPV,2023,12,29,16,00,METAR MRPV 291600Z 09008KT 9999 FEW035 OVC180 23/18 A3016 NOSIG=
MRPV,2023,12,29,17,00,METAR MRPV 291700Z 09007KT 9999 FEW010 SCT035 BKN180 24/17 A3015 NOSIG=
MRPV,2023,12,29,17,32,SPECI MRPV 291732Z 29007KT 9999 SCT035 BKN160 22/19 A3013 NOSIG=
MRPV,2023,12,29,18,00,METAR MRPV 291800Z 28006KT 9999 FEW015 BKN040 22/19 A3013 NOSIG=
MRPV,2023,12,29,18,47,SPECI MRPV 291847Z 29007KT 4500 HZ SCT010 BKN060 21/19 A3012 TEMPO BKN010=
MRPV,2023,12,29,19,00,METAR MRPV 291900Z 29007KT 4500 -DZ BR SCT010 BKN070 21/20 A3012 TEMPO BKN010=
MRPV,2023,12,29,20,00,METAR MRPV 292000Z 29004KT 4500 -DZ BR BKN010 SCT070 21/20 A3009 NOSIG=
MRPV,2023,12,29,20,25,SPECI MRPV 292025Z 28003KT 4500 -DZ BR SCT010 BKN050 21/20 A3009 NOSIG=
MRPV,2023,12,29,20,49,SPECI MRPV 292049Z 00000KT 5000 -DZ BR SCT010 BKN050 21/19 A3008 NOSIG=
MRPV,2023,12,29,21,00,METAR MRPV 292100Z 32001KT 5000 -DZ BR SCT010 BKN070 21/19 A3008 NOSIG=
MRPV,2023,12,29,21,47,SPECI MRPV 292147Z 11006KT 9999 -DZ FEW020 BKN050 22/17 A3008 NOSIG=
MRPV,2023,12,29,22,00,METAR MRPV 292200Z 11005KT 9999 FEW030 BKN050 21/17 A3008 NOSIG=
MRPV,2023,12,29,23,00,METAR MRPV 292300Z 14005KT 9999 -DZ FEW040 OVC100 20/18 A3009 NOSIG=
MRPV,2023,12,30,00,00,METAR MRPV 300000Z 11008KT 9999 -DZ FEW030 OVC070 20/17 A3011 NOSIG=
MRPV,2023,12,30,01,00,METAR MRPV NIL=
MRPV,2023,12,30,02,00,METAR MRPV NIL=
MRPV,2023,12,30,03,00,METAR MRPV NIL=
MRPV,2023,12,30,04,00,METAR MRPV NIL=
MRPV,2023,12,30,05,00,METAR MRPV NIL=
MRPV,2023,12,30,06,00,METAR MRPV NIL=
MRPV,2023,12,30,07,00,METAR MRPV NIL=
MRPV,2023,12,30,08,00,METAR MRPV NIL=
MRPV,2023,12,30,09,00,METAR MRPV NIL=
MRPV,2023,12,30,10,00,METAR MRPV NIL=
MRPV,2023,12,30,11,00,METAR MRPV NIL=
MRPV,2023,12,30,12,00,METAR MRPV 301200Z 14005KT CAVOK 20/16 A3011 NOSIG=
MRPV,2023,12,30,13,00,METAR MRPV 301300Z 15010KT 9999 FEW025 BKN120 20/16 A3013 NOSIG=
MRPV,2023,12,30,14,00,METAR MRPV 301400Z 13006KT CAVOK 22/16 A3015 NOSIG=
MRPV,2023,12,30,15,00,METAR MRPV 301500Z 14010KT 9999 FEW030 BKN120 23/16 A3016 NOSIG=
MRPV,2023,12,30,16,00,METAR MRPV 301600Z 10011KT 9999 FEW035 BKN120 25/16 A3016 NOSIG=
MRPV,2023,12,30,17,00,METAR MRPV 301700Z 09011KT 9999 FEW040 BKN120 25/16 A3015 NOSIG=
MRPV,2023,12,30,18,00,METAR MRPV 301800Z 11009KT CAVOK 24/16 A3013 NOSIG=
MRPV,2023,12,30,19,00,METAR MRPV 301900Z 13007KT CAVOK 25/16 A3010 NOSIG=
MRPV,2023,12,30,20,00,METAR MRPV 302000Z 08006KT 9999 FEW020 BKN100 25/17 A3008 BECMG 29006KT=
MRPV,2023,12,30,21,00,METAR MRPV 302100Z 09009KT 9999 FEW045 BKN120 25/15 A3006 NOSIG=
MRPV,2023,12,30,22,00,METAR MRPV 302200Z 10008KT 9999 FEW045 BKN150 24/16 A3007 NOSIG=
MRPV,2023,12,30,23,00,METAR MRPV 302300Z 12007KT 9999 FEW045 BKN150 23/17 A3008 NOSIG=
MRPV,2023,12,31,00,00,METAR MRPV 310000Z 09010KT 9999 FEW015TCU BKN150 22/17 A3010 NOSIG=
MRPV,2023,12,31,01,00,METAR MRPV NIL=
MRPV,2023,12,31,02,00,METAR MRPV NIL=
MRPV,2023,12,31,03,00,METAR MRPV NIL=
MRPV,2023,12,31,04,00,METAR MRPV NIL=
MRPV,2023,12,31,05,00,METAR MRPV NIL=
MRPV,2023,12,31,06,00,METAR MRPV NIL=
MRPV,2023,12,31,07,00,METAR MRPV NIL=
MRPV,2023,12,31,08,00,METAR MRPV NIL=
MRPV,2023,12,31,09,00,METAR MRPV NIL=
MRPV,2023,12,31,10,00,METAR MRPV NIL=
MRPV,2023,12,31,11,00,METAR MRPV NIL=
MRPV,2023,12,31,12,00,METAR MRPV 311200Z 12009KT CAVOK 21/13 A3012 NOSIG=
MRPV,2023,12,31,13,00,METAR MRPV 311300Z 11015KT CAVOK 21/13 A3014 NOSIG=
MRPV,2023,12,31,14,00,METAR MRPV 311400Z 11016G27KT CAVOK 22/14 A3017 NOSIG=
MRPV,2023,12,31,15,00,METAR MRPV 311500Z 11015KT 9999 FEW045 SCT110 24/15 A3017 NOSIG=
MRPV,2023,12,31,16,00,METAR MRPV 311600Z 08018KT CAVOK 25/15 A3017 NOSIG=
MRPV,2023,12,31,17,00,METAR MRPV 311700Z 08016KT 9999 FEW045 25/15 A3015 NOSIG=
MRPV,2023,12,31,18,00,METAR MRPV 311800Z 08017G31KT 9999 SCT045 27/16 A3012 NOSIG=
MRPV,2023,12,31,19,00,METAR MRPV 311900Z 08015KT 9999 FEW045 26/17 A3011 NOSIG=
MRPV,2023,12,31,20,00,METAR MRPV 312000Z 07016KT 9999 FEW045 SCT120 25/17 A3008 NOSIG=
MRPV,2023,12,31,21,00,METAR MRPV 312100Z 07014KT 9999 FEW045 25/17 A3007 NOSIG=
MRPV,2023,12,31,22,00,METAR MRPV 312200Z 08012KT 9999 FEW045 24/16 A3007 NOSIG=
MRPV,2023,12,31,23,00,METAR MRPV 312300Z 10010KT 9999 SCT030 23/16 A3010 NOSIG=
