MRPV,2023,04,01,00,00,METAR MRPV 010000Z 11011KT 9999 SCT025 SCT200 20/11 A3006 NOSIG=
MRPV,2023,04,01,01,00,METAR MRPV NIL=
MRPV,2023,04,01,02,00,METAR MRPV NIL=
MRPV,2023,04,01,03,00,METAR MRPV NIL=
MRPV,2023,04,01,04,00,METAR MRPV NIL=
MRPV,2023,04,01,05,00,METAR MRPV NIL=
MRPV,2023,04,01,06,00,METAR MRPV NIL=
MRPV,2023,04,01,07,00,METAR MRPV NIL=
MRPV,2023,04,01,08,00,METAR MRPV NIL=
MRPV,2023,04,01,09,00,METAR MRPV NIL=
MRPV,2023,04,01,10,00,METAR MRPV NIL=
MRPV,2023,04,01,11,00,METAR MRPV NIL=
MRPV,2023,04,01,12,00,METAR MRPV 011200Z 12009KT CAVOK 18/12 A3005 NOSIG=
MRPV,2023,04,01,13,00,METAR MRPV 011300Z 12010KT CAVOK 20/13 A3008 NOSIG=
MRPV,2023,04,01,14,00,METAR MRPV 011400Z 10014KT 9999 FEW045 BKN250 21/14 A3009 NOSIG=
MRPV,2023,04,01,15,00,METAR MRPV 011500Z 09016G27KT 9999 FEW045 BKN250 22/15 A3010 NOSIG=
MRPV,2023,04,01,16,00,METAR MRPV 011600Z 09017KT 9999 FEW045 BKN250 24/15 A3010 NOSIG=
MRPV,2023,04,01,17,00,METAR MRPV 011700Z 08017G27KT 9999 FEW030 BKN250 24/16 A3009 NOSIG=
MRPV,2023,04,01,18,00,METAR MRPV 011800Z 08021KT 9999 SCT025 BKN250 24/16 A3009 NOSIG=
MRPV,2023,04,01,19,00,METAR MRPV 011900Z 10018KT 9999 FEW030 SCT200 25/16 A3005 NOSIG=
MRPV,2023,04,01,20,00,METAR MRPV 012000Z 09020KT 9999 FEW030 BKN200 24/16 A3003 NOSIG=
MRPV,2023,04,01,21,00,METAR MRPV 012100Z 08023KT 9999 FEW025 BKN200 22/15 A3002 NOSIG=
MRPV,2023,04,01,22,00,METAR MRPV 012200Z 08020G30KT 9999 FEW025 BKN200 21/14 A3002 NOSIG=
MRPV,2023,04,01,23,00,METAR MRPV 012300Z 08019KT 9999 SCT025 BKN200 21/12 A3003 NOSIG=
MRPV,2023,04,02,00,00,METAR MRPV 020000Z 10017G27KT 9999 SCT025 BKN200 20/13 A3005 NOSIG=
MRPV,2023,04,02,01,00,METAR MRPV NIL=
MRPV,2023,04,02,02,00,METAR MRPV NIL=
MRPV,2023,04,02,03,00,METAR MRPV NIL=
MRPV,2023,04,02,04,00,METAR MRPV NIL=
MRPV,2023,04,02,05,00,METAR MRPV NIL=
MRPV,2023,04,02,06,00,METAR MRPV NIL=
MRPV,2023,04,02,07,00,METAR MRPV NIL=
MRPV,2023,04,02,08,00,METAR MRPV NIL=
MRPV,2023,04,02,09,00,METAR MRPV NIL=
MRPV,2023,04,02,10,00,METAR MRPV NIL=
MRPV,2023,04,02,11,00,METAR MRPV NIL=
MRPV,2023,04,02,12,00,METAR MRPV 021200Z 12008KT 9999 FEW035 BKN060 19/14 A3006 NOSIG=
MRPV,2023,04,02,13,00,METAR MRPV 021300Z 13009KT 9999 FEW030 20/14 A3007 NOSIG=
MRPV,2023,04,02,14,00,METAR MRPV 021400Z 11011KT 9999 BKN030 21/15 A3009 NOSIG=
MRPV,2023,04,02,15,00,METAR MRPV 021500Z 09014KT 9999 SCT030 23/16 A3009 NOSIG=
MRPV,2023,04,02,16,00,METAR MRPV 021600Z 08014KT 9999 SCT025 23/16 A3008 NOSIG=
MRPV,2023,04,02,17,00,METAR MRPV 021700Z 08017KT 9999 FEW020 24/17 A3007 NOSIG=
MRPV,2023,04,02,18,00,METAR MRPV 021800Z 09019KT 9999 FEW020 25/17 A3004 NOSIG=
MRPV,2023,04,02,19,00,METAR MRPV 021900Z 09020KT 9999 FEW020 SCT050 23/17 A3001 NOSIG=
MRPV,2023,04,02,20,00,METAR MRPV 022000Z 08020G31KT 9999 FEW020 23/17 A2999 NOSIG=
MRPV,2023,04,02,21,00,METAR MRPV 022100Z 08020KT 9999 FEW020 23/17 A2997 NOSIG=
MRPV,2023,04,02,22,00,METAR MRPV 022200Z 09022KT 9999 FEW020 22/17 A2997 NOSIG=
MRPV,2023,04,02,23,00,METAR MRPV 022300Z 09018KT 9999 FEW030 22/16 A2998 NOSIG=
MRPV,2023,04,03,00,00,METAR MRPV 030000Z 10014KT 9999 SCT030 21/15 A2999 NOSIG=
MRPV,2023,04,03,01,00,METAR MRPV NIL=
MRPV,2023,04,03,02,00,METAR MRPV NIL=
MRPV,2023,04,03,03,00,METAR MRPV NIL=
MRPV,2023,04,03,04,00,METAR MRPV NIL=
MRPV,2023,04,03,05,00,METAR MRPV NIL=
MRPV,2023,04,03,06,00,METAR MRPV NIL=
MRPV,2023,04,03,07,00,METAR MRPV NIL=
MRPV,2023,04,03,08,00,METAR MRPV NIL=
MRPV,2023,04,03,09,00,METAR MRPV NIL=
MRPV,2023,04,03,10,00,METAR MRPV NIL=
MRPV,2023,04,03,11,00,METAR MRPV NIL=
MRPV,2023,04,03,12,00,METAR MRPV 031200Z 13009KT 9999 FEW030 20/15 A3001 NOSIG=
MRPV,2023,04,03,13,00,METAR MRPV 031300Z 11007KT 9999 FEW030 21/15 A3003 NOSIG=
MRPV,2023,04,03,14,00,METAR MRPV 031400Z 10012KT 9999 FEW025 22/16 A3006 NOSIG=
MRPV,2023,04,03,15,00,METAR MRPV 031500Z 09015KT 9999 SCT030 22/16 A3006 NOSIG=
MRPV,2023,04,03,16,00,METAR MRPV 031600Z 10014KT 9999 FEW025 BKN040 23/17 A3005 NOSIG=
MRPV,2023,04,03,17,00,METAR MRPV 031700Z 09015KT 9999 FEW025 BKN040 24/17 A3004 NOSIG=
MRPV,2023,04,03,18,00,METAR MRPV 031800Z 09016KT 9999 FEW030 BKN045 26/17 A3001 NOSIG=
MRPV,2023,04,03,19,00,METAR MRPV 031900Z 07016KT 9999 FEW030 26/17 A2997 NOSIG=
MRPV,2023,04,03,20,00,METAR MRPV 032000Z 09017KT 9999 FEW035 26/17 A2994 NOSIG=
MRPV,2023,04,03,21,00,METAR MRPV 032100Z 10016KT 9999 FEW035 26/17 A2993 NOSIG=
MRPV,2023,04,03,22,00,METAR MRPV 032200Z 09014KT 9999 FEW030 25/17 A2993 NOSIG=
MRPV,2023,04,03,23,00,METAR MRPV 032300Z 08015KT 9999 FEW030 23/17 A2993 NOSIG=
MRPV,2023,04,04,00,00,METAR MRPV 040000Z 09012KT 9999 FEW020 BKN080 22/17 A2996 NOSIG=
MRPV,2023,04,04,01,00,METAR MRPV NIL=
MRPV,2023,04,04,02,00,METAR MRPV NIL=
MRPV,2023,04,04,03,00,METAR MRPV NIL=
MRPV,2023,04,04,04,00,METAR MRPV NIL=
MRPV,2023,04,04,05,00,METAR MRPV NIL=
MRPV,2023,04,04,06,00,METAR MRPV NIL=
MRPV,2023,04,04,07,00,METAR MRPV NIL=
MRPV,2023,04,04,08,00,METAR MRPV NIL=
MRPV,2023,04,04,09,00,METAR MRPV NIL=
MRPV,2023,04,04,10,00,METAR MRPV NIL=
MRPV,2023,04,04,11,00,METAR MRPV NIL=
MRPV,2023,04,04,12,00,METAR MRPV 041200Z 11012KT 9999 FEW020 20/16 A2998 NOSIG=
MRPV,2023,04,04,13,00,METAR MRPV 041300Z 11013KT 9999 FEW025 21/16 A3000 NOSIG=
MRPV,2023,04,04,14,00,METAR MRPV 041400Z 11013G24KT 9999 FEW025 22/17 A3001 NOSIG=
MRPV,2023,04,04,15,00,METAR MRPV 041500Z 09017KT 9999 FEW030 24/17 A3002 NOSIG=
MRPV,2023,04,04,16,00,METAR MRPV 041600Z 08017KT 9999 FEW025 SCT080 23/17 A3002 NOSIG=
MRPV,2023,04,04,17,00,METAR MRPV 041700Z 08020KT 9999 FEW030 23/17 A3001 NOSIG=
MRPV,2023,04,04,18,00,METAR MRPV 041800Z 09017KT 9999 FEW030 SCT090 25/17 A3000 NOSIG=
MRPV,2023,04,04,19,00,METAR MRPV 041900Z 09017KT 9999 FEW030 SCT090 25/17 A2997 NOSIG=
MRPV,2023,04,04,20,00,METAR MRPV 042000Z 09016KT 9999 FEW045 SCT090 26/17 A2993 NOSIG=
MRPV,2023,04,04,21,00,METAR MRPV 042100Z 08023KT 9999 FEW025 SCT090 26/15 A2990 NOSIG=
MRPV,2023,04,04,22,00,METAR MRPV 042200Z 09014KT 9999 SCT030 SCT090 24/17 A2992 NOSIG=
MRPV,2023,04,04,23,00,METAR MRPV 042300Z 12011KT 9999 BKN030 SCT200 23/17 A2995 NOSIG=
MRPV,2023,04,05,00,00,METAR MRPV 050000Z 10012KT 9999 BKN025 22/16 A2997 NOSIG=
MRPV,2023,04,05,01,00,METAR MRPV NIL=
MRPV,2023,04,05,02,00,METAR MRPV NIL=
MRPV,2023,04,05,03,00,METAR MRPV NIL=
MRPV,2023,04,05,04,00,METAR MRPV NIL=
MRPV,2023,04,05,05,00,METAR MRPV NIL=
MRPV,2023,04,05,06,00,METAR MRPV NIL=
MRPV,2023,04,05,07,00,METAR MRPV NIL=
MRPV,2023,04,05,08,00,METAR MRPV NIL=
MRPV,2023,04,05,09,00,METAR MRPV NIL=
MRPV,2023,04,05,10,00,METAR MRPV NIL=
MRPV,2023,04,05,11,00,METAR MRPV NIL=
MRPV,2023,04,05,12,00,METAR MRPV 051200Z 11011KT 9999 FEW020 BKN250 20/16 A3000 NOSIG=
MRPV,2023,04,05,13,00,METAR MRPV 051300Z 11013KT 9999 SCT020 SCT200 21/17 A3002 NOSIG=
MRPV,2023,04,05,14,00,METAR MRPV 051400Z 09016KT 9999 FEW030 BKN200 22/16 A3004 NOSIG=
MRPV,2023,04,05,15,00,METAR MRPV 051500Z 09014KT 9999 FEW040 BKN200 23/17 A3003 NOSIG=
MRPV,2023,04,05,16,00,METAR MRPV 051600Z 08013KT 9999 FEW030 BKN200 25/17 A3003 NOSIG=
MRPV,2023,04,05,17,00,METAR MRPV 051700Z 08018KT 9999 FEW030 BKN200 24/17 A3003 NOSIG=
MRPV,2023,04,05,18,00,METAR MRPV 051800Z 07016G26KT 9999 FEW030 BKN200 25/16 A3001 NOSIG=
MRPV,2023,04,05,19,00,METAR MRPV 051900Z 08014KT 9999 FEW040 BKN200 26/16 A2997 NOSIG=
MRPV,2023,04,05,20,00,METAR MRPV 052000Z 07015KT 9999 FEW035 SCT080 BKN200 24/17 A2997 NOSIG=
MRPV,2023,04,05,21,00,METAR MRPV 052100Z 08015KT 9999 FEW030 BKN200 25/17 A2994 NOSIG=
MRPV,2023,04,05,22,00,METAR MRPV 052200Z 08018KT 9999 FEW025 BKN090 23/16 A2996 NOSIG=
MRPV,2023,04,05,23,00,METAR MRPV 052300Z 08018KT 9999 FEW020 BKN080 21/14 A2997 NOSIG=
MRPV,2023,04,06,00,00,METAR MRPV 060000Z 10014G24KT 9999 SCT025 21/14 A2999 NOSIG=
MRPV,2023,04,06,01,00,METAR MRPV NIL=
MRPV,2023,04,06,02,00,METAR MRPV NIL=
MRPV,2023,04,06,03,00,METAR MRPV NIL=
MRPV,2023,04,06,04,00,METAR MRPV NIL=
MRPV,2023,04,06,05,00,METAR MRPV NIL=
MRPV,2023,04,06,06,00,METAR MRPV NIL=
MRPV,2023,04,06,07,00,METAR MRPV NIL=
MRPV,2023,04,06,08,00,METAR MRPV NIL=
MRPV,2023,04,06,09,00,METAR MRPV NIL=
MRPV,2023,04,06,10,00,METAR MRPV NIL=
MRPV,2023,04,06,11,00,METAR MRPV NIL=
MRPV,2023,04,06,12,00,METAR MRPV 061200Z 12007KT 9999 FEW035 SCT250 19/14 A3003 NOSIG=
MRPV,2023,04,06,13,00,METAR MRPV 061300Z 12009KT 9999 FEW025 SCT250 19/15 A3005 NOSIG=
MRPV,2023,04,06,14,00,METAR MRPV 061400Z 11012KT 9999 FEW030 BKN250 21/15 A3006 NOSIG=
MRPV,2023,04,06,15,00,METAR MRPV 061500Z 10011KT 9999 FEW045 BKN220 23/15 A3006 NOSIG=
MRPV,2023,04,06,16,00,METAR MRPV 061600Z 08013KT 9999 FEW035 BKN200 24/16 A3006 NOSIG=
MRPV,2023,04,06,17,00,METAR MRPV 061700Z 07015KT 9999 FEW030 BKN090 23/16 A3006 NOSIG=
MRPV,2023,04,06,18,00,METAR MRPV 061800Z 09013KT 9999 FEW030 BKN100 23/17 A3003 NOSIG=
MRPV,2023,04,06,19,00,METAR MRPV 061900Z 09016KT 9999 FEW030 SCT100 BKN200 25/16 A3001 NOSIG=
MRPV,2023,04,06,20,00,METAR MRPV 062000Z 07016G26KT 9999 FEW030 BKN200 24/16 A3000 NOSIG=
MRPV,2023,04,06,21,00,METAR MRPV 062100Z 09017G27KT 9999 SCT030 BKN180 23/14 A2998 NOSIG=
MRPV,2023,04,06,22,00,METAR MRPV 062200Z 09015KT 9999 FEW035 BKN180 23/14 A2998 NOSIG=
MRPV,2023,04,06,23,00,METAR MRPV 062300Z 12011KT 9999 BKN040 22/15 A3000 NOSIG=
MRPV,2023,04,07,00,00,METAR MRPV 070000Z 12010KT 9999 BKN045 21/15 A3002 NOSIG=
MRPV,2023,04,07,01,00,METAR MRPV NIL=
MRPV,2023,04,07,02,00,METAR MRPV NIL=
MRPV,2023,04,07,03,00,METAR MRPV NIL=
MRPV,2023,04,07,04,00,METAR MRPV NIL=
MRPV,2023,04,07,05,00,METAR MRPV NIL=
MRPV,2023,04,07,06,00,METAR MRPV NIL=
MRPV,2023,04,07,07,00,METAR MRPV NIL=
MRPV,2023,04,07,08,00,METAR MRPV NIL=
MRPV,2023,04,07,09,00,METAR MRPV NIL=
MRPV,2023,04,07,10,00,METAR MRPV NIL=
MRPV,2023,04,07,11,00,METAR MRPV NIL=
MRPV,2023,04,07,12,00,METAR MRPV 071200Z 11010KT 9999 FEW030 BKN100 20/14 A3003 NOSIG=
MRPV,2023,04,07,13,00,METAR MRPV 071300Z 10014KT 9999 FEW025 BKN090 20/14 A3005 NOSIG=
MRPV,2023,04,07,14,00,METAR MRPV 071400Z 09014KT 9999 FEW025 BKN090 21/14 A3008 NOSIG=
MRPV,2023,04,07,15,00,METAR MRPV 071500Z 10013G23KT 9999 FEW025 BKN090 22/14 A3008 NOSIG=
MRPV,2023,04,07,16,00,METAR MRPV 071600Z 09013KT 9999 FEW035 BKN100 23/14 A3008 NOSIG=
MRPV,2023,04,07,17,00,METAR MRPV 071700Z 08015KT 9999 FEW040 BKN100 23/14 A3007 NOSIG=
MRPV,2023,04,07,18,00,METAR MRPV 071800Z 07014KT 9999 FEW030 BKN100 23/15 A3005 NOSIG=
MRPV,2023,04,07,19,00,METAR MRPV 071900Z 09012KT 9999 FEW030 BKN100 23/14 A3002 NOSIG=
MRPV,2023,04,07,20,00,METAR MRPV 072000Z 08017KT 9999 FEW030 SCT120 BKN200 24/16 A3000 NOSIG=
MRPV,2023,04,07,21,00,METAR MRPV 072100Z 08016KT 9999 FEW035 SCT100 23/13 A2999 NOSIG=
MRPV,2023,04,07,22,00,METAR MRPV 072200Z 08017KT 9999 FEW035 BKN170 23/13 A2998 NOSIG=
MRPV,2023,04,07,23,00,METAR MRPV 072300Z 09013KT 9999 FEW030 SCT150 BKN190 22/13 A3000 NOSIG=
MRPV,2023,04,08,00,00,METAR MRPV 080000Z 13010KT 9999 FEW030 SCT100 20/15 A3003 NOSIG=
MRPV,2023,04,08,01,00,METAR MRPV NIL=
MRPV,2023,04,08,02,00,METAR MRPV NIL=
MRPV,2023,04,08,03,00,METAR MRPV NIL=
MRPV,2023,04,08,04,00,METAR MRPV NIL=
MRPV,2023,04,08,05,00,METAR MRPV NIL=
MRPV,2023,04,08,06,00,METAR MRPV NIL=
MRPV,2023,04,08,07,00,METAR MRPV NIL=
MRPV,2023,04,08,08,00,METAR MRPV NIL=
MRPV,2023,04,08,09,00,METAR MRPV NIL=
MRPV,2023,04,08,10,00,METAR MRPV NIL=
MRPV,2023,04,08,11,00,METAR MRPV NIL=
MRPV,2023,04,08,12,00,METAR MRPV 081200Z 11011KT 9999 FEW045 BKN200 19/13 A3003 NOSIG=
MRPV,2023,04,08,13,00,METAR MRPV 081300Z 13011KT 9999 FEW040 BKN200 20/13 A3004 NOSIG=
MRPV,2023,04,08,14,00,METAR MRPV 081400Z 10013KT CAVOK 22/14 A3006 NOSIG=
MRPV,2023,04,08,15,00,METAR MRPV 081500Z 06014KT CAVOK 23/14 A3007 NOSIG=
MRPV,2023,04,08,16,00,METAR MRPV 081600Z 08013KT CAVOK 23/14 A3007 NOSIG=
MRPV,2023,04,08,17,00,METAR MRPV 081700Z 09014KT 9999 FEW045 BKN200 24/14 A3006 NOSIG=
MRPV,2023,04,08,18,00,METAR MRPV 081800Z 08012KT 9999 FEW045 BKN200 25/14 A3004 NOSIG=
MRPV,2023,04,08,19,00,METAR MRPV 081900Z 08015KT 9999 FEW040 BKN200 25/15 A3000 NOSIG=
MRPV,2023,04,08,20,00,METAR MRPV 082000Z 08014KT 9999 FEW040 BKN200 25/15 A2998 NOSIG=
MRPV,2023,04,08,21,00,METAR MRPV 082100Z 09012KT 9999 FEW040 SCT080 BKN200 25/16 A2997 NOSIG=
MRPV,2023,04,08,22,00,METAR MRPV 082200Z 09014KT 9999 FEW035 BKN090 23/15 A2997 NOSIG=
MRPV,2023,04,08,23,00,METAR MRPV 082300Z 09014KT 9999 FEW025 SCT080 BKN200 22/16 A2998 NOSIG=
MRPV,2023,04,09,00,00,METAR MRPV 090000Z 11010KT 9999 FEW035 BKN080 21/15 A3001 NOSIG=
MRPV,2023,04,09,01,00,METAR MRPV NIL=
MRPV,2023,04,09,02,00,METAR MRPV NIL=
MRPV,2023,04,09,03,00,METAR MRPV NIL=
MRPV,2023,04,09,04,00,METAR MRPV NIL=
MRPV,2023,04,09,05,00,METAR MRPV NIL=
MRPV,2023,04,09,06,00,METAR MRPV NIL=
MRPV,2023,04,09,07,00,METAR MRPV NIL=
MRPV,2023,04,09,08,00,METAR MRPV NIL=
MRPV,2023,04,09,09,00,METAR MRPV NIL=
MRPV,2023,04,09,10,00,METAR MRPV NIL=
MRPV,2023,04,09,11,00,METAR MRPV NIL=
MRPV,2023,04,09,12,00,METAR MRPV 091200Z 13009KT 9999 FEW035 BKN200 19/15 A3006 NOSIG=
MRPV,2023,04,09,13,00,METAR MRPV 091300Z 13009KT 9999 FEW035 BKN200 21/15 A3007 NOSIG=
MRPV,2023,04,09,14,00,METAR MRPV 091400Z 12013KT 9999 FEW035 BKN200 22/15 A3009 NOSIG=
MRPV,2023,04,09,15,00,METAR MRPV 091500Z 10013KT 9999 FEW035 23/14 A3009 NOSIG=
MRPV,2023,04,09,16,00,METAR MRPV 091600Z 08017KT 9999 FEW035 SCT200 25/15 A3009 NOSIG=
MRPV,2023,04,09,17,00,METAR MRPV 091700Z 08015KT 9999 FEW035 26/13 A3007 NOSIG=
MRPV,2023,04,09,18,00,METAR MRPV 091800Z 07015KT 9999 FEW035 26/13 A3004 NOSIG=
MRPV,2023,04,09,19,00,METAR MRPV 091900Z 08016KT 9999 FEW040 BKN100 25/14 A3002 NOSIG=
MRPV,2023,04,09,20,00,METAR MRPV 092000Z 08018KT 9999 FEW045 BKN100 23/13 A3001 NOSIG=
MRPV,2023,04,09,21,00,METAR MRPV 092100Z 08017KT 9999 FEW045 SCT080 24/12 A2999 NOSIG=
MRPV,2023,04,09,22,00,METAR MRPV 092200Z 08015KT 9999 FEW045 BKN080 23/14 A2999 NOSIG=
MRPV,2023,04,09,23,00,METAR MRPV 092300Z 08017KT 9999 FEW045 22/15 A3001 NOSIG=
MRPV,2023,04,10,00,00,METAR MRPV 100000Z 10016KT 9999 FEW045 20/14 A3003 NOSIG=
MRPV,2023,04,10,01,00,METAR MRPV NIL=
MRPV,2023,04,10,02,00,METAR MRPV NIL=
MRPV,2023,04,10,03,00,METAR MRPV NIL=
MRPV,2023,04,10,04,00,METAR MRPV NIL=
MRPV,2023,04,10,05,00,METAR MRPV NIL=
MRPV,2023,04,10,06,00,METAR MRPV NIL=
MRPV,2023,04,10,07,00,METAR MRPV NIL=
MRPV,2023,04,10,08,00,METAR MRPV NIL=
MRPV,2023,04,10,09,00,METAR MRPV NIL=
MRPV,2023,04,10,10,00,METAR MRPV NIL=
MRPV,2023,04,10,11,00,METAR MRPV NIL=
MRPV,2023,04,10,12,00,METAR MRPV 101200Z 13011KT CAVOK 20/11 A3006 NOSIG=
MRPV,2023,04,10,13,00,METAR MRPV 101300Z 12012KT CAVOK 20/11 A3008 NOSIG=
MRPV,2023,04,10,14,00,METAR MRPV 101400Z 13013KT CAVOK 22/10 A3010 NOSIG=
MRPV,2023,04,10,15,00,METAR MRPV 101500Z 10013KT CAVOK 24/12 A3010 NOSIG=
MRPV,2023,04,10,16,00,METAR MRPV 101600Z 08016KT CAVOK 25/13 A3008 NOSIG=
MRPV,2023,04,10,17,00,METAR MRPV 101700Z 09016KT CAVOK 26/14 A3007 NOSIG=
MRPV,2023,04,10,18,00,METAR MRPV 101800Z 09015KT 9999 FEW045 26/15 A3006 NOSIG=
MRPV,2023,04,10,19,00,METAR MRPV 101900Z 09014KT 9999 FEW045 27/15 A3003 NOSIG=
MRPV,2023,04,10,20,00,METAR MRPV 102000Z 09015KT 9999 FEW045 27/15 A3000 NOSIG=
MRPV,2023,04,10,21,00,METAR MRPV 102100Z 09017KT 9999 FEW040 25/16 A3000 NOSIG=
MRPV,2023,04,10,22,00,METAR MRPV 102200Z 08014KT 9999 FEW035 24/16 A3000 NOSIG=
MRPV,2023,04,10,23,00,METAR MRPV 102300Z 08017KT 9999 FEW040 BKN200 22/16 A3001 NOSIG=
MRPV,2023,04,11,00,00,METAR MRPV 110000Z 09015G25KT 9999 FEW030 SCT200 21/16 A3003 NOSIG=
MRPV,2023,04,11,01,00,METAR MRPV NIL=
MRPV,2023,04,11,02,00,METAR MRPV NIL=
MRPV,2023,04,11,03,00,METAR MRPV NIL=
MRPV,2023,04,11,04,00,METAR MRPV NIL=
MRPV,2023,04,11,05,00,METAR MRPV NIL=
MRPV,2023,04,11,06,00,METAR MRPV NIL=
MRPV,2023,04,11,07,00,METAR MRPV NIL=
MRPV,2023,04,11,08,00,METAR MRPV NIL=
MRPV,2023,04,11,09,00,METAR MRPV NIL=
MRPV,2023,04,11,10,00,METAR MRPV NIL=
MRPV,2023,04,11,11,00,METAR MRPV NIL=
MRPV,2023,04,11,12,00,METAR MRPV NIL=
MRPV,2023,04,11,13,00,METAR MRPV NIL=
MRPV,2023,04,11,14,00,METAR MRPV 111400Z 10016KT CAVOK 24/11 A3006 NOSIG=
MRPV,2023,04,11,14,00,SPECI MRPV 111400Z 10016KT CAVOK 24/11 A3006 NOSIG=
MRPV,2023,04,11,15,00,METAR MRPV 111500Z 08019KT CAVOK 23/11 A3009 NOSIG=
MRPV,2023,04,11,15,33,SPECI MRPV 111533Z 09019KT CAVOK 24/13 A3008 NOSIG=
MRPV,2023,04,11,16,00,METAR MRPV 111600Z 09015G25KT CAVOK 25/13 A3008 NOSIG=
MRPV,2023,04,11,17,00,METAR MRPV 111700Z 09018KT CAVOK 26/14 A3007 NOSIG=
MRPV,2023,04,11,18,00,METAR MRPV 111800Z 09016KT CAVOK 26/15 A3005 NOSIG=
MRPV,2023,04,11,19,00,METAR MRPV 111900Z 07017KT CAVOK 26/15 A3001 NOSIG=
MRPV,2023,04,11,20,00,METAR MRPV 112000Z 08016KT CAVOK 26/16 A3001 NOSIG=
MRPV,2023,04,11,21,00,METAR MRPV 112100Z 08016KT CAVOK 26/15 A2997 NOSIG=
MRPV,2023,04,11,22,00,METAR MRPV 112200Z 08016KT CAVOK 25/16 A2997 NOSIG=
MRPV,2023,04,11,23,00,METAR MRPV 112300Z 09014KT 9999 FEW035 24/16 A2998 NOSIG=
MRPV,2023,04,12,00,00,METAR MRPV 120000Z 09016KT 9999 FEW030 22/16 A3000 NOSIG=
MRPV,2023,04,12,01,00,METAR MRPV NIL=
MRPV,2023,04,12,02,00,METAR MRPV NIL=
MRPV,2023,04,12,03,00,METAR MRPV NIL=
MRPV,2023,04,12,04,00,METAR MRPV NIL=
MRPV,2023,04,12,05,00,METAR MRPV NIL=
MRPV,2023,04,12,06,00,METAR MRPV NIL=
MRPV,2023,04,12,07,00,METAR MRPV NIL=
MRPV,2023,04,12,08,00,METAR MRPV NIL=
MRPV,2023,04,12,09,00,METAR MRPV NIL=
MRPV,2023,04,12,10,00,METAR MRPV NIL=
MRPV,2023,04,12,11,00,METAR MRPV NIL=
MRPV,2023,04,12,12,00,METAR MRPV 121200Z 12012KT CAVOK 20/15 A3001 NOSIG=
MRPV,2023,04,12,13,00,METAR MRPV 121300Z 12013G24KT CAVOK 21/15 A3004 NOSIG=
MRPV,2023,04,12,14,00,METAR MRPV 121400Z 12013G23KT CAVOK 22/15 A3006 NOSIG=
MRPV,2023,04,12,15,00,METAR MRPV 121500Z 09016KT CAVOK 24/15 A3005 NOSIG=
MRPV,2023,04,12,16,00,METAR MRPV 121600Z 08015KT CAVOK 26/15 A3004 NOSIG=
MRPV,2023,04,12,17,00,METAR MRPV 121700Z 07013KT CAVOK 26/15 A3004 NOSIG=
MRPV,2023,04,12,18,00,METAR MRPV 121800Z 08015KT 9999 FEW045 27/15 A3001 NOSIG=
MRPV,2023,04,12,19,00,METAR MRPV 121900Z 09012KT 9999 FEW045 28/16 A2998 NOSIG=
MRPV,2023,04,12,20,00,METAR MRPV 122000Z 09015KT 9999 FEW045 28/15 A2994 NOSIG=
MRPV,2023,04,12,21,00,METAR MRPV 122100Z 09016KT 9999 FEW035 27/16 A2992 NOSIG=
MRPV,2023,04,12,22,00,METAR MRPV 122200Z 08016KT 9999 SCT035 25/16 A2994 NOSIG=
MRPV,2023,04,12,23,00,METAR MRPV 122300Z 09015KT 9999 FEW030 23/16 A2994 NOSIG=
MRPV,2023,04,13,00,00,METAR MRPV 130000Z 11010KT 9999 FEW035 22/17 A2997 NOSIG=
MRPV,2023,04,13,01,00,METAR MRPV NIL=
MRPV,2023,04,13,02,00,METAR MRPV NIL=
MRPV,2023,04,13,03,00,METAR MRPV NIL=
MRPV,2023,04,13,04,00,METAR MRPV NIL=
MRPV,2023,04,13,05,00,METAR MRPV NIL=
MRPV,2023,04,13,06,00,METAR MRPV NIL=
MRPV,2023,04,13,07,00,METAR MRPV NIL=
MRPV,2023,04,13,08,00,METAR MRPV NIL=
MRPV,2023,04,13,09,00,METAR MRPV NIL=
MRPV,2023,04,13,10,00,METAR MRPV NIL=
MRPV,2023,04,13,11,00,METAR MRPV NIL=
MRPV,2023,04,13,12,00,METAR MRPV 131200Z 13009KT 9999 FEW020 20/15 A3000 NOSIG=
MRPV,2023,04,13,13,00,METAR MRPV 131300Z 12011KT 9999 FEW025 22/15 A3002 NOSIG=
MRPV,2023,04,13,14,00,METAR MRPV 131400Z 11010KT CAVOK 23/16 A3002 NOSIG=
MRPV,2023,04,13,15,00,METAR MRPV 131500Z 08014KT CAVOK 25/16 A3004 NOSIG=
MRPV,2023,04,13,16,00,METAR MRPV 131600Z 08016KT 9999 FEW030 25/17 A3004 NOSIG=
MRPV,2023,04,13,17,00,METAR MRPV 131700Z 08013KT 9999 FEW040 26/17 A3002 NOSIG=
MRPV,2023,04,13,18,00,METAR MRPV 131800Z 09016KT 9999 FEW030 27/17 A2998 NOSIG=
MRPV,2023,04,13,19,00,METAR MRPV NIL=
MRPV,2023,04,13,20,00,METAR MRPV NIL=
MRPV,2023,04,13,21,00,METAR MRPV NIL=
MRPV,2023,04,13,22,00,METAR MRPV NIL=
MRPV,2023,04,13,23,00,METAR MRPV NIL=
MRPV,2023,04,14,00,00,METAR MRPV NIL=
MRPV,2023,04,14,01,00,METAR MRPV NIL=
MRPV,2023,04,14,02,00,METAR MRPV NIL=
MRPV,2023,04,14,03,00,METAR MRPV NIL=
MRPV,2023,04,14,04,00,METAR MRPV NIL=
MRPV,2023,04,14,05,00,METAR MRPV NIL=
MRPV,2023,04,14,06,00,METAR MRPV NIL=
MRPV,2023,04,14,07,00,METAR MRPV NIL=
MRPV,2023,04,14,08,00,METAR MRPV NIL=
MRPV,2023,04,14,09,00,METAR MRPV NIL=
MRPV,2023,04,14,10,00,METAR MRPV NIL=
MRPV,2023,04,14,11,00,METAR MRPV NIL=
MRPV,2023,04,14,12,00,METAR MRPV 141200Z 11008KT 9999 SCT030 21/17 A3001 NOSIG=
MRPV,2023,04,14,13,00,METAR MRPV 141300Z 11009KT 9999 FEW035 23/17 A3002 NOSIG=
MRPV,2023,04,14,14,00,METAR MRPV 141400Z 10012KT 9999 FEW035 23/17 A3003 NOSIG=
MRPV,2023,04,14,15,00,METAR MRPV 141500Z 08013KT 9999 FEW035 25/17 A3002 NOSIG=
MRPV,2023,04,14,16,00,METAR MRPV 141600Z 07015G26KT 9999 FEW040 26/17 A3002 NOSIG=
MRPV,2023,04,14,17,00,METAR MRPV 141700Z 09013G23KT 9999 FEW035 27/18 A3001 NOSIG=
MRPV,2023,04,14,18,00,METAR MRPV 141800Z 07014KT 9999 SCT030 27/18 A2998 NOSIG=
MRPV,2023,04,14,19,00,METAR MRPV 141900Z 08016KT 9999 SCT030 26/18 A2996 NOSIG=
MRPV,2023,04,14,20,00,METAR MRPV 142000Z 08017KT 9999 -RA SCT025 SCT100 23/15 A2997 NOSIG=
MRPV,2023,04,14,21,00,METAR MRPV 142100Z 10015KT 9999 SCT030 BKN120 22/15 A2997 NOSIG=
MRPV,2023,04,14,22,00,METAR MRPV 142200Z 11012KT 9999 FEW045 BKN160 22/15 A2996 NOSIG=
MRPV,2023,04,14,23,00,METAR MRPV 142300Z 09015KT CAVOK 23/14 A2997 NOSIG=
MRPV,2023,04,15,00,00,METAR MRPV 150000Z 11007KT CAVOK 22/13 A3001 NOSIG=
MRPV,2023,04,15,01,00,METAR MRPV NIL=
MRPV,2023,04,15,02,00,METAR MRPV NIL=
MRPV,2023,04,15,03,00,METAR MRPV NIL=
MRPV,2023,04,15,04,00,METAR MRPV NIL=
MRPV,2023,04,15,05,00,METAR MRPV NIL=
MRPV,2023,04,15,06,00,METAR MRPV NIL=
MRPV,2023,04,15,07,00,METAR MRPV NIL=
MRPV,2023,04,15,08,00,METAR MRPV NIL=
MRPV,2023,04,15,09,00,METAR MRPV NIL=
MRPV,2023,04,15,10,00,METAR MRPV NIL=
MRPV,2023,04,15,11,00,METAR MRPV NIL=
MRPV,2023,04,15,12,00,METAR MRPV 151200Z 13011KT CAVOK 19/12 A3004 NOSIG=
MRPV,2023,04,15,13,00,METAR MRPV 151300Z 11013G23KT CAVOK 21/13 A3006 NOSIG=
MRPV,2023,04,15,14,00,METAR MRPV 151400Z 11012KT CAVOK 23/13 A3007 NOSIG=
MRPV,2023,04,15,15,00,METAR MRPV 151500Z 08015KT CAVOK 25/14 A3008 NOSIG=
MRPV,2023,04,15,16,00,METAR MRPV 151600Z 09014KT CAVOK 26/14 A3006 NOSIG=
MRPV,2023,04,15,17,00,METAR MRPV 151700Z 09014KT CAVOK 28/15 A3004 NOSIG=
MRPV,2023,04,15,18,00,METAR MRPV 151800Z 08019G29KT 9999 FEW045 27/15 A3003 NOSIG=
MRPV,2023,04,15,19,00,METAR MRPV 151900Z 08016KT 9999 FEW045 28/15 A3002 NOSIG=
MRPV,2023,04,15,20,00,METAR MRPV 152000Z 09016KT 9999 FEW045 27/15 A3000 NOSIG=
MRPV,2023,04,15,21,00,METAR MRPV 152100Z 08015KT 9999 FEW045 27/15 A2998 NOSIG=
MRPV,2023,04,15,22,00,METAR MRPV 152200Z 08016KT 9999 FEW040 26/16 A2999 NOSIG=
MRPV,2023,04,15,23,00,METAR MRPV 152300Z 09014KT 9999 FEW040 24/16 A2999 NOSIG=
MRPV,2023,04,16,00,00,METAR MRPV 160000Z 10013KT 9999 FEW035 22/16 A3001 NOSIG=
MRPV,2023,04,16,01,00,METAR MRPV NIL=
MRPV,2023,04,16,02,00,METAR MRPV NIL=
MRPV,2023,04,16,03,00,METAR MRPV NIL=
MRPV,2023,04,16,04,00,METAR MRPV NIL=
MRPV,2023,04,16,05,00,METAR MRPV NIL=
MRPV,2023,04,16,06,00,METAR MRPV NIL=
MRPV,2023,04,16,07,00,METAR MRPV NIL=
MRPV,2023,04,16,08,00,METAR MRPV NIL=
MRPV,2023,04,16,09,00,METAR MRPV NIL=
MRPV,2023,04,16,10,00,METAR MRPV NIL=
MRPV,2023,04,16,11,00,METAR MRPV NIL=
MRPV,2023,04,16,12,00,METAR MRPV 161200Z 14007KT CAVOK 19/13 A3007 NOSIG=
MRPV,2023,04,16,13,00,METAR MRPV 161300Z 12007KT CAVOK 21/13 A3009 NOSIG=
MRPV,2023,04,16,14,00,METAR MRPV 161400Z 13006KT 9999 FEW040 BKN220 24/13 A3010 NOSIG=
MRPV,2023,04,16,15,00,METAR MRPV 161500Z 11008KT 9999 FEW040 BKN220 25/14 A3012 NOSIG=
MRPV,2023,04,16,16,00,METAR MRPV 161600Z 09007KT 9999 FEW045 BKN250 27/15 A3010 NOSIG=
MRPV,2023,04,16,17,00,METAR MRPV 161700Z 08003KT 9999 SCT045 BKN250 28/15 A3008 TEMPO 22005KT=
MRPV,2023,04,16,18,00,METAR MRPV 161800Z 26007KT 9999 SCT040 SCT250 28/18 A3006 NOSIG=
MRPV,2023,04,16,19,00,METAR MRPV 161900Z 28012G22KT 9999 SCT045 BKN250 28/18 A3003 NOSIG=
MRPV,2023,04,16,20,00,METAR MRPV 162000Z 27009G19KT 9999 BKN045 27/18 A3002 NOSIG=
MRPV,2023,04,16,20,36,SPECI MRPV 162036Z 09009KT 090V270 9999 BKN040 25/17 A3000 NOSIG=
MRPV,2023,04,16,21,00,METAR MRPV 162100Z 10012KT 9999 BKN040 24/17 A3001 NOSIG=
MRPV,2023,04,16,22,00,METAR MRPV 162200Z 09009KT 9999 BKN040 22/17 A3001 NOSIG=
MRPV,2023,04,16,23,00,METAR MRPV 162300Z 10010KT 9999 BKN030 22/17 A3003 NOSIG=
MRPV,2023,04,17,00,00,METAR MRPV 170000Z 09011KT 9999 BKN030 22/17 A3004 NOSIG=
MRPV,2023,04,17,01,00,METAR MRPV NIL=
MRPV,2023,04,17,02,00,METAR MRPV NIL=
MRPV,2023,04,17,03,00,METAR MRPV NIL=
MRPV,2023,04,17,06,00,METAR MRPV NIL=
MRPV,2023,04,17,07,00,METAR MRPV NIL=
MRPV,2023,04,17,08,00,METAR MRPV NIL=
MRPV,2023,04,17,09,00,METAR MRPV NIL=
MRPV,2023,04,17,10,00,METAR MRPV NIL=
MRPV,2023,04,17,11,00,METAR MRPV NIL=
MRPV,2023,04,17,12,00,METAR MRPV 171200Z 14003KT 9999 BKN040 20/15 A3005 NOSIG=
MRPV,2023,04,17,13,00,METAR MRPV 171300Z 12008KT 9999 FEW045 BKN120 22/15 A3007 NOSIG=
MRPV,2023,04,17,14,00,METAR MRPV 171400Z 13006KT CAVOK 23/15 A3008 NOSIG=
MRPV,2023,04,17,15,00,METAR MRPV 171500Z 11011KT 9999 FEW045 OVC120 24/14 A3009 NOSIG=
MRPV,2023,04,17,16,00,METAR MRPV 171600Z 08008KT 9999 FEW045 OVC120 25/16 A3009 NOSIG=
MRPV,2023,04,17,17,00,METAR MRPV 171700Z 08006KT 9999 FEW045 OVC120 26/16 A3006 NOSIG=
MRPV,2023,04,17,18,00,METAR MRPV 171800Z 09007KT 9999 FEW040 OVC120 27/16 A3003 NOSIG=
MRPV,2023,04,17,19,00,METAR MRPV 171900Z 09011KT 9999 FEW040 BKN120 27/17 A3002 NOSIG=
MRPV,2023,04,17,19,22,SPECI MRPV 171922Z 28006KT 110V280 9999 FEW040 BKN120 25/18 A3001 NOSIG=
MRPV,2023,04,17,20,00,METAR MRPV 172000Z 27005KT 9999 SCT040 BKN120 26/18 A3000 NOSIG=
MRPV,2023,04,17,20,32,SPECI MRPV 172032Z 11007KT 240V110 9999 SCT040 BKN120 25/16 A2998 NOSIG=
MRPV,2023,04,17,21,00,METAR MRPV 172100Z 08008KT 9999 SCT035 BKN120 25/16 A2997 NOSIG=
MRPV,2023,04,17,22,00,METAR MRPV 172200Z 24003KT 9999 BKN035 25/17 A2996 NOSIG=
MRPV,2023,04,17,22,28,SPECI MRPV 172228Z 09008KT 200V090 9999 SCT035 BKN160 24/17 A2995 NOSIG=
MRPV,2023,04,17,23,00,METAR MRPV 172300Z 09010KT 9999 SCT030 BKN160 23/17 A2996 NOSIG=
MRPV,2023,04,18,00,00,METAR MRPV 180000Z 08012KT 9999 SCT025 SCT120 22/17 A2997 NOSIG=
MRPV,2023,04,18,01,00,METAR MRPV NIL=
MRPV,2023,04,18,02,00,METAR MRPV NIL=
MRPV,2023,04,18,04,00,METAR MRPV NIL=
MRPV,2023,04,18,05,00,METAR MRPV NIL=
MRPV,2023,04,18,06,00,METAR MRPV NIL=
MRPV,2023,04,18,07,00,METAR MRPV NIL=
MRPV,2023,04,18,08,00,METAR MRPV NIL=
MRPV,2023,04,18,09,00,METAR MRPV NIL=
MRPV,2023,04,18,10,00,METAR MRPV NIL=
MRPV,2023,04,18,11,00,METAR MRPV NIL=
MRPV,2023,04,18,12,00,METAR MRPV 181200Z 12009KT CAVOK 19/09 A3002 NOSIG=
MRPV,2023,04,18,13,00,METAR MRPV 181300Z 12010KT CAVOK 21/11 A3004 NOSIG=
MRPV,2023,04,18,14,00,METAR MRPV 181400Z 13010KT CAVOK 23/10 A3005 NOSIG=
MRPV,2023,04,18,15,00,METAR MRPV 181500Z 09014KT CAVOK 25/09 A3005 NOSIG=
MRPV,2023,04,18,16,00,METAR MRPV 181600Z 11011KT CAVOK 26/06 A3004 NOSIG=
MRPV,2023,04,18,17,00,METAR MRPV 181700Z 08012KT CAVOK 27/10 A3002 NOSIG=
MRPV,2023,04,18,18,00,METAR MRPV 181800Z 08013KT CAVOK 28/13 A2999 NOSIG=
MRPV,2023,04,18,19,00,METAR MRPV 181900Z 08014KT CAVOK 27/14 A2996 NOSIG=
MRPV,2023,04,18,20,00,METAR MRPV 182000Z 08011KT 9999 FEW045 SCT200 28/14 A2994 NOSIG=
MRPV,2023,04,18,21,00,METAR MRPV 182100Z 10010KT 9999 FEW045 BKN200 28/14 A2993 NOSIG=
MRPV,2023,04,18,22,00,METAR MRPV 182200Z 11008KT 9999 FEW045 SCT200 25/15 A2994 NOSIG=
MRPV,2023,04,18,23,00,METAR MRPV 182300Z 10009KT 9999 FEW035 SCT200 24/16 A2996 NOSIG=
MRPV,2023,04,19,00,00,METAR MRPV 190000Z 10013KT 9999 SCT035 SCT200 22/16 A2998 NOSIG=
MRPV,2023,04,19,01,00,METAR MRPV NIL=
MRPV,2023,04,19,02,00,METAR MRPV NIL=
MRPV,2023,04,19,03,00,METAR MRPV NIL=
MRPV,2023,04,19,04,00,METAR MRPV NIL=
MRPV,2023,04,19,05,00,METAR MRPV NIL=
MRPV,2023,04,19,06,00,METAR MRPV NIL=
MRPV,2023,04,19,07,00,METAR MRPV NIL=
MRPV,2023,04,19,08,00,METAR MRPV NIL=
MRPV,2023,04,19,09,00,METAR MRPV NIL=
MRPV,2023,04,19,10,00,METAR MRPV NIL=
MRPV,2023,04,19,11,00,METAR MRPV NIL=
MRPV,2023,04,19,12,00,METAR MRPV 191200Z 13009KT 9999 FEW030 BKN250 18/14 A3001 NOSIG=
MRPV,2023,04,19,13,00,METAR MRPV 191300Z 11011KT 9999 FEW030 BKN200 21/14 A3003 NOSIG=
MRPV,2023,04,19,14,00,METAR MRPV 191400Z 09015KT 9999 FEW030 BKN200 21/15 A3006 NOSIG=
MRPV,2023,04,19,15,00,METAR MRPV 191500Z 09015KT 9999 FEW040 BKN200 23/16 A3007 NOSIG=
MRPV,2023,04,19,16,00,METAR MRPV 191600Z 08012KT 9999 FEW035 25/15 A3007 NOSIG=
MRPV,2023,04,19,17,00,METAR MRPV 191700Z 09012KT 9999 FEW035 26/15 A3005 NOSIG=
MRPV,2023,04,19,18,00,METAR MRPV 191800Z 09011KT 9999 FEW045 27/15 A3002 NOSIG=
MRPV,2023,04,19,19,00,METAR MRPV 191900Z 08014KT 9999 FEW045 27/15 A2999 NOSIG=
MRPV,2023,04,19,20,00,METAR MRPV 192000Z 08015KT 9999 FEW045 27/15 A2997 NOSIG=
MRPV,2023,04,19,21,00,METAR MRPV 192100Z 09014KT 9999 FEW045 27/15 A2995 NOSIG=
MRPV,2023,04,19,22,00,METAR MRPV 192200Z 09014KT 9999 FEW045 26/16 A2995 NOSIG=
MRPV,2023,04,19,23,00,METAR MRPV 192300Z 08016KT 9999 FEW045 25/15 A2997 NOSIG=
MRPV,2023,04,20,00,00,METAR MRPV 200000Z 10011KT 9999 FEW045 23/16 A2999 NOSIG=
MRPV,2023,04,20,01,00,METAR MRPV NIL=
MRPV,2023,04,20,02,00,METAR MRPV NIL=
MRPV,2023,04,20,03,00,METAR MRPV NIL=
MRPV,2023,04,20,04,00,METAR MRPV NIL=
MRPV,2023,04,20,05,00,METAR MRPV NIL=
MRPV,2023,04,20,06,00,METAR MRPV NIL=
MRPV,2023,04,20,07,00,METAR MRPV NIL=
MRPV,2023,04,20,08,00,METAR MRPV NIL=
MRPV,2023,04,20,09,00,METAR MRPV NIL=
MRPV,2023,04,20,10,00,METAR MRPV NIL=
MRPV,2023,04,20,11,00,METAR MRPV NIL=
MRPV,2023,04,20,12,00,METAR MRPV 201200Z 12010KT 9999 FEW040 19/13 A3007 NOSIG=
MRPV,2023,04,20,13,00,METAR MRPV 201300Z 12011KT CAVOK 21/14 A3009 NOSIG=
MRPV,2023,04,20,14,00,METAR MRPV 201400Z 11009KT CAVOK 23/13 A3010 NOSIG=
MRPV,2023,04,20,15,00,METAR MRPV 201500Z 08013KT CAVOK 24/14 A3010 NOSIG=
MRPV,2023,04,20,16,00,METAR MRPV 201600Z 08013KT CAVOK 26/14 A3008 NOSIG=
MRPV,2023,04,20,17,00,METAR MRPV 201700Z 08010KT CAVOK 27/14 A3007 NOSIG=
MRPV,2023,04,20,18,00,METAR MRPV 201800Z 09012KT CAVOK 28/12 A3005 NOSIG=
MRPV,2023,04,20,19,00,METAR MRPV 201900Z 08011KT 9999 FEW045 BKN220 28/15 A3004 NOSIG=
MRPV,2023,04,20,20,00,METAR MRPV 202000Z 09010KT 9999 FEW040 BKN250 28/15 A3002 NOSIG=
MRPV,2023,04,20,21,00,METAR MRPV 202100Z 10009KT 9999 FEW035 SCT250 27/15 A3000 NOSIG=
MRPV,2023,04,20,22,00,METAR MRPV 202200Z 10008KT 9999 SCT035 SCT250 26/16 A2999 NOSIG=
MRPV,2023,04,20,23,00,METAR MRPV 202300Z 08009KT 9999 BKN035 SCT250 24/17 A3000 NOSIG=
MRPV,2023,04,21,00,00,METAR MRPV 210000Z 10008KT 9999 SCT030 SCT250 22/17 A3003 NOSIG=
MRPV,2023,04,21,01,00,METAR MRPV NIL=
MRPV,2023,04,21,02,00,METAR MRPV NIL=
MRPV,2023,04,21,03,00,METAR MRPV NIL=
MRPV,2023,04,21,04,00,METAR MRPV NIL=
MRPV,2023,04,21,05,00,METAR MRPV NIL=
MRPV,2023,04,21,06,00,METAR MRPV NIL=
MRPV,2023,04,21,07,00,METAR MRPV NIL=
MRPV,2023,04,21,08,00,METAR MRPV NIL=
MRPV,2023,04,21,09,00,METAR MRPV NIL=
MRPV,2023,04,21,10,00,METAR MRPV NIL=
MRPV,2023,04,21,11,00,METAR MRPV NIL=
MRPV,2023,04,21,12,00,METAR MRPV 211200Z 08003KT CAVOK 18/14 A3005 NOSIG=
MRPV,2023,04,21,13,00,METAR MRPV 211300Z 15002KT CAVOK 20/15 A3007 NOSIG=
MRPV,2023,04,21,14,00,METAR MRPV 211400Z 07004KT 9999 FEW045 BKN220 23/15 A3009 NOSIG=
MRPV,2023,04,21,15,00,METAR MRPV 211500Z VRB02KT 9999 FEW045 SCT220 25/15 A3009 NOSIG=
MRPV,2023,04,21,16,00,METAR MRPV 211600Z 30006KT 9999 FEW045 SCT250 26/16 A3008 NOSIG=
MRPV,2023,04,21,17,00,METAR MRPV 211700Z 29007KT 9999 FEW045 SCT250 28/14 A3006 NOSIG=
MRPV,2023,04,21,18,00,METAR MRPV 211800Z 26008KT 9999 FEW045 SCT200 28/17 A3004 NOSIG=
MRPV,2023,04,21,19,00,METAR MRPV 211900Z 26007KT 9999 SCT040 BKN200 29/16 A3001 NOSIG=
MRPV,2023,04,21,20,00,METAR MRPV 212000Z 25008KT 9999 FEW035 BKN200 27/17 A2999 NOSIG=
MRPV,2023,04,21,21,00,METAR MRPV 212100Z 27008KT 9999 SCT035 BKN200 27/17 A2997 NOSIG=
MRPV,2023,04,21,22,00,METAR MRPV 212200Z 25006KT 9999 SCT035 BKN200 26/17 A2998 NOSIG=
MRPV,2023,04,21,23,00,METAR MRPV 212300Z 28008KT 9999 VCSH SCT035 BKN200 24/18 A2999 NOSIG=
MRPV,2023,04,22,00,00,METAR MRPV 220000Z 25004KT 9999 VCSH SCT035 BKN200 23/18 A3001 NOSIG=
MRPV,2023,04,22,01,00,METAR MRPV NIL=
MRPV,2023,04,22,02,00,METAR MRPV NIL=
MRPV,2023,04,22,03,00,METAR MRPV NIL=
MRPV,2023,04,22,04,00,METAR MRPV NIL=
MRPV,2023,04,22,05,00,METAR MRPV NIL=
MRPV,2023,04,22,06,00,METAR MRPV NIL=
MRPV,2023,04,22,07,00,METAR MRPV NIL=
MRPV,2023,04,22,08,00,METAR MRPV NIL=
MRPV,2023,04,22,09,00,METAR MRPV NIL=
MRPV,2023,04,22,10,00,METAR MRPV NIL=
MRPV,2023,04,22,11,00,METAR MRPV NIL=
MRPV,2023,04,22,12,00,METAR MRPV 221200Z 10006KT CAVOK 20/15 A3002 NOSIG=
MRPV,2023,04,22,13,00,METAR MRPV 221300Z 14007KT CAVOK 23/15 A3003 NOSIG=
MRPV,2023,04,22,14,00,METAR MRPV 221400Z 12009KT CAVOK 25/15 A3003 NOSIG=
MRPV,2023,04,22,15,00,METAR MRPV 221500Z 10010KT CAVOK 27/11 A3003 NOSIG=
MRPV,2023,04,22,16,00,METAR MRPV 221600Z 08011KT 9999 FEW045 BKN250 28/13 A3002 NOSIG=
MRPV,2023,04,22,17,00,METAR MRPV 221700Z 09009KT 9999 FEW045 SCT250 28/13 A3001 NOSIG=
MRPV,2023,04,22,18,00,METAR MRPV 221800Z 10010KT 9999 SCT045 SCT250 30/14 A2999 BECMG 28008KT=
MRPV,2023,04,22,18,23,SPECI MRPV 221823Z 34005KT 9999 FEW030 BKN250 27/18 A2999 NOSIG=
MRPV,2023,04,22,19,00,METAR MRPV 221900Z 29008KT 190V290 9999 FEW030 BKN250 28/18 A2997 NOSIG=
MRPV,2023,04,22,20,00,METAR MRPV 222000Z 28014KT 9999 VCSH SCT020TCU BKN250 27/19 A2995 NOSIG=
MRPV,2023,04,22,20,15,SPECI MRPV 222015Z 28010KT 9999 TSRA BKN020CB 26/15 A2997 NOSIG=
MRPV,2023,04,22,20,27,SPECI MRPV 222027Z 35012G31KT 9999 TSRA BKN015CB 23/13 A2997 NOSIG=
MRPV,2023,04,22,21,00,METAR MRPV 222100Z 29007KT 9999 3000SW TSRA SCT015CB BKN045 21/16 A2998 NOSIG=
MRPV,2023,04,22,21,13,SPECI MRPV 222113Z 25003KT 9999 -RA SCT015 BKN045 19/17 A2996 RETS NOSIG=
MRPV,2023,04,22,22,00,METAR MRPV 222200Z 03002KT 9999 FEW020 BKN150 22/17 A2997 RERA NOSIG=
MRPV,2023,04,22,23,00,METAR MRPV 222300Z VRB01KT 040V110 CAVOK 23/17 A2998 NOSIG=
MRPV,2023,04,23,00,00,METAR MRPV 230000Z VRB01KT 130V210 9999 FEW040 BKN160 22/18 A2999 NOSIG=
MRPV,2023,04,23,01,00,METAR MRPV NIL=
MRPV,2023,04,23,02,00,METAR MRPV NIL=
MRPV,2023,04,23,03,00,METAR MRPV NIL=
MRPV,2023,04,23,04,00,METAR MRPV NIL=
MRPV,2023,04,23,05,00,METAR MRPV NIL=
MRPV,2023,04,23,06,00,METAR MRPV NIL=
MRPV,2023,04,23,07,00,METAR MRPV NIL=
MRPV,2023,04,23,08,00,METAR MRPV NIL=
MRPV,2023,04,23,09,00,METAR MRPV NIL=
MRPV,2023,04,23,10,00,METAR MRPV NIL=
MRPV,2023,04,23,11,00,METAR MRPV NIL=
MRPV,2023,04,23,12,00,METAR MRPV 231200Z 11003KT CAVOK 16/12 A3003 NOSIG=
MRPV,2023,04,23,13,00,METAR MRPV 231300Z 08005KT CAVOK 20/12 A3004 NOSIG=
MRPV,2023,04,23,14,00,METAR MRPV 231400Z 35001KT CAVOK 24/12 A3005 NOSIG=
MRPV,2023,04,23,15,00,METAR MRPV 231500Z 11004KT CAVOK 27/09 A3005 NOSIG=
MRPV,2023,04,23,16,00,METAR MRPV COR 231600Z 28005KT 090V280 9999 FEW035 28/13 A3004 NOSIG=
MRPV,2023,04,23,17,00,METAR MRPV 231700Z 32005KT 9999 FEW035 SCT200 28/16 A3003 NOSIG=
MRPV,2023,04,23,18,00,METAR MRPV 231800Z 28008KT 9999 SCT040 SCT220 27/16 A3001 NOSIG=
MRPV,2023,04,23,19,00,METAR MRPV 231900Z 26010KT 9999 SCT030 27/18 A2999 NOSIG=
MRPV,2023,04,23,20,00,METAR MRPV 232000Z 26009KT 9999 SCT030 27/18 A2998 NOSIG=
MRPV,2023,04,23,21,00,METAR MRPV 232100Z 28011KT 9999 VCSH SCT020TCU 27/19 A2997 NOSIG=
MRPV,2023,04,23,22,00,METAR MRPV 232200Z 27007KT 9999 VCSH BKN020TCU 24/19 A2998 NOSIG=
MRPV,2023,04,23,23,00,METAR MRPV 232300Z 27003KT 9999 VCSH SCT015TCU BKN030 24/19 A2999 NOSIG=
MRPV,2023,04,23,23,26,SPECI MRPV 232326Z VRB02KT 9999 3000N RA SCT020 BKN050 23/19 A3000 NOSIG=
MRPV,2023,04,24,00,00,METAR MRPV 240000Z 32006KT 040V320 9999 -RA BKN020 21/19 A3000 NOSIG=
MRPV,2023,04,24,01,00,METAR MRPV NIL=
MRPV,2023,04,24,02,00,METAR MRPV NIL=
MRPV,2023,04,24,03,00,METAR MRPV NIL=
MRPV,2023,04,24,04,00,METAR MRPV NIL=
MRPV,2023,04,24,05,00,METAR MRPV NIL=
MRPV,2023,04,24,06,00,METAR MRPV NIL=
MRPV,2023,04,24,07,00,METAR MRPV NIL=
MRPV,2023,04,24,08,00,METAR MRPV NIL=
MRPV,2023,04,24,09,00,METAR MRPV NIL=
MRPV,2023,04,24,10,00,METAR MRPV NIL=
MRPV,2023,04,24,11,00,METAR MRPV NIL=
MRPV,2023,04,24,12,00,METAR MRPV 241200Z 09006KT CAVOK 17/14 A3005 NOSIG=
MRPV,2023,04,24,13,00,METAR MRPV 241300Z 09006KT CAVOK 20/16 A3007 NOSIG=
MRPV,2023,04,24,14,00,METAR MRPV 241400Z 06003KT 9999 FEW040 23/16 A3009 NOSIG=
MRPV,2023,04,24,15,00,METAR MRPV 241500Z 01002KT CAVOK 25/15 A3008 BECMG 29005KT=
MRPV,2023,04,24,16,00,METAR MRPV 241600Z 31005KT 9999 FEW045 26/16 A3007 NOSIG=
MRPV,2023,04,24,17,00,METAR MRPV 241700Z 28007KT 9999 FEW035 27/16 A3006 NOSIG=
MRPV,2023,04,24,18,00,METAR MRPV 241800Z 28010G20KT 9999 FEW035 27/17 A3004 NOSIG=
MRPV,2023,04,24,19,00,METAR MRPV 241900Z 25008KT 9999 FEW035 27/17 A3001 NOSIG=
MRPV,2023,04,24,20,00,METAR MRPV 242000Z 29011KT 9999 FEW035 SCT200 28/17 A2998 NOSIG=
MRPV,2023,04,24,21,00,METAR MRPV 242100Z 28010KT 9999 FEW035 BKN200 28/18 A2997 NOSIG=
MRPV,2023,04,24,22,00,METAR MRPV 242200Z 28009KT 9999 FEW035 BKN200 27/19 A2996 NOSIG=
MRPV,2023,04,24,23,00,METAR MRPV 242300Z 29013KT 9999 SCT030 25/20 A2998 NOSIG=
MRPV,2023,04,25,00,00,METAR MRPV 250000Z 29008KT 9999 SCT025 SCT200 23/21 A3001 NOSIG=
MRPV,2023,04,25,01,00,METAR MRPV NIL=
MRPV,2023,04,25,02,00,METAR MRPV NIL=
MRPV,2023,04,25,03,00,METAR MRPV NIL=
MRPV,2023,04,25,04,00,METAR MRPV NIL=
MRPV,2023,04,25,05,00,METAR MRPV NIL=
MRPV,2023,04,25,06,00,METAR MRPV NIL=
MRPV,2023,04,25,07,00,METAR MRPV NIL=
MRPV,2023,04,25,08,00,METAR MRPV NIL=
MRPV,2023,04,25,09,00,METAR MRPV NIL=
MRPV,2023,04,25,10,00,METAR MRPV NIL=
MRPV,2023,04,25,11,00,METAR MRPV NIL=
MRPV,2023,04,25,12,00,METAR MRPV 251200Z 08004KT CAVOK 19/16 A3003 NOSIG=
MRPV,2023,04,25,13,00,METAR MRPV 251300Z 13005KT CAVOK 22/17 A3005 NOSIG=
MRPV,2023,04,25,14,00,METAR MRPV 251400Z 13008KT CAVOK 25/16 A3006 NOSIG=
MRPV,2023,04,25,15,00,METAR MRPV 251500Z 11009KT 9999 FEW040 26/15 A3006 BECMG 29005KT=
MRPV,2023,04,25,16,00,METAR MRPV 251600Z 13008KT 9999 FEW030 28/15 A3005 NOSIG=
MRPV,2023,04,25,16,15,SPECI MRPV 251615Z 29008KT 9999 FEW030 26/17 A3006 NOSIG=
MRPV,2023,04,25,17,00,METAR MRPV 251700Z 29008KT 9999 FEW030 27/18 A3005 NOSIG=
MRPV,2023,04,25,18,00,METAR MRPV 251800Z 28007KT 9999 FEW030 28/18 A3003 NOSIG=
MRPV,2023,04,25,18,39,SPECI MRPV 251839Z 14005KT 9999 140V280 SCT030 SCT200 28/14 A3001 NOSIG=
MRPV,2023,04,25,19,00,METAR MRPV COR 251900Z 09011KT 9999 RA SCT030 SCT200 27/14 A3000 NOSIG=
MRPV,2023,04,25,19,18,SPECI MRPV 251918Z 07012KT 9999 3000N SHRA FEW025TCU SCT030 25/15 A3001 NOSIG=
MRPV,2023,04,25,19,40,SPECI MRPV 251940Z 33007KT 9999 3000NW SHRA VCTS FEW025CB SCT030TCU 22/15 A3001 NOSIG=
MRPV,2023,04,25,20,00,METAR MRPV 252000Z 31008KT 9999 SHRA FEW025TCU SCT030 21/17 A3001 NOSIG=
MRPV,2023,04,25,21,00,METAR MRPV 252100Z VRB02KT 9999 FEW030 BKN120 25/15 A2998 RESHRA NOSIG=
MRPV,2023,04,25,22,00,METAR MRPV 252200Z 08010KT 9999 FEW030 BKN120 25/15 A2998 RESHRA NOSIG=
MRPV,2023,04,25,23,00,METAR MRPV 252300Z 09011KT 9999 FEW040 BKN200 24/15 A2998 NOSIG=
MRPV,2023,04,26,00,00,METAR MRPV 260000Z 09011KT 9999 FEW040 BKN200 23/16 A3001 NOSIG=
MRPV,2023,04,26,01,00,METAR MRPV NIL=
MRPV,2023,04,26,02,00,METAR MRPV NIL=
MRPV,2023,04,26,03,00,METAR MRPV NIL=
MRPV,2023,04,26,04,00,METAR MRPV NIL=
MRPV,2023,04,26,05,00,METAR MRPV NIL=
MRPV,2023,04,26,06,00,METAR MRPV NIL=
MRPV,2023,04,26,07,00,METAR MRPV NIL=
MRPV,2023,04,26,08,00,METAR MRPV NIL=
MRPV,2023,04,26,09,00,METAR MRPV NIL=
MRPV,2023,04,26,10,00,METAR MRPV NIL=
MRPV,2023,04,26,11,00,METAR MRPV NIL=
MRPV,2023,04,26,12,00,METAR MRPV 261200Z 08005KT CAVOK 16/10 A3006 NOSIG=
MRPV,2023,04,26,13,00,METAR MRPV 261300Z 10003KT CAVOK 21/12 A3007 NOSIG=
MRPV,2023,04,26,14,00,METAR MRPV 261400Z 12004KT CAVOK 25/11 A3008 NOSIG=
MRPV,2023,04,26,15,00,METAR MRPV 261500Z 32003KT CAVOK 26/13 A3008 NOSIG=
MRPV,2023,04,26,16,00,METAR MRPV 261600Z 29006KT CAVOK 27/15 A3007 NOSIG=
MRPV,2023,04,26,17,00,METAR MRPV 261700Z 32005KT CAVOK 28/14 A3005 NOSIG=
MRPV,2023,04,26,18,00,METAR MRPV 261800Z 29007KT CAVOK 28/15 A3003 NOSIG=
MRPV,2023,04,26,19,00,METAR MRPV 261900Z 26008KT 9999 FEW045 BKN180 26/18 A3001 NOSIG=
MRPV,2023,04,26,20,00,METAR MRPV 262000Z 27008KT 9999 SCT040 BKN200 26/18 A2999 NOSIG=
MRPV,2023,04,26,21,00,METAR MRPV 262100Z 27009KT 9999 SCT035 BKN200 27/19 A2997 NOSIG=
MRPV,2023,04,26,22,00,METAR MRPV 262200Z 27008KT 9999 SCT035 BKN200 25/19 A2997 NOSIG=
MRPV,2023,04,26,23,00,METAR MRPV 262300Z 28010KT 9999 SCT030 BKN200 24/19 A2998 NOSIG=
MRPV,2023,04,27,00,00,METAR MRPV 270000Z 30006KT 9999 FEW020 BKN040 22/20 A3001 NOSIG=
MRPV,2023,04,27,01,00,METAR MRPV NIL=
MRPV,2023,04,27,02,00,METAR MRPV NIL=
MRPV,2023,04,27,03,00,METAR MRPV NIL=
MRPV,2023,04,27,04,00,METAR MRPV NIL=
MRPV,2023,04,27,05,00,METAR MRPV NIL=
MRPV,2023,04,27,06,00,METAR MRPV NIL=
MRPV,2023,04,27,07,00,METAR MRPV NIL=
MRPV,2023,04,27,08,00,METAR MRPV NIL=
MRPV,2023,04,27,09,00,METAR MRPV NIL=
MRPV,2023,04,27,10,00,METAR MRPV NIL=
MRPV,2023,04,27,11,00,METAR MRPV NIL=
MRPV,2023,04,27,12,00,METAR MRPV 271200Z 08005KT CAVOK 17/13 A3004 NOSIG=
MRPV,2023,04,27,13,00,METAR MRPV 271300Z 09007KT CAVOK 20/14 A3005 NOSIG=
MRPV,2023,04,27,14,00,METAR MRPV 271400Z 05002KT CAVOK 24/15 A3007 NOSIG=
MRPV,2023,04,27,14,48,SPECI MRPV 271448Z 29003KT 290V210 CAVOK 26/16 A3007 NOSIG=
MRPV,2023,04,27,15,00,METAR MRPV 271500Z 30003KT CAVOK 26/16 A3007 NOSIG=
MRPV,2023,04,27,16,00,METAR MRPV 271600Z 30006KT 9999 FEW045 27/16 A3006 NOSIG=
MRPV,2023,04,27,17,00,METAR MRPV 271700Z 29009KT 9999 FEW045 28/15 A3004 NOSIG=
MRPV,2023,04,27,18,00,METAR MRPV 271800Z 29010KT 9999 FEW040 28/16 A3003 NOSIG=
MRPV,2023,04,27,19,00,METAR MRPV 271900Z 27009KT 9999 SCT045 28/17 A3000 NOSIG=
MRPV,2023,04,27,20,00,METAR MRPV 272000Z 27008KT 9999 SCT040 28/18 A2998 NOSIG=
MRPV,2023,04,27,21,00,METAR MRPV 272100Z 26010KT 9999 SCT030 27/18 A2997 NOSIG=
MRPV,2023,04,27,22,00,METAR MRPV 272200Z 28011KT 9999 SCT030 25/20 A2996 NOSIG=
MRPV,2023,04,27,23,00,METAR MRPV 272300Z 28007KT 9999 SCT025 SCT120 25/19 A2997 NOSIG=
MRPV,2023,04,28,00,00,METAR MRPV 280000Z 27005KT 9999 FEW025 BKN070 23/18 A3000 NOSIG=
MRPV,2023,04,28,01,00,METAR MRPV NIL=
MRPV,2023,04,28,02,00,METAR MRPV NIL=
MRPV,2023,04,28,03,00,METAR MRPV NIL=
MRPV,2023,04,28,04,00,METAR MRPV NIL=
MRPV,2023,04,28,05,00,METAR MRPV NIL=
MRPV,2023,04,28,06,00,METAR MRPV NIL=
MRPV,2023,04,28,07,00,METAR MRPV NIL=
MRPV,2023,04,28,08,00,METAR MRPV NIL=
MRPV,2023,04,28,09,00,METAR MRPV NIL=
MRPV,2023,04,28,10,00,METAR MRPV NIL=
MRPV,2023,04,28,11,00,METAR MRPV NIL=
MRPV,2023,04,28,12,00,METAR MRPV 281200Z 09003KT CAVOK 21/18 A3004 NOSIG=
MRPV,2023,04,28,13,00,METAR MRPV 281300Z VRB01KT CAVOK 22/18 A3007 NOSIG=
MRPV,2023,04,28,14,00,METAR MRPV 281400Z 14002KT 9999 FEW035 SCT110 25/17 A3009 NOSIG=
MRPV,2023,04,28,15,00,METAR MRPV 281500Z 32003KT 9999 FEW035 SCT050 26/18 A3010 NOSIG=
MRPV,2023,04,28,16,00,METAR MRPV 281600Z 28007KT 9999 SCT045 SCT200 27/18 A3008 NOSIG=
MRPV,2023,04,28,17,00,METAR MRPV 281700Z 28009KT 9999 SCT035 SCT220 27/18 A3007 NOSIG=
MRPV,2023,04,28,18,00,METAR MRPV 281800Z 28010KT 9999 SCT030 BKN220 28/18 A3003 NOSIG=
MRPV,2023,04,28,19,00,METAR MRPV 281900Z 27010KT 9999 SCT030 BKN250 28/19 A3000 NOSIG=
MRPV,2023,04,28,20,00,METAR MRPV 282000Z 28007KT 9999 SCT030TCU BKN250 27/18 A2998 NOSIG=
MRPV,2023,04,28,21,00,METAR MRPV 282100Z 28012KT 9999 SCT030TCU BKN220 26/20 A2998 NOSIG=
MRPV,2023,04,28,22,00,METAR MRPV 282200Z 27009KT 9999 BKN020 24/20 A2999 NOSIG=
MRPV,2023,04,28,23,00,METAR MRPV 282300Z 27005KT 9999 SCT015 BKN040 23/20 A3001 NOSIG=
MRPV,2023,04,29,00,00,METAR MRPV 290000Z 28006KT 9999 SCT020 BKN100 22/19 A3003 NOSIG=
MRPV,2023,04,29,01,00,METAR MRPV NIL=
MRPV,2023,04,29,02,00,METAR MRPV NIL=
MRPV,2023,04,29,03,00,METAR MRPV NIL=
MRPV,2023,04,29,04,00,METAR MRPV NIL=
MRPV,2023,04,29,05,00,METAR MRPV NIL=
MRPV,2023,04,29,06,00,METAR MRPV NIL=
MRPV,2023,04,29,07,00,METAR MRPV NIL=
MRPV,2023,04,29,08,00,METAR MRPV NIL=
MRPV,2023,04,29,09,00,METAR MRPV NIL=
MRPV,2023,04,29,10,00,METAR MRPV NIL=
MRPV,2023,04,29,11,00,METAR MRPV NIL=
MRPV,2023,04,29,12,00,METAR MRPV 291200Z 10003KT CAVOK 21/18 A3006 NOSIG=
MRPV,2023,04,29,13,00,METAR MRPV 291300Z 30003KT 300V360 CAVOK 21/18 A3008 NOSIG=
MRPV,2023,04,29,14,00,METAR MRPV 291400Z 31003KT CAVOK 23/18 A3009 NOSIG=
MRPV,2023,04,29,15,00,METAR MRPV 291500Z VRB02KT CAVOK 26/17 A3009 NOSIG=
MRPV,2023,04,29,16,00,METAR MRPV 291600Z 30006KT 9999 FEW030 BKN200 25/18 A3009 NOSIG=
MRPV,2023,04,29,17,00,METAR MRPV 291700Z 30006KT 9999 FEW040 BKN200 28/18 A3006 NOSIG=
MRPV,2023,04,29,18,00,METAR MRPV 291800Z 29010KT 9999 FEW040 BKN250 28/18 A3005 NOSIG=
MRPV,2023,04,29,19,00,METAR MRPV 291900Z 27009KT 9999 FEW025TCU SCT070 BKN220 27/18 A3002 NOSIG=
MRPV,2023,04,29,20,00,METAR MRPV 292000Z 28010KT 9999 VCSH SCT025TCU BKN090 26/20 A3000 TEMPO SHRA=
MRPV,2023,04,29,20,07,SPECI MRPV 292007Z 26009KT 9999 TSRA SCT025CB BKN090 25/21 A3000 NOSIG=
MRPV,2023,04,29,20,50,SPECI MRPV 292050Z 35009KT 9999 3000E TSRA FEW007 BKN010CB 22/18 A3001 NOSIG=
MRPV,2023,04,29,21,00,METAR MRPV 292100Z 35005KT 1500 +RA FEW005 BKN010 22/19 A3001 RETSRA NOSIG=
MRPV,2023,04,29,21,29,SPECI MRPV 292129Z 10004KT 4000 RA BR VCTS SCT010CB BKN100 20/20 A3002 NOSIG=
MRPV,2023,04,29,21,39,SPECI MRPV 292139Z VRB02KT 9999 4000W -TSRA SCT008CB BKN100 20/20 A3002 NOSIG=
MRPV,2023,04,29,22,00,METAR MRPV 292200Z 26003KT 180V260 8000 3000W -TSRA SCT010CB BKN090 20/20 A3003 NOSIG=
MRPV,2023,04,29,22,16,SPECI MRPV 292216Z VRB01KT 9999 -RA VCTS FEW004 SCT015CB BKN090 20/20 A3004 NOSIG=
MRPV,2023,04,29,23,00,METAR MRPV 292300Z 33003KT 5000 -RA BR SCT010 BKN090 20/20 A3005 NOSIG=
MRPV,2023,04,29,23,20,SPECI MRPV 292320Z 30005KT 4500 -RA BR BKN010 SCT070 20/20 A3007 NOSIG=
MRPV,2023,04,30,00,00,METAR MRPV 300000Z 32003KT 5000 -RA BR BKN010 20/20 A3008 NOSIG=
MRPV,2023,04,30,01,00,METAR MRPV NIL=
MRPV,2023,04,30,02,00,METAR MRPV NIL=
MRPV,2023,04,30,03,00,METAR MRPV NIL=
MRPV,2023,04,30,04,00,METAR MRPV NIL=
MRPV,2023,04,30,05,00,METAR MRPV NIL=
MRPV,2023,04,30,06,00,METAR MRPV NIL=
MRPV,2023,04,30,07,00,METAR MRPV NIL=
MRPV,2023,04,30,08,00,METAR MRPV NIL=
MRPV,2023,04,30,09,00,METAR MRPV NIL=
MRPV,2023,04,30,10,00,METAR MRPV NIL=
MRPV,2023,04,30,11,00,METAR MRPV NIL=
MRPV,2023,04,30,12,00,METAR MRPV 301200Z 14008KT 9999 FEW035 BKN110 21/18 A3007 NOSIG=
MRPV,2023,04,30,13,00,METAR MRPV 301300Z 10009KT 9999 FEW035 SCT100 22/18 A3010 NOSIG=
MRPV,2023,04,30,14,00,METAR MRPV 301400Z 12007KT 9999 FEW035 SCT200 24/17 A3011 NOSIG=
MRPV,2023,04,30,15,00,METAR MRPV 301500Z 12010KT 9999 FEW045 SCT120 26/17 A3010 NOSIG=
MRPV,2023,04,30,16,00,METAR MRPV 301600Z 12008KT 9999 FEW045 BKN120 27/17 A3010 NOSIG=
MRPV,2023,04,30,17,00,METAR MRPV 301700Z 09014KT 9999 FEW045 BKN120 28/16 A3008 NOSIG=
MRPV,2023,04,30,18,00,METAR MRPV 301800Z 09013KT 9999 FEW045 SCT140 29/13 A3005 NOSIG=
MRPV,2023,04,30,19,00,METAR MRPV 301900Z 08011KT 9999 SCT035 30/13 A3001 NOSIG=
MRPV,2023,04,30,19,40,SPECI MRPV 301940Z 28010KT 280V080 9999 SCT035 27/21 A3000 NOSIG=
MRPV,2023,04,30,20,00,METAR MRPV 302000Z 28008KT 9999 FEW025TCU SCT035 26/21 A2999 NOSIG=
MRPV,2023,04,30,20,44,SPECI MRPV 302044Z 28010KT 9999 4000N SHRA VCTS SCT020CB SCT030 27/21 A2999 NOSIG=
MRPV,2023,04,30,21,00,METAR MRPV 302100Z 28012KT 9999 2000NW +SHRA VCTS SCT015CB SCT025 26/21 A2998 NOSIG=
MRPV,2023,04,30,21,06,SPECI MRPV 302106Z 31011KT 3000 TSRA +SHRA SCT015CB SCT025 23/18 A3000 NOSIG=
MRPV,2023,04,30,21,11,SPECI MRPV COR 302111Z 31011KT 0500 TSRA +SHRA BKN010CB SCT025 22/19 A3001 NOSIG=
MRPV,2023,04,30,21,34,SPECI MRPV 302134Z 31007KT 9999 2500W TSRA -RA SCT010CB SCT040 20/18 A3000 RESHRA NOSIG=
MRPV,2023,04,30,22,00,METAR MRPV 302200Z 21003KT 9999 -TSRA FEW015CB SCT030 BKN100 19/18 A3001 NOSIG=
MRPV,2023,04,30,23,00,METAR MRPV 302300Z 11002KT 9999 SCT030 BKN100 21/21 A3001 RETSRA NOSIG=
