MRPV,2025,03,01,00,00,METAR MRPV 010000Z 09015KT 9999 SCT035 22/16 A3000 NOSIG=
MRPV,2025,03,01,01,00,METAR MRPV NIL=
MRPV,2025,03,01,02,00,METAR MRPV NIL=
MRPV,2025,03,01,03,00,METAR MRPV NIL=
MRPV,2025,03,01,04,00,METAR MRPV NIL=
MRPV,2025,03,01,05,00,METAR MRPV NIL=
MRPV,2025,03,01,06,00,METAR MRPV NIL=
MRPV,2025,03,01,07,00,METAR MRPV NIL=
MRPV,2025,03,01,08,00,METAR MRPV NIL=
MRPV,2025,03,01,09,00,METAR MRPV NIL=
MRPV,2025,03,01,10,00,METAR MRPV NIL=
MRPV,2025,03,01,11,00,METAR MRPV NIL=
MRPV,2025,03,01,12,00,METAR MRPV 011200Z 12009KT CAVOK 19/13 A3004 NOSIG=
MRPV,2025,03,01,13,00,METAR MRPV 011300Z 11011KT CAVOK 21/12 A3006 NOSIG=
MRPV,2025,03,01,14,00,METAR MRPV 011400Z 10014KT CAVOK 22/12 A3007 NOSIG=
MRPV,2025,03,01,15,00,METAR MRPV 011500Z 08014KT CAVOK 24/12 A3008 NOSIG=
MRPV,2025,03,01,16,00,METAR MRPV 011600Z 08016KT CAVOK 25/13 A3009 NOSIG=
MRPV,2025,03,01,17,00,METAR MRPV 011700Z 06013KT CAVOK 27/13 A3006 NOSIG=
MRPV,2025,03,01,18,00,METAR MRPV 011800Z 08014KT 9999 FEW045 27/13 A3003 NOSIG=
MRPV,2025,03,01,19,00,METAR MRPV 011900Z 07012KT 9999 FEW030 27/13 A3001 NOSIG=
MRPV,2025,03,01,20,00,METAR MRPV 012000Z 09013KT 9999 FEW045 28/14 A2998 NOSIG=
MRPV,2025,03,01,21,00,METAR MRPV 012100Z 09012KT 9999 FEW040 28/14 A2997 NOSIG=
MRPV,2025,03,01,22,00,METAR MRPV 012200Z 09017KT 9999 FEW040 26/15 A2996 NOSIG=
MRPV,2025,03,01,23,00,METAR MRPV 012300Z 08016KT 9999 FEW045 24/15 A2997 NOSIG=
MRPV,2025,03,02,00,00,METAR MRPV 020000Z 10013KT 9999 FEW040 23/15 A2999 NOSIG=
MRPV,2025,03,02,01,00,METAR MRPV NIL=
MRPV,2025,03,02,02,00,METAR MRPV NIL=
MRPV,2025,03,02,03,00,METAR MRPV NIL=
MRPV,2025,03,02,04,00,METAR MRPV NIL=
MRPV,2025,03,02,05,00,METAR MRPV NIL=
MRPV,2025,03,02,06,00,METAR MRPV NIL=
MRPV,2025,03,02,07,00,METAR MRPV NIL=
MRPV,2025,03,02,08,00,METAR MRPV NIL=
MRPV,2025,03,02,09,00,METAR MRPV NIL=
MRPV,2025,03,02,10,00,METAR MRPV NIL=
MRPV,2025,03,02,11,00,METAR MRPV NIL=
MRPV,2025,03,02,12,00,METAR MRPV 021200Z 12008KT 9999 FEW040 SCT070 19/15 A3006 NOSIG=
MRPV,2025,03,02,13,00,METAR MRPV 021300Z 11012KT 9999 FEW030 20/15 A3010 NOSIG=
MRPV,2025,03,02,14,00,METAR MRPV 021400Z 10013KT 9999 FEW030 21/15 A3010 NOSIG=
MRPV,2025,03,02,15,00,METAR MRPV 021500Z 10015KT 9999 SCT030 23/14 A3012 NOSIG=
MRPV,2025,03,02,16,00,METAR MRPV 021600Z 08016KT 9999 SCT040 23/14 A3012 NOSIG=
MRPV,2025,03,02,17,00,METAR MRPV 021700Z 10011KT 9999 BKN045 23/14 A3012 NOSIG=
MRPV,2025,03,02,18,00,METAR MRPV 021800Z 10012KT 9999 BKN035 24/14 A3010 NOSIG=
MRPV,2025,03,02,19,00,METAR MRPV 021900Z 09017G27KT 9999 SCT045 26/14 A3006 NOSIG=
MRPV,2025,03,02,20,00,METAR MRPV 022000Z 09016KT 9999 SCT045 26/13 A3004 NOSIG=
MRPV,2025,03,02,21,00,METAR MRPV 022100Z 08012KT 9999 FEW045 26/14 A3001 NOSIG=
MRPV,2025,03,02,22,00,METAR MRPV 022200Z 09015KT 9999 FEW045 26/14 A3001 NOSIG=
MRPV,2025,03,02,23,00,METAR MRPV 022300Z 09013KT 9999 FEW045 24/14 A3001 NOSIG=
MRPV,2025,03,03,00,00,METAR MRPV 030000Z 10012KT 9999 FEW045 23/15 A3003 NOSIG=
MRPV,2025,03,03,01,00,METAR MRPV NIL=
MRPV,2025,03,03,02,00,METAR MRPV NIL=
MRPV,2025,03,03,03,00,METAR MRPV NIL=
MRPV,2025,03,03,04,00,METAR MRPV NIL=
MRPV,2025,03,03,05,00,METAR MRPV NIL=
MRPV,2025,03,03,06,00,METAR MRPV NIL=
MRPV,2025,03,03,07,00,METAR MRPV NIL=
MRPV,2025,03,03,08,00,METAR MRPV NIL=
MRPV,2025,03,03,09,00,METAR MRPV NIL=
MRPV,2025,03,03,10,00,METAR MRPV NIL=
MRPV,2025,03,03,11,00,METAR MRPV NIL=
MRPV,2025,03,03,12,00,METAR MRPV 031200Z 13008KT CAVOK 18/14 A3005 NOSIG=
MRPV,2025,03,03,13,00,METAR MRPV 031300Z 11008KT CAVOK 20/14 A3007 NOSIG=
MRPV,2025,03,03,14,00,METAR MRPV 031400Z 12009KT CAVOK 22/14 A3008 NOSIG=
MRPV,2025,03,03,15,00,METAR MRPV 031500Z 09013KT CAVOK 24/13 A3009 NOSIG=
MRPV,2025,03,03,16,00,METAR MRPV 031600Z 08012KT CAVOK 26/14 A3009 NOSIG=
MRPV,2025,03,03,17,00,METAR MRPV 031700Z 07013KT CAVOK 27/14 A3007 NOSIG=
MRPV,2025,03,03,18,00,METAR MRPV 031800Z 06014KT CAVOK 27/14 A3004 NOSIG=
MRPV,2025,03,03,19,00,METAR MRPV 031900Z 08012KT 9999 FEW045 28/14 A3001 NOSIG=
MRPV,2025,03,03,20,00,METAR MRPV 032000Z 09013KT 9999 FEW045 29/15 A2998 NOSIG=
MRPV,2025,03,03,21,00,METAR MRPV 032100Z 08014KT 9999 FEW045 28/15 A2997 NOSIG=
MRPV,2025,03,03,22,00,METAR MRPV 032200Z 09013KT 9999 FEW045 27/15 A2996 NOSIG=
MRPV,2025,03,03,23,00,METAR MRPV 032300Z 10015KT 9999 FEW045 24/16 A2997 NOSIG=
MRPV,2025,03,04,00,00,METAR MRPV 040000Z 10012KT 9999 FEW045 23/16 A2998 NOSIG=
MRPV,2025,03,04,01,00,METAR MRPV NIL=
MRPV,2025,03,04,02,00,METAR MRPV NIL=
MRPV,2025,03,04,03,00,METAR MRPV NIL=
MRPV,2025,03,04,04,00,METAR MRPV NIL=
MRPV,2025,03,04,05,00,METAR MRPV NIL=
MRPV,2025,03,04,06,00,METAR MRPV NIL=
MRPV,2025,03,04,07,00,METAR MRPV NIL=
MRPV,2025,03,04,08,00,METAR MRPV NIL=
MRPV,2025,03,04,09,00,METAR MRPV NIL=
MRPV,2025,03,04,10,00,METAR MRPV NIL=
MRPV,2025,03,04,11,00,METAR MRPV NIL=
MRPV,2025,03,04,12,00,METAR MRPV 041200Z 13008KT CAVOK 19/12 A3004 NOSIG=
MRPV,2025,03,04,13,00,METAR MRPV 041300Z 12007KT CAVOK 20/12 A3006 NOSIG=
MRPV,2025,03,04,14,00,METAR MRPV 041400Z 11011KT CAVOK 23/12 A3007 NOSIG=
MRPV,2025,03,04,15,00,METAR MRPV 041500Z 08012KT CAVOK 25/12 A3008 NOSIG=
MRPV,2025,03,04,16,00,METAR MRPV 041600Z 07011KT CAVOK 26/12 A3007 NOSIG=
MRPV,2025,03,04,17,00,METAR MRPV 041700Z 07011KT CAVOK 27/14 A3006 NOSIG=
MRPV,2025,03,04,18,00,METAR MRPV 041800Z 08011KT 9999 FEW040 BKN220 27/14 A3004 NOSIG=
MRPV,2025,03,04,19,00,METAR MRPV 041900Z 09008KT 9999 FEW045 BKN200 27/14 A3002 NOSIG=
MRPV,2025,03,04,20,00,METAR MRPV 042000Z 08008KT 9999 FEW045 BKN200 28/14 A2998 BECMG 29006KT=
MRPV,2025,03,04,21,00,METAR MRPV 042100Z 09008KT 9999 FEW045 BKN200 27/15 A2996 NOSIG=
MRPV,2025,03,04,22,00,METAR MRPV 042200Z 28008KT 9999 FEW030 BKN250 27/18 A2996 NOSIG=
MRPV,2025,03,04,23,00,METAR MRPV 042300Z 28011KT 9999 SCT020TCU BKN060 24/19 A2998 NOSIG=
MRPV,2025,03,05,00,00,METAR MRPV 050000Z 26002KT 9999 BKN030 23/19 A3000 NOSIG=
MRPV,2025,03,05,01,00,METAR MRPV NIL=
MRPV,2025,03,05,02,00,METAR MRPV NIL=
MRPV,2025,03,05,03,00,METAR MRPV NIL=
MRPV,2025,03,05,04,00,METAR MRPV NIL=
MRPV,2025,03,05,05,00,METAR MRPV NIL=
MRPV,2025,03,05,06,00,METAR MRPV NIL=
MRPV,2025,03,05,07,00,METAR MRPV NIL=
MRPV,2025,03,05,08,00,METAR MRPV NIL=
MRPV,2025,03,05,09,00,METAR MRPV NIL=
MRPV,2025,03,05,10,00,METAR MRPV NIL=
MRPV,2025,03,05,11,00,METAR MRPV NIL=
MRPV,2025,03,05,12,00,METAR MRPV 051200Z 12001KT CAVOK 16/13 A3005 NOSIG=
MRPV,2025,03,05,13,00,METAR MRPV 051300Z 11003KT CAVOK 19/14 A3006 NOSIG=
MRPV,2025,03,05,14,00,METAR MRPV 051400Z 14009KT CAVOK 23/14 A3007 NOSIG=
MRPV,2025,03,05,15,00,METAR MRPV 051500Z 10009KT CAVOK 25/13 A3007 NOSIG=
MRPV,2025,03,05,16,00,METAR MRPV 051600Z 09008KT 9999 FEW030 28/12 A3006 NOSIG=
MRPV,2025,03,05,17,00,METAR MRPV 051700Z 09012KT 9999 FEW040 28/09 A3004 NOSIG=
MRPV,2025,03,05,18,00,METAR MRPV 051800Z 09010KT 9999 FEW045 29/11 A3004 NOSIG=
MRPV,2025,03,05,19,00,METAR MRPV 051900Z 11009KT 9999 FEW045 29/13 A2998 NOSIG=
MRPV,2025,03,05,19,21,SPECI MRPV COR 051921Z 34003KT 100V030 9999 FEW045 30/12 A2997 NOSIG=
MRPV,2025,03,05,20,00,METAR MRPV 052000Z 27005KT 9999 FEW045 SCT250 28/16 A2996 NOSIG=
MRPV,2025,03,05,21,00,METAR MRPV 052100Z 25007KT 9999 SCT040 28/18 A2995 NOSIG=
MRPV,2025,03,05,22,00,METAR MRPV 052200Z 15003KT 280V160 9999 SCT035 26/17 A2996 NOSIG=
MRPV,2025,03,05,23,00,METAR MRPV 052300Z 11004KT 9999 BKN040 25/17 A2997 NOSIG=
MRPV,2025,03,06,00,00,METAR MRPV 060000Z 10010KT 9999 BKN035 23/17 A2999 NOSIG=
MRPV,2025,03,06,01,00,METAR MRPV NIL=
MRPV,2025,03,06,02,00,METAR MRPV NIL=
MRPV,2025,03,06,03,00,METAR MRPV NIL=
MRPV,2025,03,06,04,00,METAR MRPV NIL=
MRPV,2025,03,06,05,00,METAR MRPV NIL=
MRPV,2025,03,06,06,00,METAR MRPV NIL=
MRPV,2025,03,06,07,00,METAR MRPV NIL=
MRPV,2025,03,06,08,00,METAR MRPV NIL=
MRPV,2025,03,06,09,00,METAR MRPV NIL=
MRPV,2025,03,06,10,00,METAR MRPV NIL=
MRPV,2025,03,06,11,00,METAR MRPV NIL=
MRPV,2025,03,06,12,00,METAR MRPV 061200Z 12009KT CAVOK 19/12 A3007 NOSIG=
MRPV,2025,03,06,13,00,METAR MRPV 061300Z 12008KT CAVOK 20/11 A3008 NOSIG=
MRPV,2025,03,06,14,00,METAR MRPV 061400Z 11009G20KT CAVOK 23/11 A3009 NOSIG=
MRPV,2025,03,06,15,00,METAR MRPV 061500Z 08015KT CAVOK 24/11 A3011 NOSIG=
MRPV,2025,03,06,16,00,METAR MRPV 061600Z 08015KT 9999 FEW045 BKN200 26/12 A3012 NOSIG=
MRPV,2025,03,06,17,00,METAR MRPV 061700Z 07011KT 9999 FEW045 BKN200 27/12 A3009 NOSIG=
MRPV,2025,03,06,18,00,METAR MRPV 061800Z 07012KT 9999 FEW045 BKN200 28/12 A3006 NOSIG=
MRPV,2025,03,06,19,00,METAR MRPV 061900Z 07014KT 9999 FEW045 BKN200 28/11 A3003 NOSIG=
MRPV,2025,03,06,20,00,METAR MRPV 062000Z 09012KT 9999 FEW045 BKN200 27/14 A3001 NOSIG=
MRPV,2025,03,06,21,00,METAR MRPV 062100Z 07011KT 9999 FEW040 BKN200 27/13 A3000 NOSIG=
MRPV,2025,03,06,22,00,METAR MRPV 062200Z 07013KT 9999 FEW040 BKN200 25/14 A3000 NOSIG=
MRPV,2025,03,06,23,00,METAR MRPV 062300Z 08012KT 9999 FEW040 BKN200 25/14 A3001 NOSIG=
MRPV,2025,03,07,00,00,METAR MRPV 070000Z 09010KT 9999 FEW035 BKN200 23/14 A3004 NOSIG=
MRPV,2025,03,07,01,00,METAR MRPV NIL=
MRPV,2025,03,07,02,00,METAR MRPV NIL=
MRPV,2025,03,07,03,00,METAR MRPV NIL=
MRPV,2025,03,07,04,00,METAR MRPV NIL=
MRPV,2025,03,07,05,00,METAR MRPV NIL=
MRPV,2025,03,07,06,00,METAR MRPV NIL=
MRPV,2025,03,07,07,00,METAR MRPV NIL=
MRPV,2025,03,07,08,00,METAR MRPV NIL=
MRPV,2025,03,07,09,00,METAR MRPV NIL=
MRPV,2025,03,07,10,00,METAR MRPV NIL=
MRPV,2025,03,07,11,00,METAR MRPV NIL=
MRPV,2025,03,07,12,00,METAR MRPV 071200Z 15008KT CAVOK 17/13 A3012 NOSIG=
MRPV,2025,03,07,13,00,METAR MRPV 071300Z 13009KT 9999 FEW040 SCT250 20/13 A3014 NOSIG=
MRPV,2025,03,07,14,00,METAR MRPV 071400Z 12010KT 9999 FEW045 SCT250 21/13 A3016 NOSIG=
MRPV,2025,03,07,15,00,METAR MRPV 071500Z 09012KT CAVOK 24/13 A3016 NOSIG=
MRPV,2025,03,07,16,00,METAR MRPV 071600Z 09012KT CAVOK 26/13 A3015 NOSIG=
MRPV,2025,03,07,17,00,METAR MRPV 071700Z 08014KT CAVOK 26/13 A3014 NOSIG=
MRPV,2025,03,07,18,00,METAR MRPV 071800Z 07015KT CAVOK 25/14 A3012 NOSIG=
MRPV,2025,03,07,19,00,METAR MRPV NIL=
MRPV,2025,03,07,20,00,METAR MRPV 072000Z 07015KT 9999 FEW045 BKN200 27/14 A3006 NOSIG=
MRPV,2025,03,07,21,00,METAR MRPV 072100Z 09016KT 9999 FEW045 27/14 A3004 NOSIG=
MRPV,2025,03,07,22,00,METAR MRPV 072200Z 09015KT 9999 FEW045 26/15 A3004 NOSIG=
MRPV,2025,03,07,23,00,METAR MRPV 072300Z 09016KT 9999 FEW045 24/15 A3004 NOSIG=
MRPV,2025,03,08,00,00,METAR MRPV 080000Z 09016KT 9999 FEW030 22/16 A3006 NOSIG=
MRPV,2025,03,08,01,00,METAR MRPV NIL=
MRPV,2025,03,08,02,00,METAR MRPV NIL=
MRPV,2025,03,08,03,00,METAR MRPV NIL=
MRPV,2025,03,08,04,00,METAR MRPV NIL=
MRPV,2025,03,08,05,00,METAR MRPV NIL=
MRPV,2025,03,08,06,00,METAR MRPV NIL=
MRPV,2025,03,08,07,00,METAR MRPV NIL=
MRPV,2025,03,08,08,00,METAR MRPV NIL=
MRPV,2025,03,08,09,00,METAR MRPV NIL=
MRPV,2025,03,08,10,00,METAR MRPV NIL=
MRPV,2025,03,08,11,00,METAR MRPV NIL=
MRPV,2025,03,08,12,00,METAR MRPV 081200Z 14008KT CAVOK 18/13 A3011 NOSIG=
MRPV,2025,03,08,13,00,METAR MRPV 081300Z 13008KT CAVOK 20/13 A3012 NOSIG=
MRPV,2025,03,08,14,00,METAR MRPV 081400Z 13009KT CAVOK 22/13 A3013 NOSIG=
MRPV,2025,03,08,15,00,METAR MRPV 081500Z 10009KT CAVOK 24/13 A3014 NOSIG=
MRPV,2025,03,08,16,00,METAR MRPV 081600Z 11008KT 9999 FEW045 26/14 A3013 NOSIG=
MRPV,2025,03,08,17,00,METAR MRPV 081700Z 07005KT 9999 FEW045 27/14 A3010 NOSIG=
MRPV,2025,03,08,18,00,METAR MRPV 081800Z 08006G17KT 100V030 9999 FEW045 SCT250 29/15 A3006 NOSIG=
MRPV,2025,03,08,19,00,METAR MRPV 081900Z 35004KT 9999 FEW040 30/15 A3003 NOSIG=
MRPV,2025,03,08,20,00,METAR MRPV 082000Z 26009KT 9999 SCT040 29/17 A3002 NOSIG=
MRPV,2025,03,08,21,00,METAR MRPV 082100Z 26008KT 9999 FEW040 28/18 A3000 NOSIG=
MRPV,2025,03,08,22,00,METAR MRPV 082200Z 28011KT 9999 FEW040 27/18 A2999 NOSIG=
MRPV,2025,03,08,23,00,METAR MRPV 082300Z 27008KT 9999 FEW030 25/18 A3001 NOSIG=
MRPV,2025,03,09,00,00,METAR MRPV 090000Z 27007KT 9999 BKN040 23/18 A3004 NOSIG=
MRPV,2025,03,09,01,00,METAR MRPV NIL=
MRPV,2025,03,09,02,00,METAR MRPV NIL=
MRPV,2025,03,09,03,00,METAR MRPV NIL=
MRPV,2025,03,09,04,00,METAR MRPV NIL=
MRPV,2025,03,09,05,00,METAR MRPV NIL=
MRPV,2025,03,09,06,00,METAR MRPV NIL=
MRPV,2025,03,09,07,00,METAR MRPV NIL=
MRPV,2025,03,09,08,00,METAR MRPV NIL=
MRPV,2025,03,09,09,00,METAR MRPV NIL=
MRPV,2025,03,09,10,00,METAR MRPV NIL=
MRPV,2025,03,09,11,00,METAR MRPV NIL=
MRPV,2025,03,09,12,00,METAR MRPV 091200Z 13007KT CAVOK 19/15 A3008 NOSIG=
MRPV,2025,03,09,13,00,METAR MRPV 091300Z 13005KT CAVOK 20/15 A3011 NOSIG=
MRPV,2025,03,09,14,00,METAR MRPV 091400Z 12007KT CAVOK 23/15 A3012 NOSIG=
MRPV,2025,03,09,15,00,METAR MRPV 091500Z 12008KT CAVOK 25/15 A3013 NOSIG=
MRPV,2025,03,09,16,00,METAR MRPV 091600Z 10007KT 9999 FEW045 27/16 A3012 NOSIG=
MRPV,2025,03,09,17,00,METAR MRPV 091700Z 09006KT 9999 FEW040 28/15 A3010 NOSIG=
MRPV,2025,03,09,18,00,METAR MRPV 091800Z 23004KT 9999 FEW040 30/15 A3006 NOSIG=
MRPV,2025,03,09,19,00,METAR MRPV 091900Z 11006KT 9999 FEW040 28/17 A3003 NOSIG=
MRPV,2025,03,09,20,00,METAR MRPV 092000Z 25006KT 9999 FEW030 28/17 A3001 NOSIG=
MRPV,2025,03,09,21,00,METAR MRPV 092100Z 25006KT 9999 SCT030 BKN200 27/18 A3000 NOSIG=
MRPV,2025,03,09,22,00,METAR MRPV 092200Z 27008KT 9999 FEW030 BKN200 27/19 A3000 NOSIG=
MRPV,2025,03,09,23,00,METAR MRPV 092300Z 27009KT 9999 FEW030 BKN200 25/19 A3001 NOSIG=
MRPV,2025,03,10,00,00,METAR MRPV 100000Z 28004KT 9999 SCT030 BKN200 24/19 A3003 NOSIG=
MRPV,2025,03,10,01,00,METAR MRPV NIL=
MRPV,2025,03,10,02,00,METAR MRPV NIL=
MRPV,2025,03,10,03,00,METAR MRPV NIL=
MRPV,2025,03,10,04,00,METAR MRPV NIL=
MRPV,2025,03,10,05,00,METAR MRPV NIL=
MRPV,2025,03,10,06,00,METAR MRPV NIL=
MRPV,2025,03,10,07,00,METAR MRPV NIL=
MRPV,2025,03,10,08,00,METAR MRPV NIL=
MRPV,2025,03,10,09,00,METAR MRPV NIL=
MRPV,2025,03,10,10,00,METAR MRPV NIL=
MRPV,2025,03,10,11,00,METAR MRPV NIL=
MRPV,2025,03,10,12,00,METAR MRPV 101200Z 13006KT 9999 FEW045 20/14 A3008 NOSIG=
MRPV,2025,03,10,13,00,METAR MRPV 101300Z 13007KT 9999 FEW045 21/14 A3010 NOSIG=
MRPV,2025,03,10,14,00,METAR MRPV 101400Z 10011KT 9999 FEW045 BKN250 24/13 A3012 NOSIG=
MRPV,2025,03,10,15,00,METAR MRPV 101500Z 09011KT 9999 FEW045 BKN250 25/14 A3014 NOSIG=
MRPV,2025,03,10,16,00,METAR MRPV 101600Z 07009KT 9999 FEW045 BKN250 26/14 A3014 NOSIG=
MRPV,2025,03,10,17,00,METAR MRPV 101700Z 08011KT 9999 FEW045 BKN250 27/14 A3011 NOSIG=
MRPV,2025,03,10,18,00,METAR MRPV 101800Z 08010KT 9999 FEW045 27/15 A3009 NOSIG=
MRPV,2025,03,10,19,00,METAR MRPV 101900Z 08012KT 9999 FEW045 28/15 A3005 NOSIG=
MRPV,2025,03,10,20,00,METAR MRPV 102000Z 09011KT 9999 FEW040 28/14 A3001 NOSIG=
MRPV,2025,03,10,21,00,METAR MRPV 102100Z 08013KT 9999 FEW030 28/15 A2999 NOSIG=
MRPV,2025,03,10,22,00,METAR MRPV 102200Z 09014KT 9999 FEW040 27/16 A2998 NOSIG=
MRPV,2025,03,10,23,00,METAR MRPV 102300Z 09014KT 9999 FEW045 25/16 A2999 NOSIG=
MRPV,2025,03,11,00,00,METAR MRPV 110000Z 10012KT 9999 FEW045 BKN200 24/16 A3000 NOSIG=
MRPV,2025,03,11,01,00,METAR MRPV NIL=
MRPV,2025,03,11,02,00,METAR MRPV NIL=
MRPV,2025,03,11,03,00,METAR MRPV NIL=
MRPV,2025,03,11,04,00,METAR MRPV NIL=
MRPV,2025,03,11,05,00,METAR MRPV NIL=
MRPV,2025,03,11,06,00,METAR MRPV NIL=
MRPV,2025,03,11,07,00,METAR MRPV NIL=
MRPV,2025,03,11,08,00,METAR MRPV NIL=
MRPV,2025,03,11,09,00,METAR MRPV NIL=
MRPV,2025,03,11,10,00,METAR MRPV NIL=
MRPV,2025,03,11,11,00,METAR MRPV NIL=
MRPV,2025,03,11,12,00,METAR MRPV 111200Z 14009KT 9999 FEW040 BKN220 19/15 A3008 NOSIG=
MRPV,2025,03,11,13,00,METAR MRPV 111300Z 14009KT 9999 FEW040 SCT220 21/15 A3010 NOSIG=
MRPV,2025,03,11,14,00,METAR MRPV 111400Z 13009KT 9999 FEW045 SCT250 23/15 A3011 NOSIG=
MRPV,2025,03,11,15,00,METAR MRPV 111500Z 09012KT 9999 FEW045 SCT250 24/14 A3013 NOSIG=
MRPV,2025,03,11,16,00,METAR MRPV 111600Z 10015KT 9999 FEW040 SCT250 26/14 A3012 NOSIG=
MRPV,2025,03,11,17,00,METAR MRPV 111700Z 09014KT 9999 FEW045 SCT250 27/14 A3011 NOSIG=
MRPV,2025,03,11,18,00,METAR MRPV 111800Z 09014KT 9999 FEW045 SCT250 28/12 A3008 NOSIG=
MRPV,2025,03,11,19,00,METAR MRPV 111900Z 09012KT 9999 FEW045 27/14 A3006 NOSIG=
MRPV,2025,03,11,20,00,METAR MRPV 112000Z 10013KT 9999 FEW045 27/14 A3002 NOSIG=
MRPV,2025,03,11,21,00,METAR MRPV 112100Z 08016KT 9999 FEW040 SCT080 26/14 A3000 NOSIG=
MRPV,2025,03,11,22,00,METAR MRPV 112200Z 08017KT 9999 FEW040 SCT080 25/16 A3001 NOSIG=
MRPV,2025,03,11,23,00,METAR MRPV 112300Z 10016KT 9999 FEW040 23/16 A3003 NOSIG=
MRPV,2025,03,12,00,00,METAR MRPV 120000Z 12011KT 9999 FEW035 SCT200 22/16 A3005 NOSIG=
MRPV,2025,03,12,01,00,METAR MRPV NIL=
MRPV,2025,03,12,02,00,METAR MRPV NIL=
MRPV,2025,03,12,03,00,METAR MRPV NIL=
MRPV,2025,03,12,04,00,METAR MRPV NIL=
MRPV,2025,03,12,05,00,METAR MRPV NIL=
MRPV,2025,03,12,06,00,METAR MRPV NIL=
MRPV,2025,03,12,07,00,METAR MRPV NIL=
MRPV,2025,03,12,08,00,METAR MRPV NIL=
MRPV,2025,03,12,09,00,METAR MRPV NIL=
MRPV,2025,03,12,10,00,METAR MRPV NIL=
MRPV,2025,03,12,11,00,METAR MRPV NIL=
MRPV,2025,03,12,12,00,METAR MRPV 121200Z 15010KT 9999 FEW025 BKN220 19/14 A3008 NOSIG=
MRPV,2025,03,12,13,00,METAR MRPV 121300Z 14010KT 9999 FEW035 BKN220 20/14 A3010 NOSIG=
MRPV,2025,03,12,14,00,METAR MRPV 121400Z 13009KT 9999 FEW040 BKN220 22/14 A3012 NOSIG=
MRPV,2025,03,12,15,00,METAR MRPV 121500Z 12010KT CAVOK 24/14 A3013 NOSIG=
MRPV,2025,03,12,16,00,METAR MRPV 121600Z 09014KT CAVOK 25/14 A3012 NOSIG=
MRPV,2025,03,12,17,00,METAR MRPV 121700Z 09013KT 9999 FEW040 BKN220 26/15 A3011 NOSIG=
MRPV,2025,03,12,18,00,METAR MRPV 121800Z 08014KT 9999 FEW045 SCT250 26/15 A3008 NOSIG=
MRPV,2025,03,12,19,00,METAR MRPV 121900Z 08012KT 9999 FEW045 27/15 A3004 NOSIG=
MRPV,2025,03,12,20,00,METAR MRPV 122000Z 08012KT 9999 FEW045 28/15 A3001 NOSIG=
MRPV,2025,03,12,21,00,METAR MRPV 122100Z 09012KT 9999 FEW045 28/15 A2999 NOSIG=
MRPV,2025,03,12,22,00,METAR MRPV 122200Z 08013KT 9999 FEW040 27/16 A2999 NOSIG=
MRPV,2025,03,12,23,00,METAR MRPV 122300Z 09011KT 9999 FEW040 24/16 A3001 NOSIG=
MRPV,2025,03,13,00,00,METAR MRPV 130000Z 11007KT 9999 FEW030 23/17 A3004 NOSIG=
MRPV,2025,03,13,01,00,METAR MRPV NIL=
MRPV,2025,03,13,02,00,METAR MRPV NIL=
MRPV,2025,03,13,03,00,METAR MRPV NIL=
MRPV,2025,03,13,04,00,METAR MRPV NIL=
MRPV,2025,03,13,05,00,METAR MRPV NIL=
MRPV,2025,03,13,06,00,METAR MRPV NIL=
MRPV,2025,03,13,07,00,METAR MRPV NIL=
MRPV,2025,03,13,08,00,METAR MRPV NIL=
MRPV,2025,03,13,09,00,METAR MRPV NIL=
MRPV,2025,03,13,10,00,METAR MRPV NIL=
MRPV,2025,03,13,11,00,METAR MRPV NIL=
MRPV,2025,03,13,12,00,METAR MRPV 131200Z 13008KT 9999 SCT045 SCT070 19/14 A3010 NOSIG=
MRPV,2025,03,13,13,00,METAR MRPV 131300Z 12010KT 9999 BKN045 20/14 A3012 NOSIG=
MRPV,2025,03,13,14,00,METAR MRPV 131400Z 11009KT 9999 FEW045 SCT070 21/14 A3014 NOSIG=
MRPV,2025,03,13,15,00,METAR MRPV 131500Z 11008KT 9999 FEW045 SCT250 24/14 A3014 NOSIG=
MRPV,2025,03,13,16,00,METAR MRPV 131600Z 09011KT 9999 FEW045 SCT250 26/15 A3013 NOSIG=
MRPV,2025,03,13,17,00,METAR MRPV 131700Z 07007KT 9999 FEW045 28/15 A3010 NOSIG=
MRPV,2025,03,13,18,00,METAR MRPV 131800Z 10010KT 9999 SCT045 28/15 A3008 NOSIG=
MRPV,2025,03,13,19,00,METAR MRPV 131900Z 10014KT 9999 SCT045 28/16 A3004 NOSIG=
MRPV,2025,03,13,20,00,METAR MRPV 132000Z 07011KT 9999 FEW030 BKN200 26/16 A3003 NOSIG=
MRPV,2025,03,13,21,00,METAR MRPV 132100Z 09011KT 9999 SCT030 26/16 A3002 NOSIG=
MRPV,2025,03,13,22,00,METAR MRPV 132200Z 09005KT 9999 BKN030 25/16 A3002 NOSIG=
MRPV,2025,03,13,23,00,METAR MRPV 132300Z 09008KT 9999 BKN040 24/16 A3003 NOSIG=
MRPV,2025,03,14,00,00,METAR MRPV 140000Z 10004KT 9999 BKN040 23/17 A3005 NOSIG=
MRPV,2025,03,14,01,00,METAR MRPV NIL=
MRPV,2025,03,14,02,00,METAR MRPV NIL=
MRPV,2025,03,14,03,00,METAR MRPV NIL=
MRPV,2025,03,14,04,00,METAR MRPV NIL=
MRPV,2025,03,14,05,00,METAR MRPV NIL=
MRPV,2025,03,14,06,00,METAR MRPV NIL=
MRPV,2025,03,14,07,00,METAR MRPV NIL=
MRPV,2025,03,14,08,00,METAR MRPV NIL=
MRPV,2025,03,14,09,00,METAR MRPV NIL=
MRPV,2025,03,14,10,00,METAR MRPV NIL=
MRPV,2025,03,14,11,00,METAR MRPV NIL=
MRPV,2025,03,14,12,00,METAR MRPV 141200Z 10006KT CAVOK 19/15 A3007 NOSIG=
MRPV,2025,03,14,13,00,METAR MRPV 141300Z 11006KT 9999 FEW045 BKN220 21/15 A3009 NOSIG=
MRPV,2025,03,14,14,00,METAR MRPV 141400Z 10008KT 9999 FEW040 BKN220 23/14 A3009 NOSIG=
MRPV,2025,03,14,15,00,METAR MRPV 141500Z 09010KT 9999 FEW045 SCT250 25/14 A3009 NOSIG=
MRPV,2025,03,14,16,00,METAR MRPV 141600Z 09010KT 9999 FEW045 SCT250 27/13 A3008 NOSIG=
MRPV,2025,03,14,17,00,METAR MRPV 141700Z 10008KT 9999 FEW045 28/13 A3007 NOSIG=
MRPV,2025,03,14,18,00,METAR MRPV 141800Z 11004KT 9999 FEW045 30/14 A3003 NOSIG=
MRPV,2025,03,14,18,48,SPECI MRPV 141848Z 26004KT 9999 SCT045 29/14 A3000 NOSIG=
MRPV,2025,03,14,19,00,METAR MRPV 141900Z 26005KT 9999 SCT045 29/15 A3000 NOSIG=
MRPV,2025,03,14,20,00,METAR MRPV 142000Z 26009KT 9999 SCT040 28/17 A2997 NOSIG=
MRPV,2025,03,14,21,00,METAR MRPV 142100Z 26009KT 9999 SCT040 28/18 A2996 NOSIG=
MRPV,2025,03,14,22,00,METAR MRPV 142200Z 27009KT 9999 SCT030 SCT050 27/19 A2996 NOSIG=
MRPV,2025,03,14,23,00,METAR MRPV 142300Z 05004KT 6000 2000E -RA BKN030 23/19 A2999 NOSIG=
MRPV,2025,03,14,23,12,SPECI MRPV 142312Z 08008KT 4000 1000E RA BKN030 21/19 A3000 NOSIG=
MRPV,2025,03,15,00,00,METAR MRPV 150000Z 07002KT 6000 -RA BKN030 20/19 A3001 NOSIG=
MRPV,2025,03,15,01,00,METAR MRPV NIL=
MRPV,2025,03,15,02,00,METAR MRPV NIL=
MRPV,2025,03,15,03,00,METAR MRPV NIL=
MRPV,2025,03,15,04,00,METAR MRPV NIL=
MRPV,2025,03,15,05,00,METAR MRPV NIL=
MRPV,2025,03,15,06,00,METAR MRPV NIL=
MRPV,2025,03,15,07,00,METAR MRPV NIL=
MRPV,2025,03,15,08,00,METAR MRPV NIL=
MRPV,2025,03,15,09,00,METAR MRPV NIL=
MRPV,2025,03,15,10,00,METAR MRPV NIL=
MRPV,2025,03,15,11,00,METAR MRPV NIL=
MRPV,2025,03,15,12,00,METAR MRPV 151200Z 09005KT CAVOK 16/14 A3004 NOSIG=
MRPV,2025,03,15,13,00,METAR MRPV 151300Z 09007KT CAVOK 18/14 A3006 NOSIG=
MRPV,2025,03,15,14,00,METAR MRPV 151400Z 09005KT CAVOK 22/15 A3007 NOSIG=
MRPV,2025,03,15,15,00,METAR MRPV 151500Z 06004KT CAVOK 25/15 A3008 BECMG 29006KT=
MRPV,2025,03,15,16,00,METAR MRPV 151600Z 25002KT CAVOK 27/13 A3006 NOSIG=
MRPV,2025,03,15,17,00,METAR MRPV 151700Z 27005KT CAVOK 28/10 A3003 NOSIG=
MRPV,2025,03,15,18,00,METAR MRPV 151800Z 29010KT CAVOK 29/15 A3000 NOSIG=
MRPV,2025,03,15,19,00,METAR MRPV 151900Z 27008KT 9999 FEW045 29/16 A2997 NOSIG=
MRPV,2025,03,15,20,00,METAR MRPV 152000Z 27010KT 9999 FEW040 28/19 A2995 NOSIG=
MRPV,2025,03,15,21,00,METAR MRPV 152100Z 29012KT 9999 FEW030 78/19 A2994 NOSIG=
MRPV,2025,03,15,22,00,METAR MRPV 152200Z 28013KT 9999 FEW030 26/19 A2995 NOSIG=
MRPV,2025,03,15,23,00,METAR MRPV 152300Z 28011KT 9999 FEW030 24/19 A2996 NOSIG=
MRPV,2025,03,16,00,00,METAR MRPV 160000Z 31007KT 9999 FEW040 BKN200 23/19 A2998 NOSIG=
MRPV,2025,03,16,01,00,METAR MRPV NIL=
MRPV,2025,03,16,02,00,METAR MRPV NIL=
MRPV,2025,03,16,03,00,METAR MRPV NIL=
MRPV,2025,03,16,04,00,METAR MRPV NIL=
MRPV,2025,03,16,05,00,METAR MRPV NIL=
MRPV,2025,03,16,06,00,METAR MRPV NIL=
MRPV,2025,03,16,07,00,METAR MRPV NIL=
MRPV,2025,03,16,08,00,METAR MRPV NIL=
MRPV,2025,03,16,09,00,METAR MRPV NIL=
MRPV,2025,03,16,10,00,METAR MRPV NIL=
MRPV,2025,03,16,11,00,METAR MRPV NIL=
MRPV,2025,03,16,12,00,METAR MRPV 161200Z 33002KT 4000 -DZ BR BKN005 20/20 A3008 NOSIG=
MRPV,2025,03,16,13,00,METAR MRPV 161300Z 31003KT 4000 -DZ BR SCT003 BKN010 20/20 A3011 NOSIG=
MRPV,2025,03,16,14,00,METAR MRPV 161400Z 28001KT 4000 BR SCT005 BKN010 20/20 A3013 NOSIG=
MRPV,2025,03,16,15,00,METAR MRPV 161500Z 18002KT 5000 BR SCT005 BKN020 20/19 A3014 NOSIG=
MRPV,2025,03,16,16,00,METAR MRPV 161600Z 33005KT 7000 SCT015 BKN040 22/19 A3014 NOSIG=
MRPV,2025,03,16,17,00,METAR MRPV 161700Z 28007KT 9999 FEW030 25/18 A3012 NOSIG=
MRPV,2025,03,16,18,00,METAR MRPV 161800Z 30010G20KT 9999 FEW030 26/19 A3009 NOSIG=
MRPV,2025,03,16,19,00,METAR MRPV 161900Z 28010KT 9999 SCT030TCU 27/19 A3007 NOSIG=
MRPV,2025,03,16,20,00,METAR MRPV 162000Z 28011KT 9999 SCT030TCU 27/19 A3005 NOSIG=
MRPV,2025,03,16,21,00,METAR MRPV 162100Z 27009KT 9999 SCT020TCU 26/19 A3004 NOSIG=
MRPV,2025,03,16,22,00,METAR MRPV 162200Z 28011KT 9999 BKN030TCU 25/19 A3003 NOSIG=
MRPV,2025,03,16,23,00,METAR MRPV 162300Z 28007KT 9999 FEW030 BKN200 24/20 A3004 NOSIG=
MRPV,2025,03,17,00,00,METAR MRPV 170000Z 30008KT 9999 BKN040 23/20 A3006 NOSIG=
MRPV,2025,03,17,01,00,METAR MRPV NIL=
MRPV,2025,03,17,02,00,METAR MRPV NIL=
MRPV,2025,03,17,03,00,METAR MRPV NIL=
MRPV,2025,03,17,04,00,METAR MRPV NIL=
MRPV,2025,03,17,05,00,METAR MRPV NIL=
MRPV,2025,03,17,06,00,METAR MRPV NIL=
MRPV,2025,03,17,07,00,METAR MRPV NIL=
MRPV,2025,03,17,08,00,METAR MRPV NIL=
MRPV,2025,03,17,09,00,METAR MRPV NIL=
MRPV,2025,03,17,10,00,METAR MRPV NIL=
MRPV,2025,03,17,11,00,METAR MRPV NIL=
MRPV,2025,03,17,12,00,METAR MRPV 171200Z 13010KT 9999 FEW040 20/16 A3013 NOSIG=
MRPV,2025,03,17,13,00,METAR MRPV 171300Z 11014KT CAVOK 21/14 A3015 NOSIG=
MRPV,2025,03,17,14,00,METAR MRPV 171400Z 11013KT 9999 FEW035 23/14 A3016 NOSIG=
MRPV,2025,03,17,15,00,METAR MRPV 171500Z 11013KT 9999 FEW040 25/15 A3017 NOSIG=
MRPV,2025,03,17,16,00,METAR MRPV 171600Z 08016KT 9999 FEW045 26/15 A3017 NOSIG=
MRPV,2025,03,17,17,00,METAR MRPV 171700Z 08019KT 9999 FEW040 27/16 A3016 NOSIG=
MRPV,2025,03,17,18,00,METAR MRPV 171800Z 10015KT 9999 FEW045 BKN200 28/14 A3013 NOSIG=
MRPV,2025,03,17,19,00,METAR MRPV 171900Z 08016KT 9999 FEW045 BKN200 28/15 A3011 NOSIG=
MRPV,2025,03,17,20,00,METAR MRPV 172000Z 08017KT 9999 FEW045 BKN200 27/14 A3009 NOSIG=
MRPV,2025,03,17,21,00,METAR MRPV 172100Z 06016KT 9999 FEW045 BKN200 27/14 A3007 NOSIG=
MRPV,2025,03,17,22,00,METAR MRPV 172200Z 08015KT 9999 FEW045 BKN200 26/14 A3007 NOSIG=
MRPV,2025,03,17,23,00,METAR MRPV 172300Z 08017KT 9999 FEW045 BKN200 25/15 A3007 NOSIG=
MRPV,2025,03,18,00,00,METAR MRPV 180000Z 08012KT 9999 FEW040 BKN200 24/15 A3009 NOSIG=
MRPV,2025,03,18,01,00,METAR MRPV NIL=
MRPV,2025,03,18,02,00,METAR MRPV NIL=
MRPV,2025,03,18,03,00,METAR MRPV NIL=
MRPV,2025,03,18,04,00,METAR MRPV NIL=
MRPV,2025,03,18,05,00,METAR MRPV NIL=
MRPV,2025,03,18,06,00,METAR MRPV NIL=
MRPV,2025,03,18,07,00,METAR MRPV NIL=
MRPV,2025,03,18,08,00,METAR MRPV NIL=
MRPV,2025,03,18,09,00,METAR MRPV NIL=
MRPV,2025,03,18,10,00,METAR MRPV NIL=
MRPV,2025,03,18,11,00,METAR MRPV NIL=
MRPV,2025,03,18,12,00,METAR MRPV 181200Z 12010KT 9999 FEW030 SCT250 19/13 A3013 NOSIG=
MRPV,2025,03,18,13,00,METAR MRPV 181300Z 12011KT 9999 FEW035 BKN250 20/13 A3015 NOSIG=
MRPV,2025,03,18,14,00,METAR MRPV 181400Z 10013KT 9999 FEW040 BKN220 22/13 A3015 NOSIG=
MRPV,2025,03,18,15,00,METAR MRPV 181500Z 09016KT 9999 FEW045 BKN220 23/14 A3016 NOSIG=
MRPV,2025,03,18,16,00,METAR MRPV 181600Z 08016G26KT 9999 FEW045 BKN220 24/13 A3016 NOSIG=
MRPV,2025,03,18,17,00,METAR MRPV 181700Z 07016KT 9999 FEW045 BKN220 25/13 A3014 NOSIG=
MRPV,2025,03,18,18,00,METAR MRPV 181800Z 07014KT 9999 FEW045 BKN200 26/12 A3012 NOSIG=
MRPV,2025,03,18,19,00,METAR MRPV 181900Z 08015KT 9999 FEW045 BKN200 27/13 A3008 NOSIG=
MRPV,2025,03,18,20,00,METAR MRPV 1812000Z 07015KT 9999 FEW045 BKN220 26/14 A3006 NOSIG=
MRPV,2025,03,18,21,00,METAR MRPV 182100Z 07013G23KT 9999 FEW045 BKN220 26/13 A3004 NOSIG=
MRPV,2025,03,18,22,00,METAR MRPV 1812200Z 07014KT 9999 FEW040 BKN220 25/13 A3003 NOSIG=
MRPV,2025,03,18,23,00,METAR MRPV 1812300Z 09013KT 9999 FEW035 BKN220 24/13 A3004 NOSIG=
MRPV,2025,03,19,00,00,METAR MRPV 190000Z 11009KT 9999 FEW035 BKN200 22/14 A3006 NOSIG=
MRPV,2025,03,19,01,00,METAR MRPV NIL=
MRPV,2025,03,19,02,00,METAR MRPV NIL=
MRPV,2025,03,19,03,00,METAR MRPV NIL=
MRPV,2025,03,19,04,00,METAR MRPV NIL=
MRPV,2025,03,19,05,00,METAR MRPV NIL=
MRPV,2025,03,19,06,00,METAR MRPV NIL=
MRPV,2025,03,19,07,00,METAR MRPV NIL=
MRPV,2025,03,19,08,00,METAR MRPV NIL=
MRPV,2025,03,19,09,00,METAR MRPV NIL=
MRPV,2025,03,19,10,00,METAR MRPV NIL=
MRPV,2025,03,19,11,00,METAR MRPV NIL=
MRPV,2025,03,19,12,00,METAR MRPV 191200Z 15009KT CAVOK 18/11 A3007 NOSIG=
MRPV,2025,03,19,13,00,METAR MRPV 191300Z 14010KT CAVOK 20/10 A3008 NOSIG=
MRPV,2025,03,19,14,00,METAR MRPV 191400Z 11010KT CAVOK 23/11 A3009 NOSIG=
MRPV,2025,03,19,15,00,METAR MRPV 191500Z 10011KT CAVOK 25/12 A3009 NOSIG=
MRPV,2025,03,19,16,00,METAR MRPV 191600Z 08011KT CAVOK 27/13 A3009 NOSIG=
MRPV,2025,03,19,17,00,METAR MRPV 191700Z 09011KT CAVOK 28/13 A3006 NOSIG=
MRPV,2025,03,19,18,00,METAR MRPV 191800Z 09012KT 9999 FEW045 BKN220 28/13 A3003 NOSIG=
MRPV,2025,03,19,19,00,METAR MRPV 191900Z 08013KT 9999 FEW045 SCT220 28/15 A3000 NOSIG=
MRPV,2025,03,19,20,00,METAR MRPV 192000Z 08015KT 9999 FEW045 SCT220 28/14 A2998 NOSIG=
MRPV,2025,03,19,21,00,METAR MRPV 192100Z 08014KT 9999 FEW045 SCT220 28/14 A2997 NOSIG=
MRPV,2025,03,19,22,00,METAR MRPV 192200Z 08014KT 9999 FEW045 SCT220 28/14 A2997 NOSIG=
MRPV,2025,03,19,23,00,METAR MRPV 192300Z 08014KT CAVOK 25/14 A2998 NOSIG=
MRPV,2025,03,20,00,00,METAR MRPV 200000Z 10011KT CAVOK 24/14 A2999 NOSIG=
MRPV,2025,03,20,01,00,METAR MRPV NIL=
MRPV,2025,03,20,02,00,METAR MRPV NIL=
MRPV,2025,03,20,03,00,METAR MRPV NIL=
MRPV,2025,03,20,04,00,METAR MRPV NIL=
MRPV,2025,03,20,05,00,METAR MRPV NIL=
MRPV,2025,03,20,06,00,METAR MRPV NIL=
MRPV,2025,03,20,07,00,METAR MRPV NIL=
MRPV,2025,03,20,08,00,METAR MRPV NIL=
MRPV,2025,03,20,09,00,METAR MRPV NIL=
MRPV,2025,03,20,10,00,METAR MRPV NIL=
MRPV,2025,03,20,11,00,METAR MRPV NIL=
MRPV,2025,03,20,12,00,METAR MRPV 201200Z 14010KT CAVOK 17/12 A3006 NOSIG=
MRPV,2025,03,20,13,00,METAR MRPV 201300Z 14009KT CAVOK 19/12 A3008 NOSIG=
MRPV,2025,03,20,14,00,METAR MRPV 201400Z 13010KT CAVOK 23/11 A3009 NOSIG=
MRPV,2025,03,20,15,00,METAR MRPV 201500Z 11011KT CAVOK 25/11 A3011 NOSIG=
MRPV,2025,03,20,16,00,METAR MRPV 201600Z 09012KT CAVOK 27/12 A3010 NOSIG=
MRPV,2025,03,20,17,00,METAR MRPV 201700Z 08013KT CAVOK 27/13 A3008 NOSIG=
MRPV,2025,03,20,18,00,METAR MRPV 201800Z 08015KT 9999 FEW045 28/15 A3006 NOSIG=
MRPV,2025,03,20,19,00,METAR MRPV 201900Z 09017KT 9999 FEW045 28/15 A3003 NOSIG=
MRPV,2025,03,20,20,00,METAR MRPV 202000Z 08017KT 9999 FEW045 27/14 A3001 NOSIG=
MRPV,2025,03,20,21,00,METAR MRPV 202100Z 08016G26KT 9999 FEW045 27/15 A2999 NOSIG=
MRPV,2025,03,20,22,00,METAR MRPV 202200Z 09014G24KT 9999 FEW045 25/16 A3000 NOSIG=
MRPV,2025,03,20,23,00,METAR MRPV 202300Z 10015KT 9999 FEW045 24/16 A3001 NOSIG=
MRPV,2025,03,21,00,00,METAR MRPV 210000Z 09016KT 9999 FEW040 22/16 A3002 NOSIG=
MRPV,2025,03,21,01,00,METAR MRPV NIL=
MRPV,2025,03,21,02,00,METAR MRPV NIL=
MRPV,2025,03,21,03,00,METAR MRPV NIL=
MRPV,2025,03,21,04,00,METAR MRPV NIL=
MRPV,2025,03,21,05,00,METAR MRPV NIL=
MRPV,2025,03,21,06,00,METAR MRPV NIL=
MRPV,2025,03,21,07,00,METAR MRPV NIL=
MRPV,2025,03,21,08,00,METAR MRPV NIL=
MRPV,2025,03,21,09,00,METAR MRPV NIL=
MRPV,2025,03,21,10,00,METAR MRPV NIL=
MRPV,2025,03,21,11,00,METAR MRPV NIL=
MRPV,2025,03,21,12,00,METAR MRPV 211200Z 11016KT CAVOK 18/12 A3007 NOSIG=
MRPV,2025,03,21,13,00,METAR MRPV 211300Z 11018G30KT CAVOK 19/11 A3009 NOSIG=
MRPV,2025,03,21,14,00,METAR MRPV 211400Z 10017G27KT CAVOK 21/13 A3011 NOSIG=
MRPV,2025,03,21,15,00,METAR MRPV 211500Z 08018G28KT 9999 FEW045 22/13 A3012 NOSIG=
MRPV,2025,03,21,16,00,METAR MRPV 211600Z 08019G29KT 9999 SCT040 22/14 A3013 NOSIG=
MRPV,2025,03,21,17,00,METAR MRPV 211700Z 08019G32KT 9999 SCT040 22/14 A3012 NOSIG=
MRPV,2025,03,21,18,00,METAR MRPV 211800Z 08018KT 9999 BKN030 22/15 A3010 NOSIG=
MRPV,2025,03,21,19,00,METAR MRPV 211900Z 10017KT 9999 BKN030 22/15 A3006 NOSIG=
MRPV,2025,03,21,20,00,METAR MRPV 212000Z 10017G27KT 9999 SCT040 22/16 A3003 NOSIG=
MRPV,2025,03,21,21,00,METAR MRPV 212100Z 08017KT 9999 BKN040 21/15 A3003 NOSIG=
MRPV,2025,03,21,22,00,METAR MRPV 212200Z 08017G28KT 9999 BKN035 21/15 A3001 NOSIG=
MRPV,2025,03,21,23,00,METAR MRPV 212300Z 08017KT 9999 FEW030 21/15 A3001 NOSIG=
MRPV,2025,03,22,00,00,METAR MRPV 220000Z 07018KT 9999 FEW040 20/15 A3003 NOSIG=
MRPV,2025,03,22,01,00,METAR MRPV NIL=
MRPV,2025,03,22,02,00,METAR MRPV NIL=
MRPV,2025,03,22,03,00,METAR MRPV NIL=
MRPV,2025,03,22,04,00,METAR MRPV NIL=
MRPV,2025,03,22,05,00,METAR MRPV NIL=
MRPV,2025,03,22,06,00,METAR MRPV NIL=
MRPV,2025,03,22,07,00,METAR MRPV NIL=
MRPV,2025,03,22,08,00,METAR MRPV NIL=
MRPV,2025,03,22,09,00,METAR MRPV NIL=
MRPV,2025,03,22,10,00,METAR MRPV NIL=
MRPV,2025,03,22,11,00,METAR MRPV NIL=
MRPV,2025,03,22,12,00,METAR MRPV 221200Z 13010KT 9999 FEW030 19/14 A3007 NOSIG=
MRPV,2025,03,22,13,00,METAR MRPV 221300Z 11012KT 9999 SCT030 19/16 A3008 NOSIG=
MRPV,2025,03,22,14,00,METAR MRPV 221400Z 11014KT 9999 FEW030 20/16 A3010 NOSIG=
MRPV,2025,03,22,15,00,METAR MRPV 221500Z 09017G27KT 9999 FEW030 22/16 A3011 NOSIG=
MRPV,2025,03,22,16,00,METAR MRPV COR 221600Z 10018G28KT 9999 FEW030 23/16 A3011 NOSIG=
MRPV,2025,03,22,17,00,METAR MRPV 221700Z 09018KT 9999 FEW030 23/16 A3008 NOSIG=
MRPV,2025,03,22,18,00,METAR MRPV 221800Z 09016KT 9999 BKN030 24/16 A3006 NOSIG=
MRPV,2025,03,22,19,00,METAR MRPV 221900Z 09020KT 9999 FEW040 25/16 A3001 NOSIG=
MRPV,2025,03,22,20,00,METAR MRPV 222000Z 09023KT 9999 FEW035 24/17 A2999 NOSIG=
MRPV,2025,03,22,21,00,METAR MRPV 222100Z 10017KT 9999 SCT030 24/16 A2998 NOSIG=
MRPV,2025,03,22,22,00,METAR MRPV 222200Z 09020KT 9999 FEW025 22/17 A2998 NOSIG=
MRPV,2025,03,22,23,00,METAR MRPV 222300Z 10018KT 9999 FEW030 21/16 A2999 NOSIG=
MRPV,2025,03,23,00,00,METAR MRPV 230000Z 09019KT 9999 FEW030 SCT140 21/16 A3000 NOSIG=
MRPV,2025,03,23,01,00,METAR MRPV NIL=
MRPV,2025,03,23,02,00,METAR MRPV NIL=
MRPV,2025,03,23,03,00,METAR MRPV NIL=
MRPV,2025,03,23,04,00,METAR MRPV NIL=
MRPV,2025,03,23,05,00,METAR MRPV NIL=
MRPV,2025,03,23,06,00,METAR MRPV NIL=
MRPV,2025,03,23,07,00,METAR MRPV NIL=
MRPV,2025,03,23,08,00,METAR MRPV NIL=
MRPV,2025,03,23,09,00,METAR MRPV NIL=
MRPV,2025,03,23,10,00,METAR MRPV NIL=
MRPV,2025,03,23,11,00,METAR MRPV NIL=
MRPV,2025,03,23,12,00,METAR MRPV 231200Z 11011KT 9999 FEW030 21/17 A3002 NOSIG=
MRPV,2025,03,23,13,00,METAR MRPV 231300Z 09017KT 9999 FEW030 21/17 A3003 NOSIG=
MRPV,2025,03,23,14,00,METAR MRPV 231400Z 08018KT 9999 FEW040 22/17 A3006 NOSIG=
MRPV,2025,03,23,15,00,METAR MRPV 231500Z 08016KT 9999 FEW035 24/17 A3007 NOSIG=
MRPV,2025,03,23,16,00,METAR MRPV 231600Z 08017KT 9999 FEW020 24/17 A3007 NOSIG=
MRPV,2025,03,23,17,00,METAR MRPV 231700Z 07019G31KT 9999 FEW030 24/17 A3006 NOSIG=
MRPV,2025,03,23,18,00,METAR MRPV 231800Z COR 08016KT 9999 FEW035 25/16 A3004 WS R10 NOSIG=
MRPV,2025,03,23,19,00,METAR MRPV 231900Z 09019KT 9999 SCT030 25/15 A3001 WS R10 NOSIG=
MRPV,2025,03,23,20,00,METAR MRPV 232000Z 08016KT 9999 BKN040 24/15 A3001 WS R10 NOSIG=
MRPV,2025,03,23,21,00,METAR MRPV 232100Z 08015KT 9999 BKN040 24/15 A2999 NOSIG=
MRPV,2025,03,23,22,00,METAR MRPV 232200Z 08017KT 9999 BKN040 23/16 A3000 NOSIG=
MRPV,2025,03,23,23,00,METAR MRPV 232300Z 09016KT 9999 FEW035 23/15 A3000 NOSIG=
MRPV,2025,03,24,00,00,METAR MRPV 240000Z 09014KT 9999 FEW040 21/15 A3002 NOSIG=
MRPV,2025,03,24,01,00,METAR MRPV NIL=
MRPV,2025,03,24,02,00,METAR MRPV NIL=
MRPV,2025,03,24,03,00,METAR MRPV NIL=
MRPV,2025,03,24,04,00,METAR MRPV NIL=
MRPV,2025,03,24,05,00,METAR MRPV NIL=
MRPV,2025,03,24,06,00,METAR MRPV NIL=
MRPV,2025,03,24,07,00,METAR MRPV NIL=
MRPV,2025,03,24,08,00,METAR MRPV NIL=
MRPV,2025,03,24,09,00,METAR MRPV NIL=
MRPV,2025,03,24,10,00,METAR MRPV NIL=
MRPV,2025,03,24,11,00,METAR MRPV NIL=
MRPV,2025,03,24,12,00,METAR MRPV 241200Z 12009KT CAVOK 20/14 A3000 NOSIG=
MRPV,2025,03,24,13,00,METAR MRPV 241300Z 12010KT CAVOK 21/15 A3002 NOSIG=
MRPV,2025,03,24,14,00,METAR MRPV 241400Z 13011KT 9999 FEW045 BKN250 23/14 A3004 NOSIG=
MRPV,2025,03,24,15,00,METAR MRPV 241500Z 10013KT 9999 FEW045 BKN250 24/16 A3005 NOSIG=
MRPV,2025,03,24,16,00,METAR MRPV 241600Z 10015KT 9999 FEW040 BKN100 26/17 A3004 NOSIG=
MRPV,2025,03,24,17,00,METAR MRPV 241700Z 07014KT 9999 FEW045 BKN110 26/17 A3003 NOSIG=
MRPV,2025,03,24,18,00,METAR MRPV 241800Z 07016KT 9999 FEW035 BKN110 26/17 A3001 NOSIG=
MRPV,2025,03,24,18,42,SPECI MRPV 241842Z 09014KT 9999 DZ FEW030 BKN100 24/18 A3000 NOSIG=
MRPV,2025,03,24,19,00,METAR MRPV 241900Z 11010KT 9999 FEW025 BKN080 24/18 A3000 REDZ NOSIG=
MRPV,2025,03,24,20,00,METAR MRPV 242000Z 10010KT 9999 -DZ FEW020 BKN050 23/19 A2999 NOSIG=
MRPV,2025,03,24,20,22,SPECI MRPV 242022Z 11008KT 6000 DZ OVC020 22/19 A2999 NOSIG=
MRPV,2025,03,24,21,00,METAR MRPV 242100Z 12007KT 9999 DZ FEW020 OVC060 21/19 A2998 NOSIG=
MRPV,2025,03,24,22,00,METAR MRPV 242200Z 12008KT 9999 -DZ FEW020 OVC060 22/18 A2997 NOSIG=
MRPV,2025,03,24,23,00,METAR MRPV 242300Z 11010KT 9999 FEW015 BKN100 22/18 A2999 NOSIG=
MRPV,2025,03,25,00,00,METAR MRPV 250000Z 13008KT 9999 FEW020 OVC100 21/18 A3002 NOSIG=
MRPV,2025,03,25,01,00,METAR MRPV NIL=
MRPV,2025,03,25,02,00,METAR MRPV NIL=
MRPV,2025,03,25,03,00,METAR MRPV NIL=
MRPV,2025,03,25,04,00,METAR MRPV NIL=
MRPV,2025,03,25,05,00,METAR MRPV NIL=
MRPV,2025,03,25,06,00,METAR MRPV NIL=
MRPV,2025,03,25,07,00,METAR MRPV NIL=
MRPV,2025,03,25,08,00,METAR MRPV NIL=
MRPV,2025,03,25,09,00,METAR MRPV NIL=
MRPV,2025,03,25,10,00,METAR MRPV NIL=
MRPV,2025,03,25,11,00,METAR MRPV NIL=
MRPV,2025,03,25,12,00,METAR MRPV 251200Z 12010KT 9999 FEW020 BKN140 21/16 A3003 NOSIG=
MRPV,2025,03,25,13,00,METAR MRPV 251300Z 12011G21KT 9999 FEW020 BKN160 21/17 A3007 NOSIG=
MRPV,2025,03,25,14,00,METAR MRPV 251400Z 10016KT 9999 FEW020 BKN160 23/17 A3008 NOSIG=
MRPV,2025,03,25,15,00,METAR MRPV 251500Z 12011KT 9999 FEW030 BKN160 24/17 A3009 NOSIG=
MRPV,2025,03,25,16,00,METAR MRPV 251600Z 09018KT 9999 FEW035 BKN200 25/17 A3009 NOSIG=
MRPV,2025,03,25,17,00,METAR MRPV 251700Z 10015KT 9999 FEW035 SCT140 BKN200 26/17 A3007 NOSIG=
MRPV,2025,03,25,18,00,METAR MRPV 251800Z 09018KT 9999 SCT035 SCT160 26/17 A3005 NOSIG=
MRPV,2025,03,25,19,00,METAR MRPV 251900Z 11014KT 9999 FEW025 SCT060 BKN140 26/17 A3003 NOSIG=
MRPV,2025,03,25,20,00,METAR MRPV 252000Z 11012KT 9999 FEW025 BKN120 25/17 A3001 NOSIG=
MRPV,2025,03,25,21,00,METAR MRPV 252100Z 10016KT 9999 FEW025 SCT060 25/16 A3000 NOSIG=
MRPV,2025,03,25,22,00,METAR MRPV 252200Z 11011KT 9999 FEW040 BKN160 24/17 A3002 NOSIG=
MRPV,2025,03,25,23,00,METAR MRPV 252300Z 12010KT 9999 FEW035 SCT080 BKN160 22/16 A3003 NOSIG=
MRPV,2025,03,26,00,00,METAR MRPV 260000Z 10012KT 9999 FEW030 BKN090 22/16 A3005 NOSIG=
MRPV,2025,03,26,01,00,METAR MRPV NIL=
MRPV,2025,03,26,02,00,METAR MRPV NIL=
MRPV,2025,03,26,03,00,METAR MRPV NIL=
MRPV,2025,03,26,04,00,METAR MRPV NIL=
MRPV,2025,03,26,05,00,METAR MRPV NIL=
MRPV,2025,03,26,06,00,METAR MRPV NIL=
MRPV,2025,03,26,07,00,METAR MRPV NIL=
MRPV,2025,03,26,08,00,METAR MRPV NIL=
MRPV,2025,03,26,09,00,METAR MRPV NIL=
MRPV,2025,03,26,10,00,METAR MRPV NIL=
MRPV,2025,03,26,11,00,METAR MRPV NIL=
MRPV,2025,03,26,12,00,METAR MRPV 261200Z 09017KT 9999 FEW035 20/14 A3007 NOSIG=
MRPV,2025,03,26,13,00,METAR MRPV 261300Z 11011KT 9999 FEW030 SCT250 21/15 A3010 NOSIG=
MRPV,2025,03,26,14,00,METAR MRPV 261400Z 13011KT 9999 FEW030 SCT220 22/16 A3012 NOSIG=
MRPV,2025,03,26,15,00,METAR MRPV 261500Z 11012KT 9999 FEW030 BKN200 23/16 A3014 NOSIG=
MRPV,2025,03,26,16,00,METAR MRPV 261600Z 12012KT 9999 FEW030 BKN220 24/16 A3014 NOSIG=
MRPV,2025,03,26,17,00,METAR MRPV 261700Z 11013KT 9999 FEW035 BKN220 25/16 A3011 NOSIG=
MRPV,2025,03,26,18,00,METAR MRPV 261800Z 10017KT 9999 SCT040 BKN220 25/16 A3009 NOSIG=
MRPV,2025,03,26,19,00,METAR MRPV 261900Z 10018KT 9999 SCT030 BKN220 25/15 A3006 NOSIG=
MRPV,2025,03,26,20,00,METAR MRPV 262000Z 10017KT 9999 FEW030 BKN220 26/15 A3003 NOSIG=
MRPV,2025,03,26,21,00,METAR MRPV 262100Z 08017KT 9999 FEW030 BKN200 25/15 A3001 NOSIG=
MRPV,2025,03,26,22,00,METAR MRPV 262200Z 09016KT 9999 FEW030 BKN200 25/15 A3000 NOSIG=
MRPV,2025,03,26,23,00,METAR MRPV 262300Z 10015KT 9999 FEW040 BKN200 23/16 A3001 NOSIG=
MRPV,2025,03,27,00,00,METAR MRPV 270000Z 09014KT 9999 FEW040 BKN200 21/16 A3003 NOSIG=
MRPV,2025,03,27,01,00,METAR MRPV NIL=
MRPV,2025,03,27,02,00,METAR MRPV NIL=
MRPV,2025,03,27,03,00,METAR MRPV NIL=
MRPV,2025,03,27,04,00,METAR MRPV NIL=
MRPV,2025,03,27,05,00,METAR MRPV NIL=
MRPV,2025,03,27,06,00,METAR MRPV NIL=
MRPV,2025,03,27,07,00,METAR MRPV NIL=
MRPV,2025,03,27,08,00,METAR MRPV NIL=
MRPV,2025,03,27,09,00,METAR MRPV NIL=
MRPV,2025,03,27,10,00,METAR MRPV NIL=
MRPV,2025,03,27,11,00,METAR MRPV NIL=
MRPV,2025,03,27,12,00,METAR MRPV 271200Z 10013KT 9999 FEW030 BKN200 20/15 A3005 NOSIG=
MRPV,2025,03,27,13,00,METAR MRPV 271300Z 09010KT 9999 FEW030 BKN180 21/16 A3007 NOSIG=
MRPV,2025,03,27,14,00,METAR MRPV 271400Z 10017KT 9999 FEW030 BKN180 22/16 A3007 NOSIG=
MRPV,2025,03,27,15,00,METAR MRPV 271500Z 11016G26KT 9999 SCT030 BKN160 22/16 A3009 NOSIG=
MRPV,2025,03,27,16,00,METAR MRPV 271600Z 09021G31KT 9999 SCT030 BKN150 23/16 A3010 NOSIG=
MRPV,2025,03,27,17,00,METAR MRPV 271700Z 08019KT 9999 SCT030 BKN150 25/16 A3007 NOSIG=
MRPV,2025,03,27,18,00,METAR MRPV 271800Z 09018KT 9999 BKN030 23/16 A3007 NOSIG=
MRPV,2025,03,27,19,00,METAR MRPV 271900Z 09016G28KT 9999 BKN030 24/15 A3004 NOSIG=
MRPV,2025,03,27,20,00,METAR MRPV 272000Z 08019G29KT 9999 BKN030 22/15 A3002 NOSIG=
MRPV,2025,03,27,21,00,METAR MRPV 272100Z 10015G25KT 9999 BKN030 22/14 A3001 NOSIG=
MRPV,2025,03,27,22,00,METAR MRPV 272200Z 08015KT 9999 SCT030 23/14 A3000 NOSIG=
MRPV,2025,03,27,23,00,METAR MRPV 272300Z 11013KT 9999 SCT020 BKN120 21/15 A3001 NOSIG=
MRPV,2025,03,28,00,00,METAR MRPV 280000Z 10010KT 9999 FEW040 OVC120 21/15 A3003 NOSIG=
MRPV,2025,03,28,01,00,METAR MRPV NIL=
MRPV,2025,03,28,02,00,METAR MRPV NIL=
MRPV,2025,03,28,03,00,METAR MRPV NIL=
MRPV,2025,03,28,04,00,METAR MRPV NIL=
MRPV,2025,03,28,05,00,METAR MRPV NIL=
MRPV,2025,03,28,06,00,METAR MRPV NIL=
MRPV,2025,03,28,07,00,METAR MRPV NIL=
MRPV,2025,03,28,08,00,METAR MRPV NIL=
MRPV,2025,03,28,09,00,METAR MRPV NIL=
MRPV,2025,03,28,10,00,METAR MRPV NIL=
MRPV,2025,03,28,11,00,METAR MRPV NIL=
MRPV,2025,03,28,12,00,METAR MRPV 281200Z 12010G20KT 9999 FEW040 SCT120 BKN200 19/15 A3004 NOSIG=
MRPV,2025,03,28,13,00,METAR MRPV 281300Z 11013KT 9999 FEW030 BKN180 20/15 A3006 NOSIG=
MRPV,2025,03,28,14,00,METAR MRPV 281400Z 09014KT 9999 FEW030 BKN180 22/15 A3008 NOSIG=
MRPV,2025,03,28,15,00,METAR MRPV 281500Z 11010KT 9999 FEW030 BKN190 23/15 A3010 NOSIG=
MRPV,2025,03,28,16,00,METAR MRPV 281600Z 08011KT 9999 FEW030 BKN190 24/15 A3009 NOSIG=
MRPV,2025,03,28,17,00,METAR MRPV 281700Z 06012KT 9999 FEW030 BKN190 27/16 A3007 NOSIG=
MRPV,2025,03,28,18,00,METAR MRPV COR 281800Z 09013KT 9999 FEW040 BKN100 26/16 A3005 NOSIG=
MRPV,2025,03,28,19,00,METAR MRPV 281900Z 08015KT 9999 FEW040 BKN180 26/17 A3003 NOSIG=
MRPV,2025,03,28,20,00,METAR MRPV 282000Z 08014KT 9999 FEW040 BKN200 26/17 A2999 NOSIG=
MRPV,2025,03,28,21,00,METAR MRPV 282100Z 08013KT 9999 FEW040 BKN200 26/17 A2997 NOSIG=
MRPV,2025,03,28,22,00,METAR MRPV 282200Z 09015KT 9999 FEW040 SCT250 25/17 A2995 NOSIG=
MRPV,2025,03,28,23,00,METAR MRPV 282300Z 09013KT 9999 FEW040 BKN250 24/17 A2996 NOSIG=
MRPV,2025,03,29,00,00,METAR MRPV 290000Z 09015KT 9999 FEW040 BKN200 22/16 A2998 NOSIG=
MRPV,2025,03,29,01,00,METAR MRPV NIL=
MRPV,2025,03,29,02,00,METAR MRPV NIL=
MRPV,2025,03,29,03,00,METAR MRPV NIL=
MRPV,2025,03,29,04,00,METAR MRPV NIL=
MRPV,2025,03,29,05,00,METAR MRPV NIL=
MRPV,2025,03,29,06,00,METAR MRPV NIL=
MRPV,2025,03,29,07,00,METAR MRPV NIL=
MRPV,2025,03,29,08,00,METAR MRPV NIL=
MRPV,2025,03,29,09,00,METAR MRPV NIL=
MRPV,2025,03,29,10,00,METAR MRPV NIL=
MRPV,2025,03,29,11,00,METAR MRPV NIL=
MRPV,2025,03,29,12,00,METAR MRPV 291200Z 11008KT 9999 FEW025 SCT200 20/15 A3003 NOSIG=
MRPV,2025,03,29,13,00,METAR MRPV 291300Z 11010KT 9999 FEW035 SCT200 21/15 A3006 NOSIG=
MRPV,2025,03,29,14,00,METAR MRPV 291400Z 09016KT 9999 FEW040 SCT200 23/15 A3007 NOSIG=
MRPV,2025,03,29,15,00,METAR MRPV 291500Z 08014KT 9999 FEW045 BKN200 24/16 A3008 NOSIG=
MRPV,2025,03,29,16,00,METAR MRPV 291600Z 08013KT 9999 FEW045 BKN220 25/16 A3007 NOSIG=
MRPV,2025,03,29,17,00,METAR MRPV 291700Z 08009KT 9999 FEW045 BKN250 27/16 A3005 NOSIG=
MRPV,2025,03,29,18,00,METAR MRPV 291800Z 09013KT 9999 FEW045 SCT250 28/16 A3002 NOSIG=
MRPV,2025,03,29,19,00,METAR MRPV 291900Z 09015KT 9999 FEW045 BKN220 28/16 A2999 NOSIG=
MRPV,2025,03,29,20,00,METAR MRPV 292000Z 08014KT 9999 FEW045 BKN250 28/16 A2996 NOSIG=
MRPV,2025,03,29,21,00,METAR MRPV 292100Z 08011KT 9999 FEW045 SCT250 28/16 A2994 NOSIG=
MRPV,2025,03,29,22,00,METAR MRPV 292200Z 08014KT 9999 FEW035 SCT250 26/16 A2994 NOSIG=
MRPV,2025,03,29,23,00,METAR MRPV 292300Z 09013KT 9999 FEW020 SCT040 24/17 A2995 NOSIG=
MRPV,2025,03,30,00,00,METAR MRPV 300000Z 10010KT 9999 FEW020 SCT060 23/17 A2997 NOSIG=
MRPV,2025,03,30,01,00,METAR MRPV NIL=
MRPV,2025,03,30,02,00,METAR MRPV NIL=
MRPV,2025,03,30,03,00,METAR MRPV NIL=
MRPV,2025,03,30,04,00,METAR MRPV NIL=
MRPV,2025,03,30,05,00,METAR MRPV NIL=
MRPV,2025,03,30,06,00,METAR MRPV NIL=
MRPV,2025,03,30,07,00,METAR MRPV NIL=
MRPV,2025,03,30,08,00,METAR MRPV NIL=
MRPV,2025,03,30,09,00,METAR MRPV NIL=
MRPV,2025,03,30,10,00,METAR MRPV NIL=
MRPV,2025,03,30,11,00,METAR MRPV NIL=
MRPV,2025,03,30,12,00,METAR MRPV 301200Z 15009KT CAVOK 19/14 A3003 NOSIG=
MRPV,2025,03,30,13,00,METAR MRPV 301300Z 13007KT CAVOK 21/14 A3005 NOSIG=
MRPV,2025,03,30,14,00,METAR MRPV 301400Z 11010KT CAVOK 23/13 A3006 NOSIG=
MRPV,2025,03,30,15,00,METAR MRPV 301500Z 09011KT CAVOK 25/14 A3007 NOSIG=
MRPV,2025,03,30,16,00,METAR MRPV 301600Z 08012KT 9999 FEW040 SCT220 26/15 A3007 NOSIG=
MRPV,2025,03,30,17,00,METAR MRPV 301700Z 07009KT 9999 FEW035 SCT220 27/15 A3005 NOSIG=
MRPV,2025,03,30,18,00,METAR MRPV 301800Z 09013KT 9999 FEW040 SCT220 28/16 A3002 NOSIG=
MRPV,2025,03,30,19,00,METAR MRPV 301900Z 08011KT 9999 FEW035 28/16 A3000 NOSIG=
MRPV,2025,03,30,20,00,METAR MRPV 302000Z 01006KT 9999 SCT040 27/17 A2998 BECMG 29005KT=
MRPV,2025,03,30,20,07,SPECI MRPV 302007Z 25006KT 9999 SCT040 SCT080 26/18 A2998 NOSIG=
MRPV,2025,03,30,21,00,METAR MRPV 302100Z 26004KT 9999 FEW040 SCT140 25/18 A2997 NOSIG=
MRPV,2025,03,30,22,00,METAR MRPV 302200Z 28007KT 9999 SCT040 BKN200 26/18 A2996 NOSIG=
MRPV,2025,03,30,22,45,SPECI MRPV 302245Z 09008KT 240V100 9999 BKN040 24/17 A2997 NOSIG=
MRPV,2025,03,30,23,00,METAR MRPV 302300Z 09009KT 9999 FEW035 BKN060 24/17 A2998 NOSIG=
MRPV,2025,03,31,00,00,METAR MRPV 310000Z 09009KT 9999 FEW030 BKN060 22/16 A2999 NOSIG=
MRPV,2025,03,31,01,00,METAR MRPV NIL=
MRPV,2025,03,31,02,00,METAR MRPV NIL=
MRPV,2025,03,31,03,00,METAR MRPV NIL=
MRPV,2025,03,31,04,00,METAR MRPV NIL=
MRPV,2025,03,31,05,00,METAR MRPV NIL=
MRPV,2025,03,31,06,00,METAR MRPV NIL=
MRPV,2025,03,31,07,00,METAR MRPV NIL=
MRPV,2025,03,31,08,00,METAR MRPV NIL=
MRPV,2025,03,31,09,00,METAR MRPV NIL=
MRPV,2025,03,31,10,00,METAR MRPV NIL=
MRPV,2025,03,31,11,00,METAR MRPV NIL=
MRPV,2025,03,31,12,00,METAR MRPV 311200Z 12008KT CAVOK 21/15 A3003 NOSIG=
MRPV,2025,03,31,13,00,METAR MRPV 311300Z 10008KT CAVOK 22/15 A3004 NOSIG=
MRPV,2025,03,31,14,00,METAR MRPV 311400Z 12010KT 9999 FEW040 SCT220 24/16 A3006 NOSIG=
MRPV,2025,03,31,15,00,METAR MRPV 311500Z 10013KT 9999 FEW040 SCT220 25/16 A3007 NOSIG=
MRPV,2025,03,31,16,00,METAR MRPV 311600Z 08012KT 9999 FEW040 SCT200 26/16 A3007 NOSIG=
MRPV,2025,03,31,17,00,METAR MRPV 311700Z 08011KT 9999 FEW040 SCT200 28/16 A3005 NOSIG=
MRPV,2025,03,31,18,00,METAR MRPV 311800Z 09010KT 9999 SCT040 SCT080 28/16 A3002 NOSIG=
MRPV,2025,03,31,19,00,METAR MRPV 311900Z 19004KT 9999 SCT040 BKN200 28/17 A3000 NOSIG=
MRPV,2025,03,31,20,00,METAR MRPV 312000Z 25007KT 9999 BKN045 27/18 A2996 NOSIG=
MRPV,2025,03,31,21,00,METAR MRPV 312100Z 27011KT 9999 SCT040 26/19 A2995 NOSIG=
MRPV,2025,03,31,22,00,METAR MRPV 312200Z 30010KT 9999 BKN040 24/20 A2995 NOSIG=
MRPV,2025,03,31,23,00,METAR MRPV 312300Z 25006KT 9999 SCT020 BKN150 24/20 A2996 NOSIG=
